Name,Total-Rate,Worth-Ratio,Phone,City,Region,Street,Quality-Rate,Service-Rate,Decoration-Rate,free internet,hookah,cigarettes,parking-lot,Pose,Free-Delivery,View,BreakFast,Outdoor,Live-Music,Sum-Of-Featurs,Time-Open,Time-Close
خامیز,0,0,2126808894,تهران,زعفرانیه," آصف، انتهای کوچه حامد، نبش باغستان ششم",0,0,0,0,0,0,0,1,1,0,0,0,0,2,8:00,24:00:00
کافه رستوران بارمان,0,0,2122202929,تهران,فرمانیه," خیابان لواسانی، مابین آقایی و وطن پور، پلاک 152",0,0,0,0,0,0,0,1,0,0,0,0,0,1,10:30,24:00:00
سیزده,0,0,2188914292,تهران,فلسطین شمالی,"نرسیده به بلوار کشاورز،پلاک431",0,0,0,0,0,0,0,1,0,0,1,0,0,2,8:00,24:00:00
اینساید,0,0,2122661143,تهران,فرشته," مريم غربي،كوئين سنتر",0,0,0,0,0,0,0,1,0,0,1,1,0,3,10:00,24:00:00
هوبو لانژ,0,0,9190054735,تهران,بلوار سعادت آباد,"نبش کوچه حق طلب،ساختمان تهران پاریس",0,0,0,0,0,0,0,1,0,0,0,0,0,1,14:00,24:00:00
مارون بار,0,0,2144973474,تهران,خیابان اشرفی‌اصفهانی," خیابان پیامبر‌شرقی، پلاک ۴۷",0,0,0,0,0,0,0,1,1,0,0,0,0,2,11:00,24:00:00
راینو (هفت تیر),0,0,2188300750,تهران,میدان هفت تیر,هتل مروارید,0,0,0,0,0,0,0,1,0,0,1,1,0,3,10:00,24:00:00
پریسکا,0,0,2188311501,تهران,خیابان کریمخان,"خیابان سنائی،پلاک50",0,0,0,0,0,0,0,1,0,0,1,1,0,3,9:00,24:00:00
اُدت,0,0,2144872954,تهران,پونک," اشرفی اصفهانی جنوب، ورودی آبشناسان غرب، طبقه بالای سرزمین سوخاری",0,0,0,0,0,0,0,1,0,0,0,0,0,1,10:00,24:00:00
باراز,0,0,2144235719,تهران,بلوار مرزداران غربی (بين یادگار امام و اشرفي اصفهاني), بعد از بانك كشاورزي,0,0,0,0,0,0,0,1,0,0,0,1,0,2,11:00,24:00:00
سسنیک,0,0,2188943444,تهران,خیابان‌ولیعصر," نرسیده به میدان ولیعصر، نبش خیابان فیروزه",0,0,0,0,0,0,0,1,0,0,0,0,0,1,11:00,24:00:00
پنجاه و دو هرتز,0,0,91300656,تهران,پاسداران," خیابان اسلامی، بین گلستان ۱ و ۲",0,0,0,0,0,0,0,1,0,0,0,0,0,1,9:00,24:00:00
هفت (هفت تیر),0,0,2188811224,تهران,میدان هفت‌تیر," خیابان کریمخان زند، خردمندجنوبی",0,0,0,0,0,0,0,1,1,0,1,0,0,3,8:00,24:00:00
گلزار,0,0,2188865370,تهران,میدان هفت تیر,"خیابان بهار شیراز،خیابان سلیمان خاطر کوچه گلزار",0,0,0,0,0,0,0,1,0,0,0,0,0,1,10:00,24:00:00
مری,0,0,9366239991,تهران,خیابان انقلاب," بعد از دروازه دولت، خیابان رامسر، پلاک ۷",0,0,0,0,0,0,0,1,0,0,1,0,0,2,10:00,24:00:00
چک موز,0,0,9102003134,تهران,نیاوران," بعد از سه راه یاسر، نرسیده به مژده، پلاک ۳۲۰",0,0,0,0,0,0,0,1,0,0,0,0,0,1,12:00,24:00:00
آدورا,0,0,2122680036,تهران,اندرزگو, خیابان سلیمی شمالی,0,0,0,0,0,0,0,1,0,0,0,0,0,1,12:00,24:00:00
لوئیجی (شهرک غرب),0,0,2188087838,تهران,شهرک غرب,"بلوار دادمان،بین کوچه معراج و میلاد،پلاک ١٤٧",0,0,0,0,0,0,0,1,1,0,0,0,0,2,9:00,24:00:00
ماژول,0,0,2166550997,تهران,ستارخان,"روبروى حبيب الهي،خيابان تاكستان،پلاک ٧/١",0,0,0,0,0,0,0,1,0,0,1,1,0,3,9:30,24:00:00
آنوبانی,0,0,2188750003,تهران,سهروردي شمالی," پايين‌تر از آپادانا(خرمشهر)، نبش كوچه فيروزه، پلاک ٥٤٤",0,0,0,0,0,0,0,1,0,0,0,1,0,2,12:00,24:00:00
کاویچ,0,0,9125062720,تهران,اندرزگو,بعد از کاوه به سمت شرق,0,0,0,0,0,0,0,1,0,0,1,0,0,2,9:00,24:00:00
کارنو,0,0,2172487,تهران,سعادت آباد,"خیابان سرو غربی،خیابان بخشایش خیابان نوزده شمالی،برج عرفان،طبقه همکف",0,0,0,0,0,0,0,1,1,0,0,1,0,3,11:30,24:00:00
کتاب (نیاوران),0,0,2122285969,تهران,خیابان باهنر,مجموعه کتاب نیاوران,0,0,0,0,0,0,0,1,0,0,0,1,0,2,12:00,24:00:00
لوتوس,0,0,2126126906,تهران,خیابان باهنر," روبروی جماران، طبقه 1،",0,0,0,0,0,0,0,1,1,0,0,0,0,2,12:00,24:00:00
پگاه,0,0,9107898308,تهران,خیابان انقلاب,"خیابان خارک،بن بست داوری پلاک ۳",0,0,0,0,0,0,0,1,0,0,1,0,0,2,9:00,24:00:00
اُشو,0,0,9351138068,تهران,میدان تجریش," ابتدای خیابان ولیعصر، جنب بانک کشاورزی",0,0,0,0,0,0,0,1,0,0,1,0,0,2,10:00,24:00:00
د وان (سعادت آباد),0,0,2188581309,تهران,سعادت آباد," پایین تر از میدان کاج، کوچه حق طلب غربی، پلاک130 طبقه دوم",0,0,0,0,0,0,0,1,1,0,0,0,0,2,13:00,24:00:00
لانتی,0,0,2122288140,تهران,‎نياوران, ميدان نياوران پلاك ١٢,0,0,0,0,0,0,0,1,1,0,0,0,0,2,12:00,24:00:00
دیبا (هتل کوروش),0,0,2122903993,تهران,خیابان میرداماد,"خیابان حصاری،نبش کوچه سوم،هتل کوروش",0,0,0,0,0,0,0,1,1,0,1,0,0,3,8:00,24:00:00
سربن,0,0,2122560556,تهران,پاسداران," نبش گلستان دوم، (فلاح زاده)",0,0,0,0,0,0,0,1,1,0,0,1,0,3,6:30,24:00:00
گارنت,0,0,2149927,تهران,اندرزگو," حدفاصل کاوه و قيطريه، نبش خيابان مهر محمدی جنوبی، برج ديانا، طبقات١٠و١١",0,0,0,0,0,0,0,1,1,0,0,0,0,2,12:00,24:00:00
باران,0,0,2122694453,تهران,خیابان نیاوران," خیابان مقدسی( مژده)،خیابان لاریجانی،نبش ظهیرالدوله",0,0,0,0,0,0,0,1,1,0,1,1,0,4,10:00,24:00:00
هتریک,0,0,2188334818,تهران,یوسف آباد," میدان سلماس ، تقاطع فتحی شقاقی و
بیستون پلاک 32",0,0,0,0,0,0,0,1,1,0,0,0,0,2,12:00,24:00:00
بوردیکا,0,0,2186037928,تهران,خیابان کریمخان,"خیابان نجات الهی،خیاباان سپند،تقاطع قرنی،جنب هتل آرام",0,0,0,0,0,0,0,1,0,0,0,0,0,1,12:00,24:00:00
میستری باکس,0,0,9375250154,تهران,حکیمیه,"بلوار بهار،نبش زهدی،پلاک14، طبقه2",0,0,0,0,0,0,0,1,0,0,0,0,0,1,12:00,24:00:00
مون لایت لانژ,0,0,0,تهران,حکیمیه,"بلوار بهار، خیابان بهشت، بهار ۱، پلاک ۳۶",0,0,0,0,0,0,0,1,1,0,0,0,0,2,12:00,24:00:00
توسکافه,0,0,2122242450,تهران,اندرزگو,"سلیمی جنوبی،نبش نعمتی،پلاک ۷۰",0,0,0,0,0,0,0,1,1,0,1,0,0,3,8:30,24:00:00
دل پیانو,0,0,2122381091,تهران,پل  پارک وی,"چمران جنوب خروجی هتل اوین،خیابان شهید سوری،نرسیده به درب ورودی آتی ساز،کوچه بهزاد،پلاک20",0,0,0,0,0,0,0,1,1,0,1,0,0,3,12:00,24:00:00
ریون,0,0,2122112837,تهران,سعادت آباد,"میدان بهرود،خیابان عابدی،نبش کوچه سی ششم پلاک ۱۷",0,0,0,0,0,0,0,1,0,0,0,1,0,2,11:00,24:00:00
مانستر,0,0,0,تهران,میدان تجریش, جنب شمرون کباب,0,0,0,0,0,0,0,1,0,0,0,0,0,1,7:00,24:00:00
اِس,0,0,2177955977,تهران,نارمک,"ضلع شرقی میدان نبوت،نبش کوچه فاطمه الزهرا،پلاک۳۳",0,0,0,0,0,0,0,1,0,0,1,0,0,2,9:00,24:00:00
تلما (ولیعصر),0,0,9199673742,تهران,چهارراه ولیعصر," خیابان خارک، کوچه داوری، پلاک ٣",0,0,0,0,0,0,0,1,0,0,1,0,0,2,9:00,24:00:00
ژانوی,0,0,2140229014,تهران,خيابان شريعتى," بالاتر از پل صدر، نبش كوچه داد (حافظى)، پاساژ الماس، طبقه همكف",0,0,0,0,0,0,0,1,0,0,1,0,0,2,9:00,24:00:00
سی تی پلاس,0,0,9361298909,تهران,شهرک غرب," خیابان ایران زمین، خیابان گلستان جنوبی، جنب بانک ایران زمین، پلاک 9",0,0,0,0,0,0,0,1,1,0,0,0,0,2,9:30,24:00:00
همنشین,0,0,2177224574,تهران,میدان رسالت," خیابان هنگام، سه راه طاهرخانی، نبش کوچه بهار",0,0,0,0,0,0,0,1,0,0,1,0,0,2,9:00,24:00:00
بابا طاهر,0,0,2155381966,تهران, میدان شاپور," بین خیابان طبرستان و بشیری، پلاک۶۴۸",0,0,0,0,0,0,0,1,0,0,0,1,0,2,11:00,24:00:00
سیزده 50,0,0,2122359015,تهران,سعادت آباد,"بالاتر از میدان کاج، بین خیابان عبقری و گلستان دوم",0,0,0,0,0,0,0,1,1,0,0,1,0,3,9:00,24:00:00
دریم لند,0,0,2144978731,تهران,بلوار فردوس شرق," بين خیابان عقيل و حسن آباد،پلاك ٣٦٧",0,0,0,0,0,0,0,1,0,0,0,0,0,1,16:00,24:00:00
بلو بیسترو,0,0,2144000999,تهران,بزرگراه آیت الله کاشانی,نبش خیابان عقیل,0,0,0,0,0,0,0,1,1,0,0,0,0,2,12:00,24:00:00
سماع افلاک,0,0,2144262252,تهران,مرزداران غربی," خیابان ابراهیمی، برج الوند طبقه ۲",0,0,0,0,0,0,0,1,1,0,1,0,0,3,9:00,24:00:00
انگرام,0,0,2188391669,تهران,خیابان فاطمی," خیابان دائمی، خیابان سازمان آب، پلاک ۳۶",0,0,0,0,0,0,0,1,0,0,0,0,0,1,10:30,24:00:00
چیاکو (پاسداران),0,0,2122871020,تهران,پاسداران, نگارستان یکم,0,0,0,0,0,0,0,1,0,0,0,0,0,1,8:00,24:00:00
لنا (تهرانپارس),0,0,2177871000,تهران,تهرانپارس," خیابان گلبرگ، خیابان۱۱۳(صادقی)، نبش خیابان ۱۴۴غربی(ستانی)",0,0,0,0,0,0,0,1,0,0,1,0,0,2,10:00,24:00:00
حیاط نیوا,0,0,2122797883,تهران,پاسداران,"گلستان دوم(فلاح زاده)،پلاک 109",0,0,0,0,0,0,0,1,1,0,1,0,0,3,9:30,24:00:00
رزاموند,0,0,2144820235,تهران,جنت آباد شمالي,"بالا تر از چهار راه ايرانپارس،انتهاي خيابان كوروش شرقي،بالاي فرشگاه كوروش",0,0,0,0,0,0,0,1,0,0,0,0,0,1,12:00,24:00:00
دو فرانس,0,0,2188792038,تهران,خیابان گاندی,"پاساژ گاندی،طبقه اول",0,0,0,0,0,0,0,1,0,0,0,0,0,1,10:00,24:00:00
بی قرار,0,0,9121275796,تهران,مجیدیه شمالی," بلوار کاووسی ( بلوار بیژن )، بالاتر از گلستان دهم، پلاک ۱۳۵",0,0,0,0,0,0,0,1,0,0,0,0,0,1,11:00,24:00:00
گالری فرش,0,0,215538849,تهران,میدان منیریه," خیابان معیری، پلاک 116 و 118",0,0,0,0,0,0,0,1,0,0,1,0,0,2,9:00,24:00:00
کایوتی,0,0,2177538496,تهران,خیابان انقلاب," بین شریعتی و پل‌چوبی، کوچه توانا",0,0,0,0,0,0,0,1,0,0,1,0,0,2,10:00,24:00:00
هل,0,0,2140224257,تهران,فرمانیه," نارنجستان ۷ ، مجتمع تجاری پارک سنتر ، طبقه اول",0,0,0,0,0,0,0,1,0,0,1,0,0,2,16:30,24:00:00
بشکه (ستاری),0,0,9357320021,تهران,اتوبان ستاری," کوروش مال، طبقه همکف واحد ۹",0,0,0,0,0,0,0,1,0,0,0,0,0,1,11:00,24:00:00
هیچ,0,0,2188953370,تهران,بلوار کشاورز," خیابان کبکانیان، پلاک ۵",0,0,0,0,0,0,0,1,0,0,0,0,0,1,10:00,24:00:00
فانتینو,0,0,2122215541,تهران,قیطریه," بلوار اندرزگو، خیابان اشکستان پورجنوبی،پلاک ۸",0,0,0,0,0,0,0,1,1,0,1,0,0,3,8:00,24:00:00
پاتوق (حسینیه ارشاد),0,0,2122251343,تهران,خیابان شریعتی," پایین تر از حسینه ارشاد ، نبش کوچه کامیار",0,0,0,0,0,0,0,1,1,0,0,0,0,2,12:00,24:00:00
نوتلا لند,0,0,2122845143,تهران,خیابان پاسداران, مابین نگارستان ۲ و۳,0,0,0,0,0,0,0,1,1,0,0,0,0,2,12:00,24:00:00
بهدونه,0,0,2188623619,تهران,یوسف آباد, نبش شصت و سوم,0,0,0,0,0,0,0,1,1,0,0,0,0,2,12:00,24:00:00
طلائی,0,0,2122717877,تهران,میدان تجریش," خیابان جلالوند، پ 6",0,0,0,0,0,0,0,1,0,0,0,0,0,1,10:00,24:00:00
سیصد و شصت و پنج,0,0,2126474397,تهران,اختیاریه جنوبی,روبه روی بوستان 22 بهمن,0,0,0,0,0,1,0,1,0,0,1,0,0,3,9:00,24:00:00
مس,0,0,2126116400,تهران,میدان نیاوران(باهنر), ضلع شمالی,0,0,0,0,0,1,0,1,0,0,1,1,0,4,8:30,24:00:00
بیکری گراس,0,0,2122332125,تهران,هروی,"خیابان ساقدوش،انتهای کوچه عدالت",0,0,0,0,0,1,0,1,0,0,1,1,0,4,9:00,24:00:00
باور,0,0,9375738278,تهران,خيابان كريمخان," خيابان عضدى ( آبان )جنوبي خيابان شهيد جعفر شهرى، تماشاخانه سپند",0,0,0,0,0,1,0,1,0,0,0,1,0,3,15:00,24:00:00
والهالا,0,0,2188368920,تهران,‌شهرک غرب,"خیابان سپهر،گلبرگ سوم،انتهای کوچه رضایی غربی",0,0,0,0,0,1,0,1,1,0,0,0,0,3,12:00,24:00:00
طهرون (ایرانشهر),0,0,2188315233,تهران,ایرانشهر, نبش خیابان یگانه,0,0,0,0,0,1,0,1,0,0,1,0,0,3,8:00,24:00:00
حوض کاشی,0,0,2188491389,تهران,خیابان ایرانشهر," خیابان بهشهر، پلاک ۹",0,0,0,0,0,1,0,1,0,0,1,1,0,4,9:00,24:00:00
پل آرت,0,0,2188963222,تهران,فلسطين شمالي,خيابان فيروز دهقان پلاك ٣,0,0,0,0,0,1,0,1,0,0,0,1,0,3,12:00,24:00:00
رویال رز,0,0,9912714132,تهران,نياوران," خیابان محمودی ۳ ، پلاک ۷",0,0,0,0,0,1,0,1,0,0,1,1,0,4,9:00,24:00:00
گروک,0,0,2144368429,تهران,شهران جنوبی," بلوار کوهسار، خیابان فرهنگ، مجتمع کوهسار،بلوکB، واحد تجاری یک",0,0,0,0,0,1,0,1,0,0,1,0,0,3,10:00,24:00:00
طهران قدیم,0,0,2188619635,تهران,شیخ بهایی جنوبی," شهرک والفجر، رو به رو خیابان 9/3، پلاک 1، برج ارغوان",0,0,0,0,0,1,0,1,0,0,1,0,0,3,10:00,24:00:00
سوشه,0,0,2188621517,تهران,میدان ونک," خیابان خدامی، خیابان آفتاب، پلاک 15",0,0,0,0,0,1,0,1,0,0,1,0,0,4,8:30,24:00:00
روشن فکر,0,0,2188699291,تهران,سعادت آباد,"علامه جنوبی،٣٨غربي نبی اکرم،نبش۴۰ غربی،پلاك۱",0,0,0,1,0,0,0,1,0,0,1,1,0,4,12:00,24:00:00
لوی لانژ,0,0,2126118451,تهران,شمال کاخ نیاوران,"ابتدای کاشانک،پلاک۳۸۶",0,0,0,1,0,0,0,1,0,0,0,1,0,3,12:00,24:00:00
اسپیناچ,0,0,2122382637,تهران,سعادت آباد,"بلوار کوهستان، مجتمع اپال طبقه ۵",0,0,0,1,0,0,0,1,1,0,0,0,0,3,9:00,24:00:00
نارین (تهرانپارس),0,0,0,تهران,تهرانپارس," بلوار باقری، فلکه سوم، لاین کندرو، پلاک ۸۴",0,0,0,1,0,0,0,1,0,0,0,0,0,2,12:00,24:00:00
انتظار,0,0,9355685643,تهران,خیابان دولت," چهار راه قنات اول، خیابان آقا میری، جنب بانک پاسارگاد، پلاک 45، طبقه همکف، کلینیک دانیان",0,0,0,1,0,0,0,1,0,0,1,0,0,3,9:00,24:00:00
دل وار,0,0,0,تهران,نياوران, پايين تر از سه راه ياسر,0,0,0,1,0,0,0,1,0,0,0,0,0,2,9:00,24:00:00
سیناک,0,0,2188686007,تهران,سعادت آباد," نبشه کوچه ی سی و دوم، پلاک ۵ ، طبقه ی اول",0,0,0,1,0,1,0,1,1,0,0,0,0,4,12:00,24:00:00
پارلان,0,0,2188009591,تهران,یوسف آباد," خیابان مهرام، جنب شیرینی فروشی بی بی",0,0,0,1,0,0,0,1,0,0,0,0,0,2,9:00,24:00:00
آمانته,0,0,2122431318,تهران,ولنجک,"بلوار دانشجو،پایین تر از میدان یاسمن،پلاک12",0,0,0,1,0,0,0,1,0,0,1,0,0,3,9:00,24:00:00
ژوزک (ولنجک),0,0,2122093205,تهران,ولنجک," بلوار دانشجو، پشت پارک گلریزان، روبروی مرکز خرید ولنجک",0,0,0,1,0,0,0,1,1,0,1,0,0,4,8:00,24:00:00
برازا (مطهری),0,0,2188049332,تهران,خیابان مطهری," خیابان ترکمنستان، نبش بن‌ بست توسکا",0,0,0,1,0,0,0,1,0,0,1,0,0,3,8:30,24:00:00
ژیان(آجودانیه),0,0,2122809919,تهران,آجودانیه,"خیابان پور ابتهاج ، کوچه پوریا ، مجتمع کاج",0,0,0,1,0,0,0,1,0,0,1,0,0,3,8:00,24:00:00
هیرو,0,0,2122082070,تهران,سعادت آباد," میدان بهرود، بلوار شقایق، رو به روی پارک ژوراسیک",0,0,0,1,0,1,0,1,0,0,0,1,0,4,11:30,24:00:00
خان کافه,0,0,2177726529,تهران,فلکه اول تهرانپارس,"انتهای مجتمع تجاری پارس، سمت راست، پلاک 12",0,0,0,1,0,0,0,1,0,0,0,0,0,2,8:00,24:00:00
اسنیک,0,0,2188890251,تهران,خیابان کریمخان,"به سمت میدان ولیعصر،بن بست شاهد",0,0,0,0,1,1,0,1,0,0,1,0,0,4,10:00,24:00:00
عمارت حور,0,0,2166760796,تهران,خيابان حافظ,"نرسيده به بازار موبايل ايران،پلاك ١٧٠و١٧٢",0,0,0,0,1,1,0,1,0,0,0,1,0,4,12:00,24:00:00
نیکی,0,0,2188370800,تهران,شهرک غرب,"بام پاساژ میلادنور،طبقه6،پلاک29",0,0,0,0,1,1,0,1,0,0,1,1,0,5,10:00,24:00:00
رز ایرانی,0,0,9120037231,تهران,دزاشیب,"نجابت جو،نرسیده به نیاوران،پلاک 16",0,0,0,0,1,1,0,1,0,0,0,0,0,3,12:00,24:00:00
نوبو,0,0,2126708017,تهران,زعفرانيه," انتهاي ماكويي پور شمالي، كوچه مسجد",0,0,0,0,1,0,0,1,0,0,1,0,0,3,12:00,24:00:00
دربار,0,0,2188802576,تهران,خیابان سپهبد قرنی,"کوچه امانی، پلاک ۵",0,0,0,0,1,1,0,1,0,0,1,1,0,5,12:00,24:00:00
دلین,0,0,2186044356,تهران,سهروردی شمالی,"بین خیابان بهشتی و مطهری،بین کوچه آزادی و باغ،پلاک ۲۶۴",0,0,0,0,1,1,0,1,0,0,0,0,0,3,11:00,24:00:00
ودود,0,0,2122334700,تهران,میدان هروی," میدان ملت، خیابان ریحانی(محمدی)، روبرو بانک پاسارگاد",0,0,0,1,1,1,0,1,0,0,0,0,0,4,10:00,24:00:00
کلبه فدک,0,0,2177035706,تهران,نارمک," خیابان شهید مدنی، نظام آباد، بالاتر از مترو فدک، نبش کوچه علیجانی 122",0,0,0,1,1,0,0,1,0,0,1,0,0,4,11:00,24:00:00
ب کافه,0,0,2122666970,تهران,محمودیه," خیابان ب، نرسیده به بزرگراه چمران",0,0,0,0,1,1,0,1,0,0,1,1,0,5,8:30,24:00:00
نلسون کلاپ,0,0,2126203563,تهران,خیابان جردن," خیابان ناهید غربی، پلاک 53",0,0,0,1,1,1,0,1,0,0,0,0,0,4,12:00,24:00:00
محفل سنتی سلطانی (دیزی و قلیان),0,0,2144438181,تهران,جنت آباد مرکزی, بن بست یازدهم,0,0,0,0,1,1,0,1,0,0,0,0,0,3,7:00,24:00:00
پارسی,0,0,2188745904,تهران,خیابان بهشتی," خیابان کاووسی فر، پلاک 33، طبقه 2",0,0,0,1,1,1,0,1,0,0,1,0,0,5,10:00,24:00:00
سلاطین,0,0,2122210900,تهران,فرمانيه," خيابان لواساني ، روبروي خيابان اقايي ،جنب موسسه كوثر",0,0,0,1,1,1,0,1,0,0,0,0,0,4,11:00,24:00:00
بوکالانج,0,0,2122751198,تهران,نياوران," انتهاي خيابان مقدسي ، خيابان عرفاني ، خيابان همايون ، كوچه مريم ، كوچه صادقي ، انتهاي كوچه پلاك ٤٨",0,0,0,0,1,1,0,1,1,0,1,0,0,5,12:00,24:00:00
قلیان سرای حنان,0,0,2166881730,تهران,خیابان رودکی," بالاتر از تقاطع امام خمینی، پلاک ۲۸۸",0,0,0,0,1,1,0,1,0,0,0,0,0,3,10:00,24:00:00
لِوی,0,0,21888616551,تهران,برج آ اس پ,"راهروی طبقه همکف،پلاک66",0,0,0,1,0,1,1,1,0,0,1,0,0,5,10:00,24:00:00
بل,0,0,2122078497,تهران,سعادت آباد,"پایین تر از میدان بهرود،جنب مرکز خرید پرواز",0,0,0,0,1,1,1,1,0,0,0,1,0,5,17:00,24:00:00
عمارت تراس,0,0,9129649818,تهران,میدان هفت حوض," خ آیت شمالی، مجتمع تجاری امرالد استار، طبقه دوم",0,0,0,0,1,0,1,1,0,0,0,0,0,3,12:00,24:00:00
مکتب قهوه,0,0,9100019973,تهران,نیاوران," سه راه یاسر، انتهای صادقی قمی،
ابتدای خلیلی ،مجتمع پارسیان جماران، دهکده ایرانی",0,0,0,0,0,0,1,1,0,0,1,0,0,3,12:00,24:00:00
شبرو,0,0,9127772350,تهران,ایران‌مال," طبقه جی ۲، جنب کتابخانه جندی‌شاپور، شبرو بازار",0,0,0,0,0,0,1,1,0,0,0,0,0,2,11:00,24:00:00
کارزین (فرودگاه مهرآباد),0,0,2144675066,تهران,فرودگاه مهرآباد,ترمینال ۲,0,0,0,0,0,0,1,1,0,0,1,0,0,3,12:00,24:00:00
لامور,0,0,2126359045,تهران,شهرك غرب," روبروى اريكه ايرانيان
خيابان حافظى پلاك ٥٠",0,0,0,0,0,0,1,1,1,0,0,0,0,3,10:30,24:00:00
رومرون,0,0,2188887001,تهران,جردن, بلوار آرش غربی(کنار گذر)٫ پلاک۲۴,0,0,0,0,0,0,1,1,1,0,0,0,0,3,12:00,24:00:00
شار لانژ,0,0,2188878510,تهران,میدان آرژانتین," انتهای خیابان الوند، خیابان اسفراین، نبش اهورا مزدا، طبقه آخر هتل اسکان الوند",0,0,0,0,0,0,1,1,0,0,0,1,0,3,16:00,24:00:00
زی (ارتش),0,0,2122491360,تهران,بزرگراه ارتش,"برج های آتی ساز،برج نرگس،واحد ۶",0,0,0,0,0,0,1,1,1,0,0,1,0,4,12:00,24:00:00
روم رون,0,0,2188887001,تهران,جردن, بلوار آرش غربی٫ پلاک۲۴,0,0,0,0,0,1,1,1,0,0,0,1,0,4,12:00,24:00:00
ماهور (شهرک غرب),0,0,2188071090,تهران,شهرک غرب," بلوار دادمان، ابتدای خیابان درختی، مرکز خرید سپهر، طبقه اول",0,0,0,0,0,0,1,1,0,0,0,0,0,2,11:00,24:00:00
زئوس,0,0,2122148200,تهران,سعادت‌آباد," میدان کاج ، سرو شرقی ، بلوار علامه شمالی ، نبش چهاردهم شرقی",0,0,0,0,0,0,1,1,0,0,0,0,0,2,18:00,24:00:00
کالوشه,0,0,2122129960,تهران,چمران شمال," بعد از پل نیایش ، خیابان سئول ، شهرک سئول ، نبش هشتم شرقی( روبه روی درب غربی باشگاه انقلاب)",0,0,0,1,0,0,1,1,0,0,0,0,0,3,10:00,24:00:00
مانی (گیشا),0,0,2188272823,تهران,گیشا," بین خیابان 10 و 12 ، پلاک 13",0,0,0,1,1,0,1,1,0,0,0,0,0,4,11:00,24:00:00
مدیکو,0,0,2186081279,تهران,خیابان ولیعصر," نرسیده به توانیر ، نبش کوچه بخشندگار ساختمان مدیکو",0,0,0,1,0,1,1,1,0,0,1,1,0,6,8:00,24:00:00
رویال گلکسی,0,0,2186125583,تهران,سهروردی شمالی," پایین‌تر از بهشتی، خیابان میرزای زینالی، پلاک ۴۲",0,0,0,1,0,0,1,1,0,0,0,0,1,4,7:00,24:00:00
کوه نور,0,0,9125260681,تهران,میدان کوهسار,"جاده سولقان،روبه روی سفره خانه ماه عسل",0,0,0,0,1,0,1,1,0,0,0,1,1,5,12:00,24:00:00
روچیک,0,0,2188191401,تهران,ونك,"خيابان خدامى،روبروى هتل هما",0,0,0,0,1,0,1,1,0,0,0,0,1,4,13:00,24:00:00
رولکس لانژ,0,0,9395408127,تهران,آجودانیه,مجتمع  تجاری عرش,0,0,0,1,1,1,1,1,0,0,0,1,1,7,12:00,24:00:00
واریو,0,0,2177732149,تهران,تهرانپارس,"خیابان دماوند، نبش خیابان مهرنامی، پلاک ۲۸۷/۱",0,0,0,0,0,0,0,1,0,0,0,0,1,2,12:00,24:00:00
هشت بهشت,0,0,2144201855,تهران,ستارخان," فلکه اول صادقیه، پاساژ پردیس، طبقه دوم",0,0,0,0,0,1,0,1,1,0,0,1,1,5,11:00,24:00:00
پایپار,0,0,2144675059,تهران,غرب به شرق شیخ فضل الله نوری,"بعد از ستاری،خروجی شهرک آپادانا،شمال شرقی میدان برادران محمدی",0,0,0,0,1,1,1,1,0,0,0,1,1,6,10:00,24:00:00
ماهد,0,0,2122383766,تهران,شهرک غرب," بلوار درختی، خ حافظی نرسیده به یادگار امام، پلاک١۴۵",0,0,0,0,0,1,0,1,0,0,0,0,1,3,12:00,24:00:00
ریزوتو (زعفرانیه),0,0,2122180851,تهران,زعفرانیه," میدان اعجازی، بلوار بهزادی، بن بست بهار",0,0,0,1,0,0,1,1,0,0,1,0,1,5,11:00,24:00:00
شادان,0,0,2144037941,تهران,صادقیه," بلوار فردوس شرق، ابتدای گلستان شمالی پلاک 4",0,0,0,1,1,0,0,1,1,0,0,0,1,5,12:00,24:00:00
سینوول,0,0,2188224569,تهران,بلوار نلسون ماندلا," خیابان آرش غربی، جنب نوول لانژ، کافه سینوول",0,0,0,0,0,0,0,0,0,0,0,0,0,0,9:00,24:00:00
کافه ژین,0,0,2188552072,تهران,یوسف آباد,"خیابان اسدآبادی، خیابان هجدهم، پلاک 27/29",0,0,0,1,0,0,0,0,0,0,0,0,0,1,7:30,24:00:00
کافه رستوران شهران,0,0,2144332838,تهران,شهران," بین فلکه اول و دوم رو به روی بانک سپه، رستوران شهران",0,0,0,0,1,0,0,0,0,0,0,0,0,1,11:00,24:00:00
کافه خانه سبو,0,0,9907469565,تهران,خیابان نوفل لوشاتو," کوچه هانری کوبن، نبش صائب پلاک ۵",0,0,0,0,0,0,0,0,0,0,0,0,0,0,14:00,24:00:00
بهارک( دسرک),0,0,2188973704,تهران,میدان فاطمی," خیابان شهید گمنام، ابتدای جهانمهر، پلاک ۲۱",0,0,0,0,0,0,0,0,0,0,0,0,0,0,8:30,24:00:00
کافه مارکت,0,0,2188802111,تهران,میدان ولیعصر," ضلع شمال شرقی میدان، جنب بانک سپه",0,0,0,0,0,0,0,0,1,0,0,0,0,1,6:45,24:00:00
نان جم,0,0,2188104715,تهران,یوسف آباد, خیابان اسد آبادی بین 19 و 21,0,0,0,0,0,0,0,0,0,0,0,0,0,0,6:00,24:00:00
سوییت آنجل,0,0,2122000189,تهران,خیابان شریعتی," دوراهی قلهک، خیابان بصیری، پلاک 19",0,0,0,0,0,0,0,0,0,0,0,0,0,0,8:00,24:00:00
لتوکافه,0,0,2188495426,تهران,بهار شمالي," خيابان وركش، نرسيده به كوچه سياسي، لتوكافه",0,0,0,0,0,1,0,0,0,1,0,0,0,2,8:00,24:00:00
نامبر 6,0,0,9396666919,تهران,فرشته," خیابان مریم شرقی، خیابان امین، مجتمع smp",0,0,0,0,1,0,0,0,0,1,0,0,0,2,12:00,24:00:00
دنده شیشا,0,1,9123059935,تهران,اندرزگو," نبش کاوه، کنار رستوران ضیافت، کوچه نیکو ، پلاک۱، طبقه ،۱",1,1,1,0,0,0,0,1,0,0,0,0,0,1,11:00,24:00:00
روتیندا,0,5,2122201913,تهران,قیطریه," بلوار صبا، ابتدای خیابان فاطمیه، نبش مهر ۷",5,5,4,1,0,0,0,1,0,0,0,0,0,2,11:00,24:00:00
سی نود,8.1,0,2188867931,تهران,خیابان شهید مطهری," نرسیده به خیابان سهروردی، بین اورامان و سنندج، ساختمان120 طبقه منفی یک، کافه سی نود",0,0,0,0,0,0,0,0,1,0,0,0,0,1,12:00,24:00:00
شانیا,8.2,3,2166341215,تهران,میدان فردوسی," به طرف شرق، خیابان امیرسلیمانی، خیابان مهنا، پلاک2 کافه شانیا",3,3,3,0,1,0,0,0,0,0,0,0,0,1,10:00,24:00:00
ناتور,8.1,1,2188919862,تهران,کریم خان زند," خیابان آبان جنوبی، پلاک 38، طبقه همکف",1,1,1,0,0,0,0,0,0,0,0,0,0,0,8:00,24:00:00
بلینسکی,8.5,5,2186072171,تهران,کریمخان,"ابتدای خیابان ماهشهر،پلاک ۱۱۸",5,5,5,1,0,0,0,1,1,0,0,0,0,3,9:00,24:00:00
چیمنی (پاسداران),7.6,3,2122579490,تهران,خیابان پاسداران, بین گلستان 8و9,4,4,3,0,0,0,0,1,0,0,0,0,0,1,11:00,24:00:00
کرسندو,8.1,5,2188776866,تهران,جردن,"کوچه یزدان پناه،نبش دبیر",4,5,5,0,0,0,0,1,0,0,1,0,0,2,7:00,24:00:00
اودسا,7.5,0,2177228047,تهران,چهارراه سرسبز," خیابان آیت شمالی ، پلاک 856",0,0,0,0,0,0,0,1,0,0,0,1,0,2,12:00,24:00:00
روتا لانژ,8.1,5,2188801330,تهران,میدان ولیعصر," هتل آرامیس، روف روتالانژ",4,4,5,0,1,1,0,1,0,0,0,1,0,4,10:00,24:00:00
کوزی لانژ,6.7,0,2122803557,تهران,ملاصدرا," شیخ بهایی جنوبی، برزیل غربی، پلاک ۱۵۴",0,0,0,0,0,0,0,1,0,0,0,0,0,1,12:00,24:00:00
زی,6.7,3,9309201040,تهران,انقلاب," خیابان فلسطین ، خیابان لبافی نژاد قبل از ابوریحان،پلاک ۸۵",3,4,4,0,0,0,0,1,0,0,0,1,0,2,8:00,24:00:00
اشکبوس,8.1,5,2122722745,تهران,خیابان فرمانیه غربی(لواسانی غربی),"جنب شیرینی فروشی فرمانیه، پلاک ۱۲۱",5,5,5,0,1,1,0,1,0,0,1,0,0,4,8:30,24:00:00
کلاتو,3.8,3,2122785249,تهران,پاسداران," نبش بهستان ۷، پلاک۴۱۸",2,3,2,0,1,1,1,1,0,0,0,0,1,5,12:00,24:00:00
لوئیجی (گیشا),5.2,0,2188269208,تهران,گیشا کوی نصر, بین کوچه 1 و 3 پلاک 26,0,0,0,0,0,0,0,1,1,0,0,0,0,2,10:00,24:00:00
لوئیجی (تیراژه),8.1,5,2188087838,تهران,بزرگراه اشرفی اصفهانی,"مرکز خرید تیراژه،طبقه دوم",5,5,4,0,0,0,1,1,1,0,0,0,0,3,9:00,24:00:00
لیتل ایتالی,8.1,0,9126381730,تهران,شیخ بهایی جنوبی,"بلوار علیخانی،مجتمع ونک پارک،برج دماوند",0,0,0,0,0,0,0,1,0,0,0,1,0,2,13:00,24:00:00
شاه کوه,8.1,0,9334441293,تهران,شمیرانات,اوشان میدان امام علی پانصد متر به سمت تهران,0,0,0,0,1,0,0,1,0,0,1,0,0,3,12:00,24:00:00
کلینیک,6.7,1,2177800716,تهران,چهارراه سرسبز,"آیت شمالی،نبش زمردشرقی،پلاک 901",5,2,4,0,0,0,0,1,1,0,1,1,0,4,8:00,24:00:00
ماتسو لانژ,2.4,2,2122054643,تهران,الهیه," مریم شرقی، پلاک ۶۷",1,1,1,0,0,1,0,1,1,0,1,1,0,5,8:00,24:00:00
دایمند,5.2,0,2188890196,تهران,خیابان نجات اللهی (ویلا)," خیابان فلاح پور، شماره۳۳",0,0,0,0,0,0,0,1,1,0,1,1,0,4,8:00,24:00:00
بلوما,8.2,3,2122425052,تهران,خیابان ولیعصر," خیابان زعفرانیه، موزه تماشاگه زمان",4,5,3,0,0,0,0,1,0,0,1,1,0,3,8:00,24:00:00
عمارت دیباچه,5.8,3,9309045190,تهران,بلوار کشاورز,خیابان نادری تقاطع ایتالیا,3,3,3,0,0,1,0,1,1,0,1,1,0,5,9:00,24:00:00
زهیرا لانژ,6.7,0,2177727065,تهران,تهرانپارس,"پايين تر از فلكه اول،خيابان شهيد حسيني(بهار)،پلاك ٧١",0,0,0,0,0,0,1,1,0,0,0,1,0,3,11:00,24:00:00
روبی,3.1,2,91301725,تهران,میدان نیاوران,"خیابان باهنر،پلاک ۹۹",3,2,2,0,1,0,0,1,1,0,0,1,0,4,12:00,24:00:00
جریان,2.4,0,9373333816,تهران,خیابان فرشته,"خیابان بوسنی هرزوگوین، خیابان دکتر حسابی، باغ موزه هنر ایرانی",0,0,0,0,0,0,0,1,0,0,1,1,0,3,9:00,24:00:00
سیتی تراس,4.6,3,2144341947,تهران,شهران," بلوار کوهسار، پارک جنگلی کوهسار",3,3,4,0,0,0,1,1,0,0,1,0,0,3,11:00,24:00:00
کایا,8.1,0,2186175382,تهران,شهرک غرب," روبه روی میلاد نور، مجتمع ستین سنتر",0,0,0,0,0,0,1,1,1,0,0,0,0,3,12:00,24:00:00
ژابیز لانژ,4.4,3,2188856149,تهران,خیابان ولیعصر," بالاتر از پارک ساعی، نبش خیابان مردوخی",2,2,2,1,1,0,0,1,0,0,0,1,0,4,10:00,24:00:00
هاب,8.2,5,2177677254,تهران,دروازه شمیران," میدان ابن سینا، خیابان مازندران",5,4,5,1,0,0,0,1,0,0,1,0,0,3,9:00,24:00:00
کلندی جلاتو,8.1,0,2188601114,تهران,یوسف آباد,"خیابان اسد آبادی،بین ۴۳ و ۴۵ ،جنب بانک رفاه",0,0,0,0,0,0,0,1,1,0,0,0,0,2,10:00,24:00:00
کانتینر (سعادت آباد),8.1,0,2122140603,تهران,سعادت آباد," میدان فرهنگ، بلوار ۲۴ متری، نبش هفتم شرقی",0,0,0,0,0,0,0,1,1,0,0,0,0,2,8:00,24:00:00
خشت بهشت,8.2,5,2133319225,تهران,خیابان پیروزی," صد دستگاه، پلاک524",4,4,4,0,0,0,0,1,0,0,0,0,0,1,12:00,24:00:00
یونیس,5.2,3,2177060312,تهران,خیابان استخر," بلوار استقلال، جنب پارک پلیس، ابتدا خیابان صاحب الزمان شمالی، پلاک 12، طبقه اول",3,2,3,1,0,0,0,1,0,0,0,0,0,2,11:00,24:00:00
پاگانی,2.4,1,2126650261,تهران,پاسداران," خيابان داوود اسلامی، بالاتر از خيابان گيلان، پلاك 12.2 ، طبقه دوم",1,1,1,1,0,0,0,1,0,0,1,0,0,3,9:00,24:00:00
دانته (مرزداران),5.3,3,2144231372,تهران,بلوار مرزداران," جنب شیرینی ماه بانو، پلاک ١٨٥",1,1,4,1,0,0,0,1,0,0,0,0,0,2,12:00,24:00:00
درچه,7.5,5,2122362882,تهران,سعادت آباد," خیابان کوهستان، مجتمع تجاری اپال طبقه ي ششم",5,4,3,0,0,0,1,1,0,0,1,0,0,3,8:00,24:00:00
سرا (شهرری),8.1,0,0,تهران,شهرری, فودکورت ری لند,0,0,0,0,0,0,0,1,0,0,0,0,0,1,11:00,24:00:00
فروهر,8.1,0,2126753484,تهران,هروی," خیابان گلزار ، نبش کوچه پنجم ، همکف برج گلزار",0,0,0,0,1,1,0,1,0,0,0,0,0,3,8:00,24:00:00
هیرو کام,9.3,5,2146132271,تهران,پونک," ضلع شمالی بلوار همیلا،پلاک39",5,5,5,0,0,0,0,1,0,0,0,0,0,1,10:00,24:00:00
ولفز دن,4.4,5,2140227670,تهران,پاسداران," خیابان پایدار فرد، نبش بوستان دهم",3,3,2,1,0,0,0,1,0,1,0,0,0,3,12:00,24:00:00
لونیکو,8.1,5,2146111341,تهران,بلوار فردوس غرب( ناصر حجازی), روبه روی پارک الهام,4,4,3,1,0,0,0,1,1,0,0,0,0,3,12:00,24:00:00
احرار,8.1,0,2177415614,تهران,خیابان پیروزی," ۱۰۰متر پایین تر از چهار راه کوکا کولا ،نبش خیابان لادن غربی",0,0,0,0,1,1,0,1,0,0,0,0,0,3,17:00,24:00:00
سوئینی,6.8,3,9124506742,تهران,بلوار فردوس غرب," بعد از بهار شمالی، نبش منوچهر غربی",5,4,3,0,0,0,0,1,0,0,0,0,0,1,12:00,24:00:00
دریمر,6.7,3,2188349619,تهران,خیابان کریمخان," خیابان .خردمند جنوبی، ‌کوچه نوشهر، پلاک۳",4,4,4,0,0,0,0,1,0,0,1,0,0,2,9:00,24:00:00
لوکال,4.6,1,2122180511,تهران,ولنجک," میدان دانشگاه، انتهای بلوار دانشجو، روبروی دبستان ایران زمین، پلاک 15.1",1,1,1,0,0,0,1,1,1,0,1,1,0,5,12:00,24:00:00
تک سین,8.2,5,2122362809,تهران,شهرک غرب,"بلوار دادمان،خیابان فخارمقدم،پلاک72",5,5,5,0,0,0,0,1,0,0,0,0,0,1,9:00,24:00:00
میژو,7.4,3,2144078912,تهران,بلوار فردوس شرق," بين رامين و مالكى، پلاك ٢٤٨",4,4,4,1,0,0,0,1,0,0,0,0,0,2,12:00,24:00:00
قوام,8.1,0,2166751622,تهران,خیابان سی تیر,"روبروی کلیسای پطرس،پلاک ۱۱۲",0,0,0,1,0,0,0,1,0,0,1,0,0,3,10:00,24:00:00
رزمیلو,5.5,3,2122494643,تهران,بلوار ارتش شرق," مجتمع خرید پرنیان،طبقه هفتم",3,2,2,1,0,0,0,1,0,1,1,1,0,5,12:00,24:00:00
هفت آسمان,8.2,5,2188564018,تهران,سعادت آباد,"خیابان دریا،نبش مطهری جنوبی",5,5,5,1,1,0,1,1,1,0,0,0,1,6,11:00,24:00:00
ال سولدادو,5.2,0,9125654731,تهران,خیابان شیراز جنوبی," خیابان علیخانی غربی، مجتمع ونک پارک، برج الوند، بال غربی، واحد ۲۹",0,0,0,1,0,0,0,1,1,0,0,0,0,3,8:00,24:00:00
سودا (هتل آتانا),8.1,5,2141912,تهران,میدان فلسطین," ابتدای خیابان طالقانی غربی،پلاک 401 هتل آتانا",3,5,5,1,0,0,1,1,1,0,1,0,0,5,8:00,24:00:00
رایمون,8.1,0,2126601561,تهران,شریعتی," بعد از دولت، نبش سینما فرهنگ، بالای بانک پارسیان، پلاک 1606",0,0,0,1,0,0,1,1,0,0,1,1,0,6,12:00,24:00:00
جیلاردینو,6.2,3,214449205,تهران,پونک,"مجتمع تجاری بوستان،درب اصلی،راه پله ی سمت راست،طبقه2",3,2,2,1,1,1,0,1,0,0,1,1,0,6,10:00,24:00:00
آروما (بهشتی),8.4,5,9372293610,تهران,انتهای خیابان شهید بهشتی," بعد از تقاطع قایم مقام فرهانی، هتل آروما",5,5,5,1,0,1,0,1,0,0,1,0,0,4,9:00,24:00:00
3 تی (کریمخان),6.7,2,2186037498,تهران,کریمخان," خیابان آبان جنوبی، خیابان سپند، پلاک ۶۹",3,3,2,0,0,0,0,1,0,0,0,1,0,2,11:00,24:00:00
کد,8.2,0,2188837955,تهران,خیابان ایرانشهر,"پایین تر از خیابان سمیه،کوچه مهزاد پلاک ۸",0,0,0,1,0,1,0,1,0,0,1,0,0,4,9:00,24:00:00
خیابون,5.3,1,2188171357,تهران,خيابان سهروردي شمالي,"خیابان خرمشهر،خیابان نيلوفر نبش دوم پلاك ١٢",1,1,5,0,1,0,0,1,0,0,0,0,0,2,12:00,24:00:00
بستنی رضا (نارمک),6.1,1,2177818421,تهران,نارمک," گلبرگ غربی، میدان حلال احمر، روبروی پارک فدک",2,1,2,0,0,0,0,1,0,0,0,0,0,1,11:00,24:00:00
ها (ولیعصر),8.1,0,2166959331,تهران,چهارراه ولیعصر,"روبروی تئاتر شهر،کوچه سرمد،پلاک 10",0,0,0,1,0,0,0,1,0,0,0,0,0,2,9:00,24:00:00
آکوآ (پیروزی),7.8,5,2177759063,تهران,خیابان پیروزی," نرسیده به چهارراه کوکاکولا، مجتمع تجاری پانوراما، طبقه منفی ۳",4,4,4,1,0,0,0,1,0,0,1,0,0,3,10:00,24:00:00
ژلینو (ابوذر),4.6,0,2133838444,تهران,بلوار ابوذر," پل پنجم، خیابان ده حقی، نبش کوچه علامه جنوبی، پلاک 137",0,0,0,1,0,0,0,1,0,0,0,0,0,2,9:00,24:00:00
خانه بستنی سی دا (سعادت آباد),6.7,0,2188562371,تهران,سعادت آباد,"میدان فرهنگ،بلوار فرهنگ،نبش کوچه 30",0,0,0,0,0,0,0,1,1,0,0,0,0,2,11:00,24:00:00
خسرو,6.8,3,2144373912,تهران,ستارخان,"خیابان خسرو جنوبی،پلاک40",4,4,4,1,1,0,0,1,0,0,1,1,1,6,11:00,24:00:00
زی کوک,8.2,5,2144667719,تهران,شهرک اکباتان," فاز یک، خیابان شهید حنانی، مرکز تجاری هفت، راهروی پایین",5,5,5,1,0,0,0,1,1,0,0,0,0,3,10:00,24:00:00
رام,7.5,5,2188310636,تهران,خیابان مطهری (تخت طاووس)," خیابان مهرداد، شماره 16",5,5,5,0,0,1,0,1,0,0,1,0,0,3,8:00,24:00:00
عربیکا,5.3,0,2144294216,تهران,اشرفی اصفهانی," فلکه دوم صادقیه، نبش مرودشت",0,0,0,1,1,1,0,1,0,1,1,1,1,8,10:00,24:00:00
مورف,8.1,5,2166955802,تهران,چهارراه ولی عصر,"خیابان مظفر جنوبی،پایین تر از کوچه پشن،نبش ساختمان علاءالدین",5,5,5,1,0,0,0,1,0,0,1,0,1,4,8:00,24:00:00
تاک,5.9,5,2136303030,تهران,پیروزی," نبرد جنوبی، خیابان ده حقی، روبروی دانشگاه آزاد",4,4,3,1,0,1,0,1,0,0,0,1,0,4,11:00,24:00:00
ژوزک (پاسداران),6.7,3,2122093205,تهران,پاسداران," تقاطع داود اسلامی و گلستان پنجم، پلاک 60",3,4,3,1,0,0,0,1,1,0,1,0,0,4,8:00,24:00:00
ژوزک (سهروردی),8.1,0,2122093205,تهران,سهروردی شمالی," خیابان آپادانا (خرمشهر)، پلاک 125",0,0,0,1,0,0,0,1,1,0,1,0,0,4,8:00,24:00:00
ژوزک (تهرانپارس),2.4,0,2122093205,تهران,تهرانپارس," خیابان 142 غربی، بین خیابان رشید و 113، پلاک 108",0,0,0,1,0,0,0,1,1,0,1,0,0,4,8:00,24:00:00
آبمیوه پلاس (دادمان),7.5,3,2188376368,تهران,شهرک غرب," بلواردادمان، نرسیده به پل یادگار،پلاک134",4,4,4,0,0,0,0,1,0,0,0,0,0,1,11:00,24:00:00
نصف جهان (انقلاب),6.7,0,2188845041,تهران,خیابان انقلاب," نرسیده به میدان فردوسی ، جنب سینما فردوسی ، خیابان رامسر ، پلاک ۶",0,0,0,1,0,0,0,1,1,0,1,0,0,4,8:00,24:00:00
مون (دربند),2.4,1,2122755843,تهران,خیابان دربند," خیابان تاجیک، خیابان گلابدره2 ، پلاک 39",1,1,1,1,1,0,0,1,0,0,1,0,0,4,8:00,24:00:00
لو پارک,2.4,0,9011010728,تهران,یوسف آباد," خیابان ۱۹ ، داخل پارک شفق",0,0,0,1,0,0,0,1,0,0,1,0,0,3,8:00,24:00:00
پرشین (سعادت آباد),3.8,0,2122091736,تهران,سعادت آباد," چهارراه سرو، سرو غربی، نبش کوچه آریا",0,0,0,0,0,0,0,1,1,0,0,0,0,2,12:00,24:00:00
پاتوق (سید خندان),7.8,0,2122860815,تهران,خیابان شریعتی, نبش پل سیدخندان,0,0,0,0,0,0,0,1,1,0,0,0,0,2,12:00,24:00:00
سایدا (شهران),5.9,2,2144314051,تهران,خیابان شهران شمالی, ۵۰۰ متربالاتر از فلکه سوم شهران,1,2,1,0,1,1,0,1,0,1,0,0,0,4,11:00,24:00:00
وافل لته (فلاح),7.6,3,21,تهران,فلاح," میدان گلچین ، نبش کوچه احسانی ، پلاک ۱۹۵",3,3,2,0,0,0,0,1,0,0,0,0,0,1,12:00,24:00:00
پلاتو,6.8,3,2144642204,تهران,شهرک اکباتان," فاز ۱، بلوک A1، سوپر۲،پلاک ۹",3,3,2,0,1,1,0,1,0,0,1,1,0,5,11:00,24:00:00
کافه طباخی کاج,5.9,3,2177298917,تهران,تهرانپارس," خیابان فرجام ، مابین خیابان رشید و زرین ، پلاک ۱۶۰",4,4,2,0,0,0,0,1,0,0,1,0,0,2,6:00,24:00:00
برد گیم,4.6,3,2166955334,تهران,خیابان انقلاب," خیابان شهدای ژاندارمری، پلاک68",3,2,2,1,0,0,0,1,0,0,0,0,0,2,16:00,24:00:00
دورهمی,7.9,5,2155774411,تهران,خیابان امامزاده حسن," روبه روی بانک ملی، پلاک 376",4,4,4,1,0,1,0,1,0,0,0,1,0,4,12:00,24:00:00
دکه (شهرک گلستان),5.3,0,2144711333,تهران,شهرک گلستان," 35 متری گلها، نبش یاس دوم",0,0,0,1,1,0,0,1,0,0,0,0,0,3,11:00,24:00:00
خانه فاموری,7.8,3,2166701428,تهران,خيابان جمهوری," قبل از پل حافظ كوچه‌ی گشتاسب، شماره شش",2,2,2,1,0,0,0,1,0,1,0,0,0,3,10:00,24:00:00
فرسکو,5.3,0,2126853108,تهران,نیاوران," خیابان عمار، ساختمان نیاوران",0,0,0,0,1,1,0,1,1,0,1,0,0,5,8:00,24:00:00
راک (سمیه),7.9,5,2188343127,تهران,خیابان مفتح جنوبی," خیابان سمیه ، نبش کوچه مژدهی ،پلاک ۱۲۱/۱",4,4,4,1,0,0,0,1,1,0,1,0,1,5,8:00,24:00:00
چیمنی (وزرا),6.8,3,2188704580,تهران,خیابان عباس آباد(بهشتی)," ابتدای خیابان وزرا(خالد اسلامبولی)، روبروی سینما ازادی،پلاک 12",3,3,2,0,0,0,0,1,1,0,0,0,0,2,7:00,24:00:00
سامیا,5.3,3,2188746363,تهران,انتهای حقانی پلاک 24,,3,4,3,1,0,0,0,1,0,0,0,0,0,2,7:00,24:00:00
لوکال,8.2,5,2122180511,تهران,ولنجک," میدان دانشگاه ، بلوار دانشگاه ، به سمت توچال بعد از باغ گیلاس",4,4,4,0,0,0,1,1,1,0,1,1,0,5,12:00,24:00:00
میتو جلاتو,8.6,5,2122749801,تهران,نیاوران,"خیابان باهنر،پایین تر از سخ راه یاسر به سمت تجریش پلاک ۳۱۸",5,4,4,0,0,0,0,1,0,0,0,0,0,1,11:00,24:00:00
تتو,7.6,5,214404445,تهران,بلوار فردوس شرق,"وفا اذر جنوبي،مجتمع ايريك ، طبقه ٦",4,4,4,1,0,1,0,1,0,1,1,1,1,7,8:00,24:00:00
ژیرا,5.1,2,2188459396,تهران,خیابان بهشتی,"نرسیده به خیابان سهروردی، پلاک ۱۳۰،طبقه دوم",1,1,1,1,1,1,0,1,1,0,1,0,1,7,11:00,24:00:00
ایست,7.3,5,2188823008,تهران,خیابان ایرانشهر," خیابان آذر شهر، پلاک ۲۲ ، طبقه اول",5,5,5,1,0,1,0,1,0,0,1,0,0,4,9:00,24:00:00
دژاوو,3.9,3,2122431570,تهران,مقدس اردبیلی," بین میدان الف و پسیان، پلاک 31",3,2,1,1,0,0,0,1,1,0,1,0,0,4,9:00,24:00:00
چیمنی (دادمان),5.6,3,2188580167,تهران,شهرک غرب," بلوار دادمان، خیابان بهارستان، روبروی مرکز خرید سپهر",3,3,3,0,0,0,0,1,0,0,0,0,0,1,12:00,24:00:00
هرمو (تهرانپارس),5.2,1,2177323987,تهران,تهرانپارس," بین 206 (غلامی) و 208 (ادیب)، پلاک 289",2,2,3,1,1,0,0,1,0,0,0,0,0,3,9:00,24:00:00
ویونا (کوروش),7,3,2144971544,تهران,تهران," بزرگراه ستاری، نبش خیابان پیامبر، مجتمع کورش، طبقه 7",3,3,3,0,0,0,1,1,0,0,1,0,0,3,11:00,24:00:00
دیسفان,7.7,3,2188805161,تهران,خیابان کریمخان,"خیابان عضدی جنوبی ،جنب رستوران نایب، طبقه همکف",4,4,4,1,0,1,0,1,0,0,1,1,0,5,7:00,24:00:00
بنیتا پلاس,7.4,5,2188366969,تهران,شهرک غرب," بلواردریا ، نرسیده به چهارراه مسجد ، خیابان رامشه ، کوچه مهرداد ، پلاک 117",5,5,5,1,1,1,0,1,0,0,0,0,0,4,12:00,24:00:00
لومیر,7.8,0,21,تهران,مرزداران," خیابان ابراهيمى، داخل كوچه الوند ١٣، راهروى شمالى برج الوند، شماره ٥",0,0,0,0,1,0,0,1,0,0,1,0,0,3,8:00,24:00:00
محبت,8.3,5,9124388267,تهران,جنت آباد شمالی,"بالاتر از نیایش،بین بهارستان ۱۳و ۱۵",5,5,5,0,0,0,0,1,0,0,0,0,0,1,10:00,24:00:00
دوپیانو,7,5,2122774990,تهران,‎پاسداران,بین بهستان ٥ و بهستان۶,4,4,4,1,1,0,0,1,0,0,0,1,1,5,11:00,24:00:00
امیرشکلات (سعادت آباد),6.3,3,2122080574,تهران,سعادت اباد,"بالاتر از ميدان كاج،روبروى بيمارستان مدرس",4,3,3,0,0,0,0,1,0,0,0,0,0,1,10:00,24:00:00
ژیگان,7.3,5,2166569890,تهران,انقلاب,"کارگر شمالی،بالاتر از نصرت،پلاک ۱۱۴۶",4,5,4,1,0,0,0,1,0,0,0,0,0,2,12:00,24:00:00
باژوران,5.1,2,2126431148,تهران,انتهای اتوبان ارتش شرق," شهرک لاله، بعد از میوه و تره بار",2,2,2,1,1,1,0,1,1,0,0,0,1,6,12:00,24:00:00
گلاریس,7.1,3,2122579051,تهران,پاسداران," خيابان بوستان پنجم ، تقاطع پايدار فرد پلاك",4,4,4,0,1,0,0,1,0,0,0,0,0,2,10:00,24:00:00
باریزان,7.4,3,2177974120,تهران,گلبرگ شرقی,"خیابان مصطفوی،پلاک۳۰",3,3,4,1,0,1,0,1,0,0,1,0,1,5,7:00,24:00:00
ورف,5.2,3,2140447314,تهران,همت غرب,"دریاچه چیتگر،باملند،بلوک L4",2,2,2,0,0,0,0,1,0,0,1,0,1,3,8:30,24:00:00
باپوک,8.1,0,2122240792,تهران,قیطریه,"خیابان کریمی(بوعلی)،پلاک ۶۰",0,0,0,0,0,0,0,1,0,0,0,0,0,1,8:00,24:00:00
حس خوب,7.6,5,9358247204,تهران,بالاترازمیدان هفت حوض,"کوچه مهرانپور،پاساژ بهمن طبقه اول",5,5,5,1,0,0,1,1,0,0,1,0,0,4,8:30,24:00:00
زوفا,7,5,2122266644,تهران,اتوبان حقانی, بعد از کتابخانه ملی جنب روگذر شهید همت غرب هتل بزرگ ارم,5,5,5,0,1,0,0,1,0,1,0,0,0,4,11:00,24:00:00
شاندیز اعیانی,6.2,2,2126127835,تهران,دارآباد,"خیابان پور ابتهاج شرقی،انتهای کوچه نارنج",2,2,4,0,0,0,0,1,1,1,0,1,1,5,11:00,24:00:00
منصور (تهرانپارس),7.2,3,2177878247,تهران,تهرانپارس," فلکه اول، ضلع شمال شرقی، پلاک 39",4,4,4,0,0,0,0,1,1,0,0,0,0,2,10:00,24:00:00
شیرپسته مملی,7.9,3,0,تهران,خیابان باهنر, روبه روی خیابان منایی,4,4,3,0,0,0,0,1,0,0,0,0,0,1,10:00,24:00:00
پالیزی,8.7,3,2188763260,تهران,سهروردی شمالی," میدان قندی، پالیزی، پلاک ۷۲۷",4,3,4,0,0,0,0,1,0,0,0,0,0,1,8:00,24:00:00
گودو یاس,8.1,5,2188942573,تهران,خیابان نجات الهی," خیابان محمدی، بن بست گل یاس",4,3,3,0,0,0,0,1,1,0,0,0,0,2,8:30,24:00:00
ویست موزیک,8.7,5,2188456165,تهران,ابتدای رسالت شرق,"نرسیده به خیابان دبستان (کابلی) ،کوچه باقری ، پلاک 1 ، طبقه اول",4,4,4,1,1,1,0,1,0,0,1,0,1,6,9:00,24:00:00
پرواز,6.7,0,2122347301,تهران,سعادت آباد," میدان بهرود، خیابان قمصری، ابتدای ورودی غربی پارک پرواز",0,0,0,0,0,1,1,1,0,0,0,1,0,4,12:00,24:00:00
تراس,5.2,1,0,تهران,بام تهران توچال,,1,1,1,0,0,1,0,1,0,1,1,0,0,4,8:00,24:00:00
عمو بیوک,6.8,2,2166438641,تهران,ستارخان,"نبش کوثر دوم،روبروی بانک صادرات پلاک52",4,4,4,0,0,0,0,1,0,0,0,0,0,1,10:00,24:00:00
ویونا اکسپرس (فودکورت سانا),6.9,2,2174438955,تهران,اندرزگو," بین خیابان علوی و کوچه زمانی ، مرکز خرید سانا طبقه دوم",3,2,3,0,0,1,1,1,0,0,1,0,0,4,11:00,24:00:00
مانیا,4.6,2,2177317364,تهران,حکیمیه,"بلوار بهار،بلوار بابايان،تقاطع بلوار افق،نبش بوستان ساحل",1,1,1,1,1,1,0,1,1,0,0,0,1,6,12:00,24:00:00
وال,7.8,3,2188863027,تهران,خیابان انقلاب," روبروی لاله زار شمالی، جنب سینما پیام، کوچه شکوه، پلاک5",4,4,4,1,0,1,0,1,0,0,1,0,1,5,9:00,24:00:00
صاب,7.8,3,2122036655,تهران,جردن," کوچه مهیار، نبش بن بست زاور، پلاک5",3,3,3,1,0,1,0,1,1,0,0,0,0,4,12:00,24:00:00
بستنی رضا,7.3,2,2188055315,تهران,خیابان یوسف آباد," نبش خیابان ۶۲ ، پلاک ۴۵۰",3,3,3,0,0,1,0,1,0,0,0,0,0,2,9:30,24:00:00
ماهور,4.1,2,2188323056,تهران,خیابان کریمخان,"خیابان ایرانشهر،خیابان آذرشهر،پلاک28",2,2,3,1,0,0,0,1,0,0,0,0,0,2,10:00,24:00:00
رئیس,8,3,2188602571,تهران,خیابان سئول," پایین تر از چهارراه یاسمی، پلاک 60",3,3,3,1,0,1,0,1,0,0,0,0,0,3,8:00,24:00:00
شاهنامه,6.2,3,2122829248,تهران,میدان نوبنیاد," ضلع جنوب غربی، نبش پاساژ غزال",4,4,3,0,0,0,0,1,0,1,0,0,1,3,11:00,24:00:00
بستنی متینو,8.1,3,2122709084,تهران,تجریش," خیابان ولیعصر ، روبروی باغ فردوس ، جنب بانک سامان",4,3,3,0,0,0,0,1,0,0,0,0,0,1,8:00,24:00:00
میلیو,8.3,5,2122984190,تهران,میدان هروی," بلوارگلزار، خیابان شهیدخاک، پلاک 5",5,5,5,0,0,1,0,1,0,0,0,0,0,2,12:00,24:00:00
هات چاکلت نیلوفر,7.7,2,2188762424,تهران,تهران," سهروردی شمالی، آپادانا، خیابان نیلوفر، پلاک 126",4,3,4,0,0,0,0,1,0,0,0,0,0,1,7:30,24:00:00
کارزین ونک,7.5,0,2188677041,تهران,خیابان ونک,نبش کاروتجارت مرکز خرید ونک,0,0,0,1,0,0,0,1,0,0,0,0,0,2,8:00,24:00:00
بستنی ناصر,8.9,2,2122802820,تهران,پاسداران," بالاتر از نوبنیاد، روبروی نارنجستان یکم",4,3,4,0,0,0,0,1,0,0,0,0,0,1,16:00,24:00:00
لمیز (تجریش),8.9,3,2122708061,تهران,میدان تجریش," ابتدای خیابان ملکی (سعد آباد)، پلاک 6",4,3,4,0,0,0,0,1,0,0,1,0,0,2,7:00,24:00:00
ناندو,7.5,0,2122446312,تهران,اقدسیه,"اتوبان ارتش ، بلوار سوهانک، ورودی شرقی برج های تجاری مسکونی آتیساز 2 ، برج مریم ، واحد 7 تجاری",0,0,0,1,0,1,0,1,1,0,0,0,1,5,11:00,24:00:00
سور,6,3,2126205253,تهران,الهیه," خیابان فرشته، خیابان بیدار، روبروی خیابان مریم غربی، پلاک2/2",3,3,3,1,1,1,0,1,1,0,0,1,0,6,12:00,24:00:00
امیر چاکلت(فرمانیه),6.5,3,2122247185,تهران,فرمانیه,"بلوار اندرزگو،نبش کوچه حسینی",3,3,4,0,0,0,0,1,0,0,0,0,0,1,7:30,24:00:00
سن مارکو,9.1,3,2122238108,تهران,قیطریه," بلوار 35 متری، جنب کوچه بشتاب، پلاک 93",4,4,4,1,0,0,0,1,0,0,0,0,0,2,10:00,24:00:00
امید,8,3,2122738506,تهران,تجریش," سه راه نیاوران، خیابان شهید کبیری ،  بعد از آتش نشانی پلاک 80",4,4,3,0,0,0,0,0,0,0,0,0,0,0,11:00,24:00:00
شمرون (شهرک غرب),7.4,4,2188570359,تهران,شهرك غرب,"خيابان ايران زمين شمالى،رو به روى بيمارستان بهمن،جنب فرهنگسراى ابن سينا",3,4,3,0,0,1,0,1,1,0,0,0,0,3,9:00,24:00:00
شمرون (بام لند),7.1,4,2140447341,تهران,انتهاى همت غرب," ابتداى اتوبان خرازى، خروجى درياچه، ميدان موج، خيابان موجبلوار صدف،مجموعه تجارى بام لند",3,2,2,1,0,0,1,1,0,1,0,1,0,5,8:00,24:00:00
دانته,7.7,4,2186046472,تهران,خيابان يوسف اباد," نبش كوچه ١٢، پلاك ١٢٢  طبقه ٥",3,4,3,1,1,1,1,1,1,1,1,0,0,8,9:00,24:00:00
آوا پلاس,7.9,4,2122728797,تهران,نياوران,"بعد از سه راه ياسر به سمت تجريش، پلاك250",5,5,5,1,0,1,0,1,1,0,1,1,1,7,9:00,24:00:00
کاپیتان لانژ,7.8,4,9028888393,تهران,خیابان پاسداران, بین نگارستان نهم و دهم,3,3,3,1,0,1,1,1,0,0,0,0,1,5,12:30,24:00:00
بوریتو,8,4,2188522121,تهران,خیابان سهروردی شمالی," خیابان خرمشهر(آپادانا)، پلاک 172",3,4,3,1,0,0,0,1,0,1,1,1,0,5,9:00,24:00:00
اینترنی (ولنجک),5.7,4,9905776910,تهران,ولنجک‌," خیابان چهاردهم‌، پاساژ توچال‌، طبقه اول",3,2,2,0,1,1,1,1,0,0,0,1,0,5,12:00,24:00:00
حوالی دلبر,2.4,4,2122712270,تهران,خیابان ولیعصر," کوچه کیارستمی، بن بست دلبر، پلاک ۹",1,1,1,0,0,1,0,1,0,0,1,0,0,3,12:00,24:00:00
لورنزو,4.6,4,2122434867,تهران,ولنجک," خیابان امیر آبادی ، نبش گلستان سوم",2,2,2,0,1,1,0,1,0,0,0,1,0,4,12:00,24:00:00
شون برون,6,4,2147673515,تهران,ايران مال, جنب آبنماى موزيكال,3,3,3,0,0,0,1,1,0,0,0,0,0,2,11:00,24:00:00
ترند,8.1,4,2140447210,تهران,دریاچه چیتگر," بام لند، بلوک c",5,5,4,0,0,0,1,1,0,0,1,1,0,4,8:00,24:00:00
دلسا (پاسداران),3.8,4,9198030789,تهران,پاسداران, روبه روي نگارستان پنجم پلاک ٤٦,2,2,1,0,0,0,0,1,0,0,0,0,0,1,11:00,24:00:00
هور خانه فرهنگ و غذا,7,4,2188822288,تهران,هفت تیر," کوچه مانی، پلاک ۷۵",3,3,3,0,0,0,0,1,0,0,1,1,0,3,9:00,24:00:00
روزاریو,4.4,4,2176705347,تهران,فلكه اول تهرانپارس,"خيابان قانع،روبروی درب اصلى پاساژ‌ سپيد،پلاك ٣١",2,4,2,0,0,0,0,1,0,0,0,0,0,1,12:00,24:00:00
چلت,5.3,4,91090317,تهران,بالاتر از فلکه سوم شهران," .ورودی۲کوهسار.، فودکورت ویولند",2,3,3,1,0,0,1,1,0,1,0,0,0,4,11:00,24:00:00
پالا,8.1,4,2122834012,تهران,خیابان نیاوران," روبروی جماران، جنب بانک پاسارگاد، پلاک ۱۶۲",3,4,2,1,0,0,0,1,1,0,1,0,0,4,8:00,24:00:00
بردلند,5.2,4,2122071816,تهران,سعادت آباد," خیابان سرو غربی، خیابان بخشایش،خیابان بهار ۱، پلاک ۱۰",2,2,2,1,0,0,0,1,0,0,0,0,0,2,16:00,24:00:00
تراس پارک,9.1,4,2188687710,تهران,سعادت آباد," خیابان ۳۱ ام، پلاک ۴۷",5,5,4,0,0,1,0,1,0,0,0,1,0,3,11:30,24:00:00
البا,4.3,4,2144059609,تهران,بلوار آیت الله کاشانی," بلوار اباذر، نبش مهتاب پنجم",1,1,1,0,1,1,0,1,1,0,1,0,0,5,8:00,24:00:00
دوناتو (بام لند),7.8,4,9023008767,تهران,دریاچه خلیج فارس," بام لند، ورودی بی، کیوسک دوناتو",5,4,4,0,0,0,1,1,1,0,0,0,0,3,11:00,24:00:00
اتفاق,6.9,4,9352432655,تهران,میدان هفت تیر," خیابان مفتح جنوبی ، انتهای خیابان اردلان ، پلاک ۲۴ ، طبقه دوم",5,3,5,1,0,0,0,1,0,0,1,0,0,3,9:00,24:00:00
هرمان,9.1,4,2188822372,تهران,میدان هفت تیر,"خیابان قائم مقام،خیابان مشاهیر،تقاطع لطفی",5,4,4,1,0,0,0,1,1,0,0,0,0,3,11:00,24:00:00
مهستان (کن),6.7,4,2144339863,تهران,بلوار کوهسار," بنفشه ۴،جنب شهرک الهیه",5,5,4,0,1,1,0,1,0,1,0,1,1,6,12:00,24:00:00
مک لی (نیروی هوایی),6.8,4,21,تهران,خیابان پبروزی," فلکه دوم نیروهوایی ، پلاک ۱۸",3,4,2,0,0,0,0,1,0,0,0,0,0,1,10:00,24:00:00
رولینجا,6.4,4,2140447204,تهران,اتوبان همت غرب," اتوبان خرازی ، خروجی دریاچه خلیج فارس ، میدان موج ، مجتمع بام لند ، بلوک C  ، طیقه دوم",3,3,3,0,0,0,1,1,0,1,0,1,0,4,12:00,24:00:00
سپیدار,6.7,4,2122093549,تهران,شهرك غرب," بلوار فرحزادي، بالاتر از ميدان كتاب، روبروي آسمان هشتم غربي، خيابان سپيدار، پلاك ١",3,3,3,1,1,1,0,1,0,1,1,1,0,7,7:00,24:00:00
دُره,5.5,4,2122061787,تهران,سعادت آباد,"خیابان سرو غربی،خیابان بخشایش،کوچه هفدهم،برج عرفان،پلاک۵۴",3,3,4,1,1,1,0,1,0,0,1,0,0,5,8:00,24:00:00
سیکاس,2.4,4,9123792588,تهران,تهرانپارس,"بلوار پروین.،بین 216 و 218 شرقی،شماره 389",1,2,1,0,0,1,0,1,0,0,1,1,0,4,7:30,24:00:00
چ,7.6,4,2177159967,تهران,خیابان شهید مدنی,"جنب مترو مدنی،تیراژه ۲ طبقه سوم واحد ۳۰۷",5,5,5,1,0,1,1,1,0,0,0,0,0,4,11:00,24:00:00
روژ,6.8,4,2140447953,تهران,همت غرب,"دریاچه چیتگر،باملند،بلوک B،طبقه دوم",3,3,3,1,1,1,1,1,0,0,1,0,1,7,11:00,24:00:00
چراغان,7.5,4,2140447394,تهران,دریاچه چیتگر," بام لند،بلوک vip",3,3,3,1,0,0,1,1,1,0,0,0,0,4,12:00,24:00:00
فرین,7.3,4,2122139056,تهران,سعادت آباد," میدان کاج ، ابتدای خیابان نهم",3,4,3,1,0,0,1,1,1,0,1,0,0,5,7:00,24:00:00
تایپ,8.2,4,2188349917,تهران,ایرانشهرشمالی,نبش کلانتری,3,4,3,1,0,1,0,1,0,0,1,0,0,4,8:00,24:00:00
چیزفکتوری,8.2,4,2126455189,تهران,اقدسيه,"نبش فيروز بخش،مركز خريد اواسنتر",3,4,3,1,0,1,1,1,0,1,0,1,0,6,12:30,24:00:00
ویند,7.2,4,2144204149,تهران,بلوار مرزداران," بلوار آریافر، روبروی پمپ بنزین، پلاک ۱۷،",3,3,3,1,0,1,0,1,0,1,0,0,0,4,8:00,24:00:00
دل,4.9,4,2122141248,تهران,سعادت آباد," بلوار سرو شرقي، خیابان مجد، کوچه نسترن، پلاک41",2,2,3,1,0,0,0,1,1,1,0,0,0,4,11:00,24:00:00
لمیز (ونک),9,4,2188674895,تهران,خیابان ولیعصر," بالاتر از میدان ونک،نبش کوچه صیرفی پلاک2469",3,3,4,1,0,0,0,1,0,0,0,0,0,2,7:00,24:00:00
رومی,8.1,4,2126643166,تهران,خیابان شریعتی," بالاتر از پل صدر ، مقابل سهیل (میرزاپور) ، بین بانک سپه و شهر کوچه باران ، پایین پله ، پلاک ۲",3,3,3,0,0,1,0,1,0,0,1,1,1,5,9:00,24:00:00
لاله سرویس,5.2,4,2122660011,تهران,تقاطع بزرگراه شهید چمران و خیابان ولیعصر (عج), هتل بین المللی پارسیان استقلال,3,3,3,0,0,0,1,1,0,0,1,0,0,3,8:00,24:00:00
کافه ه (گیشا),5.8,4,2188287845,تهران,گیشا," کوی نصر، بین خیابان 13و15، مرکزخرید فرتاک طبقه زیر همکف",5,4,5,1,1,1,0,1,1,0,1,0,1,7,9:30,24:00:00
خاص,6.7,4,2126152881,تهران,دارآباد,"انتهای خیابان محبی، پلاک 30",3,3,3,1,0,1,0,1,0,0,1,1,0,6,8:00,24:00:00
دریا باز,8.2,4,2122429032,تهران,ولنجک,"بلوار دانشجو،خیابان گلریزان، بالاتر از میدان گلریزان",4,4,3,1,1,1,0,1,0,1,0,1,0,6,12:00,24:00:00
ایزار,6,4,9304444808,تهران,باغ کتاب تهران, طبقه دوم,4,4,3,0,0,0,0,1,1,0,0,0,0,2,10:00,24:00:00
باکارا (ولیعصر),6.7,4,9373564072,تهران,چهارراه ولیعصر," ضلع شرقی تئاتر شهر، بین رازی و خارک، بن‌ بست انجمن کتاب، پلاک ۱",4,4,3,0,0,0,0,1,0,0,1,1,0,3,8:30,24:00:00
نان استاپ,6.7,4,2188047538,تهران,ونک," میدان شیخ بهایی، مرکز خرید سئول، پلاک ۱",4,4,3,0,0,1,0,1,0,0,1,1,0,4,9:00,24:00:00
لی وان زغالچی,8.1,4,2166436782,تهران,شهر آرا," پایین تر از اداره گذرنامه، نبش کوچه هفتم(اکبرزاده)",4,5,5,0,0,0,0,1,1,0,1,0,0,3,8:00,24:00:00
عمارت گود,7.9,4,2188827280,تهران,خیابان سمیه," خیابان موسوی نرسیده به ایرانشهر، خیابا فرصت،پلاک ۳۱",4,3,3,1,0,1,0,1,1,1,1,1,0,7,12:00,24:00:00
دوبرا (پاسداران),7,4,2122797549,تهران,پاسداران,"خيابان داوود اسلامي،بين گلستان دوم و سوم",4,4,3,1,0,0,0,1,0,0,0,0,0,2,12:00,24:00:00
آی من,5.9,4,2188982566,تهران,بلوار کشاورز, ابتدای خیابان ۱۶ آذر,4,2,2,1,0,0,0,1,0,0,1,0,0,3,8:30,24:00:00
دیدار,7.5,4,2122877151,تهران,بزرگراه شهید همت," ابتدای پاسداران، کوچه کاشی‌ها ،پلاک ۲، طبقه اول",4,4,5,0,1,1,0,1,0,0,0,0,0,3,11:00,24:00:00
کافه چهار و چهار دقیقه,6,4,2144487350,تهران,پونک," خیابان میرزا بابائی ، نرسیده به چهارراه سردار جنگل",4,3,3,1,1,1,0,1,0,0,1,0,0,5,9:00,24:00:00
بنلی لانژ,6.5,4,2122214140,تهران,اندرزگو," نبش وطن پور جنوبي، پلاك12/1(مقابل مركز خريد سانا) ، ساختمان”Benelli”",4,4,3,0,1,1,0,1,0,0,1,0,0,4,8:00,24:00:00
بالکن,6.9,4,2122387208,تهران,سعادت آباد," خيابان بخشايش ، خیابان هفدهم ، برج عرفان ، طبقه همكف",4,3,3,0,1,0,0,1,0,0,0,0,0,2,10:30,24:00:00
بامی نو (باغ کتاب),6,4,0,تهران,تهران," بزرگراه حقانی، باغ کتاب",4,4,3,0,0,0,1,1,0,0,0,0,0,2,11:00,24:00:00
جحینا,7.3,4,2144070101,تهران,فلكه دوم صادقيه,"ابتداي كاشاني،بوستان يكم،نبش گلستان يكم",4,4,3,1,1,1,1,1,0,0,0,0,0,5,12:00,24:00:00
فانوس (طرشت),7.7,4,2144243320,تهران,جنب ایستگاه مترو طرشت," کوچه رییسی، پلاک ۳",4,5,5,0,0,0,0,1,0,0,1,0,0,2,7:00,24:00:00
کرپ (راه چوبی),6.8,4,2188194514,تهران,اتوبان حقانی," پارک آب و آتش، مجموعه راه چوبی",4,3,3,1,0,0,1,1,0,0,1,0,0,4,8:00,24:00:00
کرم (فودکورت رویال تراس),7.7,4,2188564945,تهران,بلوار سعادت آباد, تقاطع بلوار دریا مجتمع تجاری اداری رویال,4,3,3,0,0,0,1,1,1,0,0,0,0,3,11:00,24:00:00
سرای علا,8.4,4,2140226080,تهران,فرمانيه," روبروى بيمارستان فرمانيه، مركز خريد بام برند سنتر، طبقه دوم",4,4,3,1,0,0,1,1,0,0,0,1,0,4,12:00,24:00:00
سیرو,7.2,4,2188501510,تهران,خيابان سهروردي,"خيابان خرمشهر،خيابان قنبرزاده،كوچه ١٦ام",4,4,3,1,1,1,0,1,1,0,0,0,1,6,12:00,24:00:00
سیت اند گو,6.2,4,2122397828,تهران,خیابان دزاشیب," خیابان علیرضا افشار، پلاک ۱۰",4,3,3,1,0,1,0,1,1,0,1,0,1,6,9:00,24:00:00
کاخ لیدوما,7.7,4,2186090890,تهران,شهرك غرب,"ميدان صنعت،بلوار فرحزادي، پاساژ ليدوما",4,3,3,1,1,1,1,1,0,0,0,1,1,7,12:00,24:00:00
باغ کاریز,6.3,4,2122617179,تهران,خيابان شريعتي,"خيابان دولت،نبش خيابان نعمتي(كيكاوس)،باغ خانه شاعران ايران",4,3,3,1,0,1,0,1,0,1,1,1,0,6,8:00,24:00:00
رد کافی,8.5,4,2166403414,تهران,خیابان انقلاب," زیر پل کالج نرسیده به خیابان البرز  ٢ ، پلاک 737",4,3,3,1,0,0,0,1,0,0,1,0,0,3,8:00,24:00:00
کانتینر (دیباجی),8.7,4,2126111140,تهران,فرمانیه,"دیباجی شمالی،پلاک ۱۱،۱۳",4,3,3,0,0,0,0,1,0,0,0,0,0,1,7:00,24:00:00
بام,8.2,4,2166385145,تهران,مترونواب," پنت هاووس برج گردون کافه بام، ساختمان جنوبی ط 9 واحد 902",4,3,3,1,1,1,0,1,0,0,1,0,0,5,9:00,24:00:00
عمارت شاهکار,8.4,4,21,تهران,خیابان پیروزی," روبروی پرستار ، پلاک 225",4,3,3,0,1,0,0,1,1,0,0,0,0,4,12:00,24:00:00
عود,5.3,4,2166595766,تهران,بلوارکشاورز," خیابان جمالزاده شمالی، نبش کوچه قاجار، پلاک ۵۲۲",4,2,3,1,1,1,0,1,1,0,1,0,1,7,11:00,24:00:00
آس,6.9,4,2122899313,تهران,ابتدای پاسداران," بعد از پل همت ، جنب دشستان سوم",4,4,3,1,0,1,0,1,1,0,1,0,0,5,8:30,24:00:00
اس پی یو,8.3,4,2122419494,تهران,درکه, میدان درکه,4,3,3,0,1,0,0,1,0,1,0,1,0,4,11:00,24:00:00
هریک,8.5,4,2188830030,تهران,مطهری," خیابان قائم مقام فراهانی، ابتدای خیابان مشاهیر، پلاک 14",4,4,4,0,0,0,0,1,0,0,0,0,0,1,10:15,24:00:00
کافه و رستوران هتل اورین,8.3,4,2166591059,تهران,میدان انقلاب," ابتدای کارگرشمالی، کوچه مجد، پلاک 12",4,4,4,1,0,0,0,0,0,0,0,1,0,2,7:00,24:00:00
راک,8.4,4,2188369196,تهران,شهرک غرب," بلوار دریا، خیابان گلها، نبش توحید 3،پلاک 10",4,4,4,1,0,1,0,1,0,0,1,1,0,5,9:00,24:00:00
نوشه,6,4,2188267666,تهران,گیشا," انتهای علیایی غربی، دست راست جوادی،پلاک 55",4,4,4,0,0,1,0,1,1,0,0,0,1,4,7:00,24:00:00
پارپیرار,7.4,4,2177350876,تهران,تهرانپارس,"خیابان ۱۸۲شرقی،نرسیده به ۱۳۱",4,4,4,0,1,1,0,1,1,1,1,0,1,8,10:00,24:00:00
اینترنی (شهرک غرب),6.7,4,9101115155,تهران,شهرک غرب," پاساژ گلستان، نبش ورودی مهستان",4,4,4,1,0,0,1,1,0,0,0,0,0,3,12:00,24:00:00
فیلم کلاسیک,7.4,4,2188851374,تهران,خیابان سمیه, تقاطع نجات الهی پلاک 254,4,4,4,0,0,0,0,1,0,0,1,1,0,3,10:00,24:00:00
گرویتی,6.7,4,2122066170,تهران,سعادت آباد, بین میدان کاج و‌میدان فرهنگروبروی بیمارستان پارسیان,4,3,4,0,1,1,0,1,0,0,0,1,1,5,12:00,24:00:00
لنیما,6.8,4,2146120170,تهران,آیت الله کاشانی,سه راه جنت آباد,4,4,4,0,0,0,1,1,0,0,0,0,0,2,7:30,24:00:00
مورالانژ,7.8,4,2144000050,تهران,بلوار فردوس شرق, پلاک 290,4,5,4,0,0,0,0,1,0,0,0,0,0,1,12:00,24:00:00
سایدا,6.7,4,2144314051,تهران,شهران شمالی,"بالاتر از فلکه سوم،جنب کارواش پدربزرگ",4,3,4,0,1,1,1,1,0,0,0,1,0,5,12:00,24:00:00
الیاسام,6.2,4,2144998732,تهران,حکیم غرب, خروجی لشگری غرب گذر,4,2,4,1,0,0,0,1,0,0,0,0,0,2,12:00,24:00:00
وی آی پی کاظمی,6.7,4,21,تهران,روبروی ایستگاه مترو چیتگر,,4,4,4,0,0,0,0,1,0,0,0,0,0,1,12:00,24:00:00
نارون (انقلاب),6.7,4,2166769081,تهران,خیابان انقلاب," نرسیده به خیابان ویلا جنب قهوه ست ، پلاک ۸۵۰",4,4,4,0,0,0,0,1,0,0,0,0,0,1,9:00,24:00:00
لیزا,7.5,4,2188093728,تهران,شهرک غرب," خیابان سپهر، بین فرحزادی و فخار مقدم، پلاک 29",4,5,4,0,0,0,0,1,0,0,1,0,0,2,8:30,24:00:00
قصر ایرانیان,6.8,4,2166941991,تهران,میدان جمهوری," خیابان جمهوری، تقاطع خیابان اسکندری، جنب داروخانه، ساختمان راز، طبقه اول",4,3,4,1,1,1,0,1,0,0,0,0,0,4,11:00,24:00:00
دایرکت,6.7,4,2144381000,تهران,فلکه دوم صادقیه," بلوار گلاب ، جنب پارک شهروند",4,4,4,1,0,0,0,1,0,0,1,0,0,3,12:00,24:00:00
مون چری,7.5,4,2188370725,تهران,شهرک غرب," بلوار دادمان، خیابان فخار مقدم ، نبش گلبرگ 2 غربی",4,5,4,1,0,0,0,1,1,0,1,0,0,4,8:30,24:00:00
دست,7.4,4,2188562015,تهران,شهرك غرب,"خيابان هرمزان،خيابان پيروزان جنوبي،مجمتع آموزشي نيكوكاري رعد",4,4,4,1,0,0,0,1,0,0,1,1,0,4,10:00,24:00:00
سلینی,6.8,4,2177230600,تهران,نارمک," میدان رسالت، خیابان هنگام، خیابان فرجام، بعد از میدان ۱۰۰، پلاک ۶۲۵",4,4,4,0,0,0,0,1,0,0,0,0,0,1,12:00,24:00:00
خانه دوست کجاست,7.3,4,2166961296,تهران,خیابان انقلاب," فلسطین جنوبی، ابتدای کوچه پشن",4,4,4,1,0,0,0,1,0,0,1,0,1,4,8:00,24:00:00
بیلیون,6.7,4,2144489670,تهران,اشرفی اصفهانی," بالاتر از میدان پونک، نبش بن بست ۱۹، جنب بانک سامان",4,4,4,1,1,1,0,1,0,0,0,0,0,4,11:00,24:00:00
نانبرسان,6.9,4,21,تهران,خیابان وحدت اسلامی," روبروی پارک شهر ، خیابان اسدی منش ، پلاک۴",4,5,4,0,0,0,0,1,1,0,1,0,0,3,9:00,24:00:00
کافه جز,6.6,4,2166175064,تهران,خيابان فلسطين," خيابان بزرگمهر ، نبش كوچه حكمت ، پلاك ٤٢",4,3,4,0,0,1,0,1,0,0,1,0,0,3,8:00,24:00:00
سالمبا,9.1,4,2144145353,تهران,بلوار فردوس غرب," بین ورزی و پروانه جنوبی، پلاک ۴۴۶، ساختمان کارون، طبقه همکف",4,4,4,1,1,1,0,1,0,0,0,0,0,4,12:00,24:00:00
ویکافه (پاسداران),7,4,2122796521,تهران,خیابان پاسداران," نبش بوستان پنجم، ساختمان سام",4,4,4,1,0,0,0,1,0,0,0,0,0,2,11:00,24:00:00
شکوفه (فرحزاد),6.8,4,2122068034,تهران,یادگار شمال به جنوب, ۱۰۰ متر پایین تر از خیابان فرحزاد,4,4,4,1,1,1,0,1,0,0,0,0,1,5,10:00,24:00:00
سکوی نه وسه چهارم,6.8,4,2166415365,تهران,خیابان فلسطین جنوبی," خیابان ژاندارمری، پلاک 1",4,3,4,1,0,1,0,1,0,0,1,0,0,4,8:00,24:00:00
ویونا (پالادیوم),7.2,4,2122668781,تهران,زعفرانیه,"مجتمع پالادیوم،طبقه همکف",4,4,4,1,0,0,1,1,0,0,1,0,0,4,11:00,24:00:00
رویای شیرین,8.2,4,2188615792,تهران,خیابان یوسف آباد," انتهای خیابان جهان آرا ، نبش کوچه اسماعیلی (۵۵)",4,4,4,1,0,1,1,1,0,0,1,0,1,6,9:00,24:00:00
لتو,7,4,2188495426,تهران,خيابان بهار شمالي,"خيابان وركش،پلاک17/4",4,4,4,0,1,1,0,1,1,0,1,0,0,5,8:00,24:00:00
ربلان,8.4,4,2122734252,تهران,تجریش," ابتدای خیابان جعفری، مرکز خرید تندیس،طبقه7",4,4,4,1,1,0,1,1,0,0,0,0,0,4,12:00,24:00:00
مون لانژ,7.5,4,2122183007,تهران,زعفرانیه,"مقدس اردبیلی،بین کیهان و پسیان،پلاک25 طبقه اول",4,4,4,1,0,0,1,1,1,0,0,0,1,5,11:00,24:00:00
اچ اند اچ,8.8,4,2188263242,تهران,گيشا," ابتداي خيابان بلوچستان، پلاك ٦",4,4,4,1,0,0,0,1,1,0,0,0,0,3,12:00,24:00:00
مجموعه نگیما,8.8,4,2122241931,تهران,قیطریه,"روبروی پارک قیطریه،خیابان خراسانی،پلاک13/2",4,4,4,1,1,1,0,1,1,0,1,0,0,6,8:00,24:00:00
سین کافه (خیابان نیلوفر),8.3,4,2188757329,تهران,خیابان خرمشهر, خیابان عشقیار شماره ۴۶,4,4,4,0,0,0,0,1,1,0,1,0,0,3,8:00,24:00:00
جلاتو پلاس (فودکورت ارگ),7,4,9123177560,تهران,میدان تجریش,"خیابان سعدآباد،مجتمع ارگ،فودکورت ارگ",4,4,4,0,0,0,1,1,0,0,0,0,0,2,11:00,24:00:00
روژانو,8.5,4,2188548644,تهران,خيابان شهيد بهشتى(عباس آباد)," بعد از تقاطع سهروردى ، ابتداى خيابان كاووسى فر",4,5,4,1,0,1,0,1,0,0,1,0,1,5,7:30,24:00:00
تومو (سام سنتر),8.1,4,2122028080,تهران,خیابان فیاضی (فرشته )," مرکز خرید سام سنتر ، طبقه اول",4,4,4,0,0,0,1,1,0,0,0,0,0,2,10:00,24:00:00
قمر,8.1,4,2140447292,تهران,انتهای اتوبان همت,"اتوبان شهید خرازی به سمت دریاچه چیتگر،میدان موج،ورودی مرکز بام لند A",4,4,4,1,1,1,1,1,0,0,0,0,1,6,11:00,24:00:00
هفت چشمه,8.4,4,2188961610,تهران,میدان گلها,"ابتدای گمنام،پلاک ۵۹",4,4,4,0,0,0,0,1,0,0,0,0,0,1,8:00,24:00:00
ویونا (سعادت آباد),8.8,4,2126766321,تهران,انتهای بلوار سعادت آباد," بسمت کوی فراز، نبش چهارراه بهزاد، مجتمع تندیس",4,4,4,1,0,1,1,1,0,0,1,1,1,7,8:00,24:00:00
میک مک,6.9,4,2122534920,تهران,مجيديه شمالي,"خيابان استادحسن بنا،خيابان جعفري پلاك ٦٦",4,4,4,0,0,0,0,1,0,0,0,0,0,1,11:00,24:00:00
روکوپارک (مرزداران),8.5,4,2144384200,تهران,بلوار مرزداران," نبش خیابان البرز، شماره ۷۱۰",4,4,4,1,0,0,0,1,1,0,0,0,0,3,12:00,24:00:00
ولو پارکو,8.1,4,2122141140,تهران,سعادت آباد," چهار راه سرو،بلوار پيام،انتهاي كوچه شهروند پلاك ٢٠",4,4,4,1,1,1,0,1,1,1,0,0,1,7,11:30,24:00:00
طبیعت VIP,8,4,2188194706,تهران,اتوبان حقانی," خیابان شهیدی، پارک آب و آتش انتهای پل طبیعت",4,4,4,1,0,1,0,1,0,0,0,0,0,3,12:00,24:00:00
گراند حیات,8.8,4,2122841634,تهران,خیابان پاسداران," خیابان نگارستان هشتم، نبش چهارراه اول پلاک ۲۶",4,4,4,1,1,1,0,1,0,1,0,1,1,7,11:30,24:00:00
کافه بازی گیک,8.3,4,2188300805,تهران,خیابان کریمخان," خیابان سنایی، کوچه سوم، پلاک ۴",4,4,4,0,0,0,0,1,0,0,0,0,0,1,12:00,24:00:00
خلیج فارس,7.5,4,2188053230,تهران,یوسف اباد,"جهان ارا،انتهایی خیابان 51،سمت راست(خیابان شصتم غربی)",4,4,4,1,1,1,0,1,0,0,0,0,0,4,11:00,24:00:00
قصرموج,8.2,4,2122255222,تهران,بلوار میرداماد," خیابان شمس تبریزی جنوبی ،  کوچه مریم ، پلاک ۲",4,4,4,1,1,1,1,1,1,1,1,0,1,10,9:00,24:00:00
بلوار,8.6,4,2122664534,تهران,‎زعفرانيه," مركز خريد پالاديوم ، طبقه دوم",4,4,4,1,0,1,1,1,1,1,1,1,0,8,8:00,24:00:00
لاین کافه(فود کورت پلاتین),7.3,4,211737,تهران,شهرک غرب,"بلوار فرحزادی،نبش سینمای ایران",4,3,4,1,0,0,1,1,0,0,0,0,0,3,8:00,24:00:00
بن ژور,7.9,4,2188731819,تهران,میدان آرژانتین," بلوار بیهقی ، روبروی پارکینگ شهروند",4,3,4,0,0,0,0,1,0,0,1,0,0,2,7:30,24:00:00
کفیشه,7.6,4,2188835221,تهران,خیابان کریمخان," خیابان شهید حسینی، پلاک ۱۱",4,4,4,1,0,0,0,1,0,0,0,0,0,2,9:00,24:00:00
ملانژ,7.6,4,21,تهران,سهروردی شمالی," خرمشهر(آپادانا) ، عشقیار(نیلوفر) ، پلاک 65",4,4,4,1,0,0,0,1,1,0,1,0,0,4,7:00,24:00:00
آرمه,7.4,4,2126290691,تهران,خيابان وليعصر," روبروي پارك ملت ، بلوار ناهيد غربي، پلاک 103/1",4,4,4,1,0,0,0,1,0,0,1,0,0,3,8:00,24:00:00
درخت ژینکو,7.9,4,2188090099,تهران,شهرک غرب," بلوار فرحزادی ، پایین تر از بلوار دریا ، نبش بوستان دوم شرقی",4,4,4,1,1,1,0,1,0,0,1,1,0,6,9:00,24:00:00
راشا,8.8,4,2188978752,تهران,ميدان فاطمی," مرکز خرید پرنيان، طبقه اول، واحد ۴۴",4,4,4,1,1,1,1,1,1,0,1,0,0,7,8:00,24:00:00
السا (سعادت آباد),7.6,4,2188094926,تهران,سعادت آباد," بلوار دریا ، انتهای کوچه رامشه ، بین توحید 1 و مهرداد ، پلاک 68/1",4,4,4,0,0,1,1,1,0,0,1,0,0,4,8:00,24:00:00
لمیز(میدان فاطمی),8.8,4,2188967443,تهران,میدان فاطمی (ضلع شمال غربی)," جنب پاساژ لئون ،  پلاک 18",4,4,4,1,0,0,0,1,0,0,1,0,0,3,7:00,24:00:00
دلو,7.3,4,2144666004,تهران,فاز ۱ اكباتان," بلوار نفيسي ، پلاک۷۹ ، طبقه اول ، واحد۲",4,4,4,1,1,1,0,1,0,0,1,0,1,6,8:00,24:00:00
اسکان الوند(شار),7.3,4,2142760,تهران,میدان آرژانتین,"خیابان الوند،کوچه اسفراین،نبش اهورامزدا،هتل اسکان الوند",4,4,4,0,0,1,1,1,0,0,0,0,0,3,8:00,24:00:00
لیدو,7.5,4,2177945526,تهران,نارمک," خیابان جانبازان شرقی، کوچه مصطفوی، پلاک27",4,4,4,1,0,1,0,1,0,0,1,0,0,4,8:00,24:00:00
کافه سله (ونک),6.7,4,2188620988,تهران,میدان ونک," خیابان خدامی، خیابان آفتاب، روبروی برج آفتاب، پلاک 11",4,4,4,1,0,1,0,1,0,1,1,0,0,6,11:00,24:00:00
شونیز,5.3,4,2188553832,تهران,میدان آرژانتین, اول خیابان احمد قیصر پلاک 58,4,4,4,0,0,0,0,0,0,0,0,0,0,0,9:00,24:00:00
پستو,7.3,4,2188261409,تهران,گیشا, نرسیده به کوچه دوم جنب موسسه زبان پارسایان,4,4,4,1,1,1,0,1,1,0,0,0,0,5,10:00,24:00:00
رباعی,8.1,5,2188726908,تهران,یوسف آباد," خیابان اسدآبادی، خیابان هجدهم، پلاک33",5,5,5,1,0,0,0,1,0,0,0,0,0,2,9:00,23:00
ایده کونفه,8.1,0,2188349691,تهران,کریمخان," خیابان سنایی، خیابان 18، پلاک28",0,0,0,0,0,0,0,1,0,0,1,0,0,2,8:30,23:00
لیدو پلاس,6.7,3,2177942336,تهران,ضلع غربی میدان هفت‌حوض," کوچه عظیمی‌نیا، پلاک ۲۴",4,3,3,0,0,0,0,1,0,0,1,1,0,3,8:00,23:00
لامینر لانژ,5.2,0,9034445023,تهران,شهرك اكباتان,"فاز٢،مجتمع تجارى مگامال،تراس طبقه دوم",0,0,0,0,0,0,1,1,0,0,1,1,0,4,10:00,23:00
چای (هفت تیر),5.3,4,2188832266,تهران,کریمخان‌زند," خردمند جنوبی، بن‌بست وحدتی‌منش،پلاک ۲",2,2,2,0,0,0,0,1,0,0,0,1,0,2,13:00,23:00
کلاور,8.1,5,2186071182,تهران,خردمند شمالی,"نبش کوچه سهیلی،پلاک ۱۱۱/۱",5,5,5,0,0,1,0,1,0,0,0,0,0,2,12:00,23:00
بلیتون,3.8,4,2126470396,تهران,نیاوران," خیابان پور ابتهاج ، نبش خداوردی ، مجتمع لیدو ، طبقه R1",1,2,1,1,0,0,1,1,0,0,0,0,0,3,17:00,23:00
سم بی سم,8.3,0,2126854627,تهران,نیاوران,"بعد از سه راه یاسر به سمت تجریش،عمارت سین هشتم،پلاک۳۱۱",0,0,0,0,0,0,0,1,0,0,1,1,0,3,8:30,23:00
چای کنار,2.4,1,2188011081,تهران,فاطمی," خیابانِ کاج، نبشِ کوچه‌ شش",1,1,2,0,0,1,0,1,0,0,1,1,0,4,8:00,23:00
آموره,8.1,4,2166749574,تهران,خیابان فردوسي," نرسیده به میدان فردوسی، کوچه ضرابي پلاک4",5,5,4,0,0,1,0,1,0,0,1,0,0,3,9:00,23:00
ویونا (سهروردی),6.7,0,2188524461,تهران,خیابان سهروردی شمالی,نبش خیاابان توپچی,0,0,0,0,0,0,0,1,0,0,1,0,0,2,9:00,23:00
آوانا,3.8,0,2155357800,تهران,نازی آباد," بازار دوم، خیابان نیکنام شمالی،پلاک46",0,0,0,0,0,0,0,1,1,0,0,1,0,3,11:00,23:00
آبتین,3.8,3,9127438417,تهران,میدان امام حسین,نبشِ چهارراه صفا,1,3,3,0,0,0,0,1,0,0,0,0,0,1,11:00,23:00
ال ماسو,6.7,5,2177200495,تهران,تهرانپارس," بالاتر از فلکه سوم، انتهای خیابان خدابنده، ساختمان امیران",2,3,2,0,0,0,0,1,0,0,0,0,0,1,11:00,23:00
راکان,5.2,4,2144847702,تهران,انتهای اتوبان ستاری شمال,"میدان دانشگاه،نبش خیابان مخابرات",2,2,3,0,0,0,0,1,1,0,0,0,0,2,11:00,23:00
فرمو,8.1,5,2188886240,تهران,خیابان گاندی, ضلع شمالی پل همت,4,5,4,0,0,0,0,1,1,0,1,0,0,3,7:00,23:00
ناک,8.1,0,2188495329,تهران,هفت تیر," مفتح جنوبی، ورکش، نبش سیاسی پلاک ۱۷/۷",0,0,0,0,0,1,0,1,0,0,1,0,0,3,7:30,23:00
کلانا (فیروزه),6.7,0,2188943555,تهران,نرسیده به میدان ولیعصر, نبش خیابان فیروزه,0,0,0,0,0,0,0,1,0,0,1,0,0,2,7:00,23:00
ویونا (روشا اکسپرس),8.1,4,2125714114,تهران,ابتدای خیابان لواسانی,"مرکزخرید روشا،درب ورودی فرمانیه",5,5,5,0,0,0,1,1,0,0,1,1,0,4,7:00,23:00
کارخانه,5.3,5,2188069160,تهران,میدان شیخ بهایی," جنب بانک رفاه ، شماره 1",1,2,1,1,0,0,0,1,0,0,1,0,0,3,9:00,23:00
چینو,8.1,0,9361121275,تهران,پونک,"ضلع شمالی مجتمع بوستان،خیابان کربلایی احمد (اردیبهشت)،راهرو آبشار بالا،پلاک ۸۳۶",0,0,0,1,1,0,0,1,0,0,0,0,0,3,10:00,23:00
عمارت نظامیه,6.7,0,2175904,تهران,ميدان بهارستان," خيابان مصطفى خمينى، خيابان نظاميه، كوچه اصالت، بن بست پنجم",0,0,0,1,0,0,0,1,0,1,1,0,0,4,9:00,23:00
میان,8.2,5,2166424376,تهران,انقلاب," جمالزاده جنوبی، رشتچی، پ ۲۶",5,5,5,0,0,0,0,1,0,0,0,1,0,2,16:00,23:00
هننی دونات (شهرک غرب),8.1,4,2188580422,تهران,شهرک غرب," بلوار دادمان، نرسیده به  پل یادگار ، پلاک ۱۶۷",5,5,5,0,0,0,0,1,0,0,0,0,0,1,10:00,23:00
زبان کلامستان,6.7,0,2188533413,تهران,میدان پالیزی," ابتدای خیابان قندی، نبش دوم ، پلاک 21 زیرزمین",0,0,0,1,0,0,0,1,0,0,1,0,0,3,10:00,23:00
دایس,7.5,4,2188842538,تهران,پل کریمخان,"ابتدای میرزای شیرازی،نبش کوچه یکم ،پلاک 3/2",4,3,3,0,0,1,0,1,0,0,1,0,0,3,8:00,23:00
کتاب رنگی,8.2,0,2166976042,تهران,بلوار کشاورز," خیابان 16 آذر ،بن بست پارسی ،پلاک 6",0,0,0,1,0,0,0,1,0,0,1,0,0,3,8:00,23:00
سه ضلعی,6.7,0,2166959918,تهران,خیابان انقلاب," خیابان فلسطین، کوچه پشن، پلاک ۱۵",0,0,0,1,0,0,0,1,0,0,0,0,0,2,10:00,23:00
فروغ (انقلاب),7.5,3,2166407186,تهران,خیابان انقلاب," بین چهار راه ولیعصر و پل کالج، روبروی خیابان خارک، پلاک 793",3,3,3,1,0,1,0,1,0,0,1,0,0,4,8:00,23:00
سیلک,8.1,0,2166419145,تهران,میدان انقلاب," کارگر شمالی، نبش نصرت ، پلاک ۱۵۱۹",0,0,0,1,0,0,0,1,0,0,1,0,0,3,9:00,23:00
ج (پاسداران),6.7,2,0,تهران,خیابان پاسداران," خیابان دولت، نرسیده به چهار راه قنات، خیابان سنجابی، پلاک 14",4,5,4,1,1,0,0,1,0,0,0,0,0,3,11:30,23:00
پلاک (فلسطین),6.7,3,2188966863,تهران,میدان فلسطین," فلسطین شمالی، بن بست سعیدی، پلاک 9",4,3,4,1,0,0,0,1,0,0,1,0,0,3,8:00,23:00
صدف (تهرانپارس),6.7,0,2177199141,تهران,تهرانپارس," خیابان فرجام، خیابان سراج، خیابان جهانشاهلو (سی متری دوم)، پلاک 191",0,0,0,1,1,0,0,1,1,0,1,0,0,5,9:00,23:00
الک دولک,2.4,0,2122242183,تهران,بلوار اندرزگو شرق به غرب,"نرسیده به بلوار کاوه،بن بست تابان پلاک 3",0,0,0,0,0,0,0,1,0,0,0,0,0,1,16:00,23:00
ویونا (اوپال سنتر),7.4,5,2122110961,تهران,خیابان فرحزادی," میدان کتاب، مرکز تجاری اوپال سنتر،طبقه 3",3,3,4,1,0,0,1,1,0,0,0,0,0,3,9:00,23:00
برد,6.7,3,2188867924,تهران,خیابان مطهری," نرسیده به سهروردی، پلاک ۱۲۰، طبقه زیر همکف",3,3,3,0,0,1,0,1,0,0,0,0,0,2,16:30,23:00
ویونا (پلاتین),6.3,4,2186090827,تهران,میدان صنعت," خیابان فرحزادی، ابتدای خیابان سیمای ایران، مجموعه پلاتین",3,3,3,0,0,0,1,1,0,0,0,0,0,2,8:30,23:00
کاوا,7.4,0,9123949004,تهران,خیابان آیت الله کاشانی," خیابان ۲۰۰ دستگاه، کوچه یکم پلاک ۱۲",0,0,0,0,0,0,0,1,0,0,0,0,0,1,9:00,23:00
چارلی (صادقیه),5.2,2,2144269171,تهران,اریاشهر," سازمان آب شرقی ، بالای فست فود دو لوپی",2,1,1,1,1,1,0,1,0,0,0,0,0,4,11:00,23:00
ژ 1,5.3,3,2186128640,تهران,سعادت آباد," ابتداي بلوار دريا ، نرسيده به خيابان صرافها جنوبی ، پلاك ۷۵",3,3,3,0,0,1,0,1,0,0,1,0,0,3,8:00,23:00
تیاناز,8.1,5,2177091217,تهران,نارمک,"خیابان مدائن شمالی، ابتدای خیابان شهید اخلاقی، پلاک۸۰",5,5,5,1,0,1,0,1,0,0,1,0,0,4,9:00,23:00
لارنس,8.2,5,2188369885,تهران,شهرک غرب,"بلوار فرحزادی انتهای سپهر،گلبرگ سوم،مرکز خرید یادگار،طبقه اول،راهروی A شرقی واحد 68",5,5,5,0,0,0,0,1,1,0,0,0,0,2,11:00,23:00
چهارباغ,5.2,0,2144433107,تهران,جنت آبادجنوبی," بلوار چهارباغ شرقی، نرسیده به میدان آتش نشانی،پلاک 48",0,0,0,0,0,0,0,1,0,0,0,0,0,1,10:00,23:00
ریسترتو,6.7,3,9124053676,تهران,میدان هفت تیر," پایینتر از مسجد الجواد، بن‌بست هوشیار، پلاک ۳",4,3,3,1,0,0,0,1,1,0,0,0,0,3,11:00,23:00
بلک لانژ (بام لند),6.8,4,2140447182,تهران,دریاچه چیتگر,"مجتمع تجاری تفریحی باملند، بلوک c3 ، طبقه  اول",3,3,3,0,1,0,1,1,0,1,1,0,0,5,8:00,23:00
کافه 41,7.8,5,2186081195,تهران,میدان ونک," خیابان ونک، پلاک ۴۱",5,5,4,0,0,1,0,1,0,0,0,0,0,2,7:00,23:00
دربار,5.7,4,2188802576,تهران,خیابان قرنی," نرسیده به خیابان کریمخان، کوچه امانی، پلاک پنج",3,3,3,0,0,0,0,1,0,0,1,1,0,3,9:30,23:00
کویین,6,2,2122191981,تهران,اقدسیه," بزرگراه ارتش، بلوار اوشان، خیابان شفیعی، خیابان رضوان، پلاک ۱۹",3,1,3,0,1,0,0,1,1,0,0,0,0,3,11:00,23:00
بن چیبو,4.4,1,2144403011,تهران,پونک," بلوار میرزا بابایی، نبش بلوار عدل، ضلع جنوب شرقی چهار راه، پلاک۳۰، جنب مسکن سازان",1,1,1,0,1,0,0,1,1,0,0,0,0,3,12:00,23:00
سالومه,7.6,5,2133829790,تهران,خیابان پیروزی,"بلوار ابوذر،پل پنجم،مسلم شمالی",5,5,4,0,0,0,0,1,0,0,0,0,0,1,8:30,23:00
شیث,3.8,0,2188046678,تهران,ميدان ونك," خيابان ملاصدرا ، خيابان شيراز شمالي ، ميدان شيراز شمالي ، ساختمان ايران سكنا ، پلاك 236",0,0,0,1,0,0,0,1,0,0,0,0,0,2,11:00,23:00
دیدار,4.1,5,9109101078,تهران,بزرگراه خرازی, بازار ایران مال ط2,2,2,2,0,0,1,0,1,0,0,0,1,0,3,9:00,23:00
روکو (فودکورت ارگ),7,3,2122396583,تهران,میدان تجریش,"خیابان سعدآباد،مجتمع ارگ،طبقه1+",3,3,2,1,0,0,1,1,0,0,0,0,0,3,9:30,23:00
فکر (دانشگاه),7.3,4,2166470012,تهران,خيابان انقلاب,"ابتداى خيابان دانشگاه،بن بست پورجوادى،پلاک 7",3,2,4,1,0,1,0,1,0,0,0,0,0,3,11:00,23:00
لایم (گلستان),7.3,4,2188362160,تهران,شهرك غرب,"خيابان ايران زمين،پاساژ گلستان،حياط شرقى",4,3,3,1,0,1,0,1,0,1,1,1,0,6,9:00,23:00
کام,6.7,0,2188989615,تهران,یوسف آباد," نبش یکم، پلاک ۳ طبقه روی همکف",0,0,0,1,0,1,0,1,0,0,0,1,0,4,8:00,23:00
کاکتا,5.9,5,9388160909,تهران,جنت آباد جنوبی," کوچه آذرشب، پلاک ۳۸/۸",5,5,4,1,0,0,0,1,0,0,0,0,0,2,11:00,23:00
چارگوش,3.9,2,2144331571,تهران,شهران," خیابان وسک، بالاتر از کوچه دوم",2,2,2,0,0,0,0,1,0,0,1,0,0,2,9:00,23:00
حصار (مهر نیکتا),8.1,1,2122026239,تهران,خیابان ولیعصر,"روبه روی پارک ملت،نبش کوچه انصاری،برج ملت ، طبقه همکف ، واحد ۲۸",1,1,1,1,0,0,0,1,1,0,1,0,0,4,9:00,23:00
ایران نوتلا,7.4,3,2126455184,تهران,آجودانیه,"مجتمع تفریحی عرش آجودانیه،طبقه دوم،شماره 159",3,3,3,0,0,0,1,1,1,0,0,0,0,3,12:00,23:00
آیس پک,6.9,3,2133333704,تهران,خیابان پیروزی," ایستگاه صد دستگاه، پلاک ۴۸۰",3,3,3,0,0,0,0,1,1,0,1,0,0,3,12:00,23:00
بالا,8.3,5,2188813578,تهران,خیابان میرازی شیرازی,"نبش کوچه یازدهم،خانه موسیقی بتهوون،پلاک ۶۹،طبقه بالا",5,5,4,1,0,1,0,1,0,1,1,0,1,6,8:00,23:00
ویکولو (بام لند ),7.2,4,2140447261,تهران,بزرگراه همت غرب," دریاچه چیتگر ، مجتمع بام لند ، بلوک A",4,3,3,1,0,1,1,1,0,0,1,1,0,6,10:00,23:00
آبمیوه بستنی شاهو,5.3,2,2188615822,تهران,شیراز جنوبی," رو به روی بوستان اسدآبادی، پلاک 2",3,2,2,0,0,0,0,1,0,0,0,0,0,1,12:00,23:00
لیبرو (پالادیوم),7.4,4,2122660401,تهران,زعفرانیه,"مقدس اردبیلی،نرسیده به میدان الف،مرکز خرید پالادیوم،طبقه ۳",4,3,4,1,0,1,0,1,0,1,1,1,0,6,9:00,23:00
75,6,2,2122256876,تهران,میدان محسنی,"خیابان شاه نظری، کوچه دوم، پاركينگ مجتمع راز",3,2,2,1,0,1,1,1,0,0,1,0,1,6,9:00,23:00
کوبار,4.4,0,9355444943,تهران,اشرفی اصفهانی جنوب به شمال," نرسیده به پل همت، خیابان قموشی، پلاک 57",0,0,0,0,1,0,0,1,0,0,1,0,0,3,8:00,23:00
کافه 75,8.1,0,2122256876,تهران,میرداماد," میدان محسنی، خیابان شاه نظری، کوچه دوم، پاركينگ راز",0,0,0,0,0,1,1,1,0,0,1,0,0,4,9:30,23:00
ولگا,6.5,2,9011388241,تهران,خیابان کریمخان,"خیابان سنایی، کوچه اعرابی ۵،پلاک 3",2,2,2,1,0,0,0,1,0,0,0,0,1,3,10:00,23:00
اشوان,7.5,5,2144635553,تهران,شهرک اکباتان," فاز یک ،سوپر دوم، شماره یک",5,5,5,1,1,1,0,1,0,0,1,0,0,5,10:00,23:00
آریانا آرت کافه,6.9,3,2122004741,تهران,خیابان فرشته," نرسیده به چناران، پلاک9",3,3,2,1,0,0,0,1,0,0,1,0,0,3,9:00,23:00
شهر کتاب,6.5,4,2122607631,تهران,خیابان شریعتی," نرسیده به پل صدر، پلاک ۱۶۷۱",4,3,4,0,0,1,0,1,0,0,1,0,0,3,10:00,23:00
اُپال,8.2,0,2146042912,تهران,اشرفی اصفهانی,"بالاتر از میدان پونک،نبش کوچه سیزدهم",0,0,0,1,0,1,0,1,0,0,1,0,1,5,8:00,23:00
قهوه خانه آذربایجان,7.4,0,2166419830,تهران,میدان انقلاب," ضلع شمال شرقی، پلاک ۱۱۱۹",0,0,0,0,1,1,0,1,0,0,1,0,0,4,8:00,23:00
حس خوب,6.1,0,2144309965,تهران,شهران جنوبی," کوچه پنجم شرقی(کوچه فرهنگسرای معرفت)، شماره 33",0,0,0,1,0,1,0,1,0,0,1,0,0,4,9:00,23:00
پاپا,8.4,0,2177956160,تهران,خیابان آیت," بالاتر از چهارراه تلفن خانه، به سمت میدان هفت حوض، پلاک ۲۳۵",0,0,0,0,0,1,0,1,0,0,1,0,0,3,8:00,23:00
ویونا (موزه سینما),8.8,5,2122742559,تهران,خیابان ولیعصر," بالاتر از زعفرانیه ، باغ فردوس، موزه سینمای ایران",5,5,5,1,0,0,0,1,0,0,1,0,1,4,8:30,23:00
مارکوف,7.8,4,9193972207,تهران,خیابان انقلاب," بعد از 4 راه ولی عصر، خیابان خارک، کوچه شهرود، پلاک 9",4,3,3,0,0,1,0,1,0,1,1,0,0,4,9:00,23:00
عمارت روبرو,5.7,3,2166404230,تهران,چهارراه ولیعصر," ضلع شمال شرقی، نبش بانک شهر،بن بست کیانپور",3,2,3,0,0,1,0,1,0,0,1,0,0,3,8:00,23:00
هتل برج سفید,5.3,3,2122554000,تهران,پاسداران," روبروی بوستان ششم، هتل برج سفید",1,1,5,1,0,0,0,1,0,0,0,0,0,2,11:00,23:00
دنو,6.6,3,2144961463,تهران,بزرگراه ستاری شمال," مجتمع تجاری فرهنگی کوروش، طبقه اول",3,3,3,1,0,0,1,1,0,0,1,0,0,4,9:00,23:00
امیرشکلات (تیراژه),6.1,2,2144493137,تهران,اشرفی اصفهانی, مجتمع تجاری تیراژه طبقه زیر همکف,3,3,3,0,0,0,1,1,0,0,0,0,0,2,10:00,23:00
بن آیس (اندرزگو),8.1,2,2122233304,تهران,خیابان اندرزگو," نبش بلوچ شمالی، پایین ساختمان علی بابا",5,2,2,0,0,0,0,1,1,0,1,0,0,3,7:00,23:00
لمیز (انقلاب),8,3,2166128225,تهران,میدان انقلاب,"ابتدای کارگر شمالی،پلاک 1012",3,3,4,0,0,0,0,1,0,0,1,0,0,2,7:00,23:00
شانو,6.9,4,2122007220,تهران,شریعتی," روبه روی مترو قلهک، ساختمان آ س پ، طبقه همکف",4,5,4,1,0,1,0,1,1,0,1,0,0,5,7:00,23:00
سام کافه (ونک),8.1,4,2186092106,تهران,تقاطع خیابان خدامی و آفتاب," ضلع جنوب شرقی، جنب پارک، ساختمان مادیران",4,3,3,0,0,0,0,1,0,0,1,0,0,2,8:00,23:00
پنجره,7.8,4,2166978677,تهران,بلوار کشاورز," خیابان ۱۶ آذر ، روبروی در ورودی دانشگاه تهران،  پلاک ۵۲",4,3,4,0,0,1,0,1,0,0,1,0,0,3,7:00,23:00
کین,6,3,2122238061,تهران,فرمانیه,"بلواراندرزگو،طبقه فوقانی شیرینی نیشکر پلاک 66",4,3,4,1,0,1,0,1,1,0,1,0,1,6,11:00,23:00
صدف(ولیعصر),6.9,5,2188774591,تهران,تهران," خیابان ولیعصر، بالاتر از پارک ساعی، مرکز خرید صدف، طبقه همکف واحد 19",5,5,4,1,0,1,0,1,0,0,1,0,0,4,9:00,23:00
دوریس,2.4,2,2122311693,تهران,پاسداران," خیابان اخوان (بوستان دوم) ، خیابان گیلان شرقی ، بعد از شهید عراقی ، خیابان پایدارفرد ، پلاک 49",3,3,2,1,0,1,0,1,1,0,1,0,0,5,16:00,23:00
سپیدگاه,6.7,3,2188832127,تهران,خیابان کریمخان," خیابان خردمند جنوبی، پلاک ۵۴",3,3,3,0,0,0,0,1,1,0,1,0,0,3,9:00,23:00
ساقدوش,7.4,2,2122978274,تهران,پاسداران," انتهای بوستان دوم شهید اخوان، خیابان ساقدوش، جنب تالار ساقدوش",2,2,2,1,1,1,0,1,0,0,0,0,0,4,12:00,23:00
میتا کیش,6.7,3,2144491502,تهران,اشرفی اصفهانی," مجتمع تیراژه ، طبقه همکف",3,1,3,0,0,0,0,0,0,0,0,0,0,0,10:00,23:00
سلین,5.8,3,2188824017,تهران,ميدان هفت تير," خيابان قائم مقام فراهاني ، بعد از سه راه مشاهير ، پلاک ۴۶",3,3,3,1,0,0,0,1,0,0,1,0,0,3,9:00,23:00
زیپو,6.7,3,2122658371,تهران,خیابان وليعصر," رو به روي پارك ملت ،  نبش خیابان انصاري ، برج ملت ، طبقه اول ، واحد 72",4,3,4,1,0,1,0,1,0,0,0,1,0,4,11:00,23:00
سوییت بلیس (نیاوران),9.1,3,2122825016,تهران,نیاوران," بین پمپ بنزین و جماران، نبش کوچه ستایش",3,4,4,1,0,0,0,1,0,0,0,0,0,2,9:00,23:00
آوانی,8.9,4,2188615560,تهران,خیابان یوسف آباد, بین خیابان 62 و 64,8,4,4,0,0,1,0,1,1,0,0,1,0,4,12:00,23:00
دیورسو,3.8,5,2122976568,تهران,میدان هروی," مجتمع تجاری الماس هروی، طبقه دوم",3,4,3,0,0,0,1,1,0,0,0,1,0,3,12:00,23:00
تهرون کندوان,7.5,5,2166737146,تهران,میدان فردوسی,"خیابان انقلاب ،روبروی استاد نجات الهی (ویلا) کوچه کندوان نبش مهرانی پلاک ۱۹",4,4,4,0,0,1,0,1,0,0,1,1,0,4,8:00,23:00
میتو,8.1,4,2126705268,تهران,بلوار میرداماد,"میدان مادر،خیابان شاه نظری،پاساژ محسنی،طبقه دوم",5,4,4,0,1,1,1,1,1,0,0,1,0,6,12:00,23:00
بال (ایران مال),6.3,4,91070873,تهران,ایران مال,طبقه اول,3,4,3,0,0,0,1,1,0,0,1,1,0,4,8:30,23:00
کاما,3.3,3,2188416061,تهران,تقاطع خیابان بهشتی و سهرودی, پلاک ۱۳۶,3,4,3,0,0,0,0,1,1,0,1,1,0,4,9:00,23:00
خانه میرا,6.8,4,2166459765,تهران,خیابان فلسطین جنوبی," خیابان لبافی نژاد، کاشی ۸۷",3,4,4,0,0,0,0,1,0,0,1,0,0,2,11:00,23:00
کاریزنو,6.7,3,2188829192,تهران,خیابان سمیه," بین ایرانشهر و سپهبدقرنی، پلاک212",4,4,3,0,0,0,0,1,0,0,1,0,0,2,9:30,23:00
نیکو,7.9,5,2188815824,تهران,ضلع غربی پارک هنرمندان," خیابان ایرانشهر، بن
بست نیکوشهر",4,4,4,0,0,0,0,1,0,0,1,1,0,3,12:00,23:00
بابل,8.1,4,2186052604,تهران,بلوار کشاورز,"ابتدای وصال شیرازی،نبش بن بست هما،پلاک119",5,4,5,0,0,1,0,1,0,0,0,0,0,2,11:00,23:00
موزه گربه  ایرانی,7.7,3,2188965459,تهران,بلوارکشاورز,"خ وصال، نرسیده به ایتالیا، بن‌بست مریم",4,4,4,1,0,1,0,1,0,0,0,0,0,3,12:00,23:00
آرمن یا,6.8,4,2188311142,تهران,مطهری,"نرسیده به سهروردی،خیابان اورامان،نبش کوچه گروس",4,4,4,1,0,0,0,1,0,0,1,0,0,3,8:00,23:00
کتاب ققنوس,7.8,5,2166403386,تهران,خیابان انقلاب,"خیابان وصال،کوچه شفیعی،پلاک ۱",5,4,4,1,0,0,0,1,1,0,0,1,0,4,10:30,23:00
وستیک,6.8,4,2122389049,تهران,سعادت آباد,"مجتمع تجاری اپال،طبقه دهم",4,4,3,1,0,0,0,1,0,0,0,0,0,2,12:00,23:00
شهریار,6,5,2186043927,تهران,خیابان شریعتی,"خیابان شهید قندی، پارک اندیشه ، فرهنگسرای اندیشه",3,4,3,1,0,0,0,1,0,0,1,1,0,4,10:30,23:00
گل,6.7,5,9125150690,تهران,حکیمیه," خیابان چمن آرا، روبرو در شمالی دانشگاه آزاد، گلخانه آیت",4,4,4,0,0,0,0,1,0,0,1,0,0,2,9:00,23:00
پرسه,8.1,4,2166493623,تهران,خیابان انقلاب," صبای جنوبی، نبش کوچه سرمد",4,4,4,1,0,0,0,1,0,0,1,0,0,3,9:30,23:00
سه گاه,8.4,5,9358509236,تهران,میدان انقلاب," کارگرشمالی، بعد از چهار‌راه نصرت، نبش بن‌بست مهناز",5,4,4,0,0,0,0,1,0,0,0,0,0,1,11:00,23:00
کتاب (ایران مال),6.1,5,2147675114,تهران,ایران مال, طبقه G2,3,4,4,0,0,0,1,1,0,0,0,0,0,2,11:00,23:00
لوسن,6.6,4,2177076096,تهران,بالاتر از تهرانپارس," شهرك اميد، مجتمع تجاري، پلاك ٣٣",3,4,4,1,0,0,0,1,0,0,0,0,1,3,10:00,23:00
703,7.3,4,2144374249,تهران,مرزداران,"خیابان ابراهیمی،برج الوند،واحد 703",4,4,4,1,1,1,0,1,0,0,0,1,0,5,12:00,23:00
شمرون (اکباتان),7,4,2144642490,تهران,شهرک اکباتان,"مگامال،طبقه همکف",4,4,4,0,0,0,1,1,0,0,1,0,0,3,9:00,23:00
بستنی میو (جم سنتر),7.4,1,2126450892,تهران,نیاوران,"خیابان جماران،جم سنتر،طبقه همکف",5,4,3,0,0,0,1,1,0,0,0,0,0,2,12:00,23:00
گلدون,9.3,4,2166496161,تهران,انقلاب,"خيابان قدس،خيابان بزرگمهر،پلاك ١١٠",5,4,4,1,0,1,0,1,0,0,1,0,0,4,9:00,23:00
سورنا,8.1,4,2188955780,تهران,بلوار کشاورز," خیابان وصال شیرازی ، 
نرسیده به ایتالیا ، پلاک ۵۸",4,4,4,1,0,1,0,1,0,0,1,1,0,5,7:00,23:00
فرنوش,6.7,4,2155427329,تهران,خیابان کمیل,"بعد از پل نواب،نبش خیابان خرمشهر",4,4,5,0,0,0,0,1,1,0,0,0,0,2,10:00,23:00
ث,7.4,4,2188920387,تهران,تهران," خیابان ویلا، خیابان صارمی شرقی، پلاک ۳۸",4,4,4,1,0,1,0,1,0,0,0,1,0,4,8:30,23:00
خانکوک,6.8,5,2126404031,تهران,میرداماد,"میدان مادر،خیابان وزیری پور،پلاک49",4,4,4,1,0,0,0,1,1,0,1,0,0,4,8:00,23:00
رام بیسترو,8.1,3,2188328092,تهران,ميدان هفت تير," كريم خان ، بين قائم مقام و خردمند، پلاك ١",5,4,4,1,0,0,0,1,0,0,1,0,0,3,9:00,23:00
بابا کافه,6.7,4,2140447419,تهران,انتهاى اتوبان همت غرب," اتوبان خرازى به سمت درياچه خليج فارس،خيابان ارغوان، ميدان موج،مركز خريد بام لند،ساختمان وى آى پى ، طبقه سوم",3,4,4,0,1,0,0,1,0,0,1,0,0,3,8:30,23:00
قهوه خیابان ایتالیا (پیانسا),6.8,3,2188975084,تهران,‎خیابان ایتالیا,پلاک‌۳۸,4,4,3,1,0,1,0,1,0,0,1,0,0,4,8:00,23:00
لمیز(فرمانیه),7.3,5,2126125853,تهران,فرمانیه,"نرسیده به چهار پاسداران، بام برند سنتر",5,4,5,1,0,0,0,1,0,0,0,0,0,2,7:00,23:00
تئاتر شهرزاد,6.8,4,2166763569,تهران,خیابان حافظ, نوفل لوشاتو پلاک ۷۴,4,4,4,1,0,0,0,1,0,0,1,0,0,3,10:00,23:00
دنجا,7.9,4,9128589383,تهران,زعفرانیه," مقدس اردبیلی ، مرکز خرید پالادیوم ، طبقه3",4,4,4,1,0,0,1,1,0,0,1,0,0,4,9:00,23:00
باب البحر,8.5,5,2140447282,تهران,همت غرب," کاشان جنوب، دریاچه چیتگر، بام لند",4,4,3,1,1,1,1,1,0,1,0,1,0,7,11:00,23:00
کوچه (موکا سابق),7.9,5,2188301658,تهران,خیابان کریمخان,"خیابان سنایی،کوچه هجدهم،پلاک ۳۸",5,4,4,0,0,1,0,1,0,0,1,0,0,3,8:00,23:00
کولاک,8.3,3,2188610384,تهران,يوسف آباد,"خيابان شهيد جهان آرا،نبش كوچه ٤٣",5,4,5,0,0,0,0,1,0,0,0,0,0,1,11:00,23:00
ت (شریعتی),7.5,3,2122841468,تهران,شریعتی," ابتدای قبا، شماره 4",3,4,4,0,0,0,0,1,1,0,1,0,0,3,11:00,23:00
مازو پلاس,8.1,4,2144976088,تهران,بلوار فردوس شرق,"پاساژ آیریک سنتر،طبقه دوم",4,4,3,1,1,1,0,1,0,0,1,0,0,5,10:00,23:00
اپیکور,6.1,5,2186128863,تهران,شهرک غرب," فاز یک، خیابان مهستان، نبش کوچه دوم",4,4,3,0,0,0,0,1,1,0,0,0,0,2,10:00,23:00
کارزین (پاسداران),7.1,4,2122777960,تهران,پاسداران," گلستان یکم، نبش پایدار فرد",4,4,3,0,0,0,0,1,0,0,1,0,0,2,8:00,23:00
گل یخ (پیروزی),8.8,4,2133350935,تهران,خ پیروزی," صد دستگاه ، پ 466",4,4,4,0,0,0,0,1,1,0,0,0,0,2,11:00,23:00
کتاب دارالخلافه,9.3,5,2166729406,تهران,خیابان امام خمینی,"خیابان شیخ هادی،کوچه مظفری خواه",4,4,4,0,0,0,0,1,0,1,1,0,0,3,8:30,23:00
ویونا ( فودکورت ارگ),8.9,4,2122396288,تهران,ويونا, مجتمع تجاري ارگ,4,4,4,0,0,0,1,1,0,0,1,0,0,3,8:00,23:00
تهران بین,8,4,2122131981,تهران,سعادت آباد,"خیابان سرو غربی،خیابان ریاضی بخشایش،کوچه هفدهم پنت هاوس برج عرفان طبقه ۹",4,4,3,1,0,1,1,1,0,0,1,0,0,5,10:00,23:00
ایلی (باملند),7.6,4,2140447994,تهران,مجموعه تجاری باملند بلوک آ,,3,4,3,0,0,0,1,1,0,1,1,0,0,4,11:00,23:00
دلنوازان (سهروردی),6.3,4,2186031908,تهران,خیابان سهروردی شمالی, مابین عباس آباد و هویزه پلاک 553,3,4,4,1,1,0,0,1,0,0,1,0,1,5,11:00,23:00
موروکو,8.4,4,2122148851,تهران,یادگار جنوب," قبل از خروجی فرحزاد، ایثارگران شمالی، خیابان امامزاده، البرز 6، پلاک 13",4,4,4,1,1,1,0,1,0,0,0,0,0,4,11:00,23:00
پیچ شمران,9.1,2,0,تهران,خیابان انقلاب," دروازه دولت، نبش خیابان شریعتی",5,4,5,0,0,0,0,1,0,0,0,0,0,1,11:00,23:00
بابا رحیم,9,3,2166940068,تهران,خیابان ستارخان," نرسیده به خیابان باقرخان، نبش کوچه شادی، پلاک 105",4,4,4,0,0,0,0,1,0,0,0,1,0,2,9:00,23:00
گالری ایرانشهر,6.7,4,2188349365,تهران,خیابان ایرانشهر," پارک هنرمندان، ضلع شرقی خانه هنرمندان ایران، تماشاخانه ایرانشهر، طبقه دوم",4,4,4,1,0,1,0,1,0,0,0,1,1,5,10:00,23:00
نقش وصال,7.7,4,2188963578,تهران,بلوار کشاورز," خیابان وصال شیرازی، روبروی بیمارستان آریا، نبش کوچه شاهد، پ ۷۰۷۰",4,4,3,1,0,0,0,1,0,0,1,0,0,3,8:30,23:00
سکند کاپ,7.4,5,2126804403,تهران,ولنجک," انتهای خیابان سیزدهم شرقی ، پلاک 5 ، طبقه اول ، واحد 109",4,4,3,1,0,1,1,1,0,0,1,0,1,6,8:30,23:00
وافل پلاس,7.9,3,2126131952,تهران,آجودانیه,"نرسیده با کاشانک،فودکورت عرش آجودانیه",4,4,4,0,0,0,1,1,1,0,1,0,0,4,10:00,23:00
بلک برز,8.4,4,2122054167,تهران,فرشته," مریم شرقی، خیابان امین ، ساختمان SMP،طبقه اول",4,4,3,1,0,0,0,1,0,0,1,0,0,3,8:30,23:00
نایریکا,7.8,4,21,تهران,اشرفی اصفهانی,"خیابان مخبری، نرسیده به چهارراه سردارجنگل،پلاک 79",4,4,3,0,1,1,0,1,0,0,1,0,1,5,9:00,23:00
پات (باشگاه انقلاب),7.4,3,2126217484,تهران,خیابان ولیعصر,"ابتدای  بزرگراه نیایش،درب غربي مجموعه ورزشي انقلاب ، خانه گلف",4,4,4,1,0,1,1,1,0,1,1,0,1,7,8:00,23:00
حس کافه,9.3,5,2126209940,تهران,خیابان فرشته," نیلوفر، مجتمع رویال آدرس طبقه2",4,4,4,1,0,1,1,1,0,1,0,1,1,7,12:00,23:00
اتاق,9.1,5,2166177025,تهران,خیابان انقلاب," خیابان فلسطین جنوبی، کوچه پشن، پلاک 32",4,4,5,1,0,1,0,1,0,0,1,0,1,5,9:00,23:00
موسیقی,6.8,4,2122672784,تهران,فرشته," انتهای خیابان آقابزرگی، خیابان اکبری، کوچه نیلوفر، موزه موسیقی",4,4,4,1,0,1,0,1,1,0,1,0,0,5,10:00,23:00
امید (بلوار فردوس غرب),7.8,4,2144153846,تهران,بلوار فردوس,"نرسیده به اتوبان ستاری ،بلوار ورزی جنوبی، پلاک 20",4,4,4,1,0,1,0,1,0,0,0,0,0,3,9:00,23:00
کافه رستوران ویس,8.6,4,2166406225,تهران,خيابان طالقاني," ضلع غربي ميدان فلسطين، جنب خيابان فريمان، پلاك ٥٤٨",4,4,4,1,0,1,0,1,0,0,0,0,0,3,9:00,23:00
اُوان,8.2,4,2144624228,تهران,همت غرب," سردار جنگل، كوچه حيدرى مقدم شرقى، برج جام جم همت، واحد٣٣",4,4,4,1,0,1,0,1,0,0,1,0,0,4,9:30,23:00
ویکافه (قلهک),8.5,5,2122649561,تهران,خیابان شریعتی," دوراهی قلهک ، خیابان بصیری پلاک 6(ساختمان سام ) طبقه 5",5,4,4,1,0,1,0,1,0,0,1,0,0,4,8:30,23:00
بابیلون بیسترو,9,4,2188039499,تهران,شیخ بهایی,"  برجهای آ.اس.پ ، طبقه همکف تجاری پلاک22",4,4,4,0,0,1,1,1,0,0,0,0,0,3,10:00,23:00
شاتو,7.1,4,2144422772,تهران,پونک," خیابان میرزا بابایی، رو به روی پارکینگ شهروند، پلاک ۳۲",4,4,4,1,0,1,0,1,0,0,1,0,0,4,11:00,23:00
حیاط شماره 65,8.6,4,2188302842,تهران,خيابان انقلاب ( شرق به غرب)," نرسيده به ميدان فردوسى، خيابان موسوى، نبش كوچه اعتماد مقدم پلاك ٣٢",4,4,4,0,0,1,0,1,0,0,1,1,0,4,9:00,23:00
خانه پنیر پرچک,7.7,4,2188652255,تهران,خیابان ولیعصر," بالاتر از پارک ساعی، نبش کوچه گل",4,4,4,1,0,0,0,1,0,0,1,0,0,3,9:00,23:00
کافه چای بار,8.7,4,2122210311,تهران,خیابان دزاشیب," خیابان کریمی، خیابان سلیمی شمالی پلاک ۱۴۵",4,4,3,0,0,1,0,1,0,0,1,0,0,3,9:00,23:00
امیر,8.8,4,2188974400,تهران,خیابان ولیعصر," ابتدای یوسف آباد، بین چهارم وششم",4,4,3,1,0,1,0,1,1,0,0,0,0,4,12:00,23:00
بوفه کتاب مکتب تهران,6.9,4,2188891512,تهران,خیابان کریمخان," آبان جنوبی، پایین تراز ورشو، کوچه کیوان، پلاک8",3,4,4,0,0,1,0,1,0,1,1,1,0,5,11:00,23:00
درسا,9,5,2126643255,تهران,خیابان شریعتی," نرسیده به دوراهی دولت، بالاتر از تقاطع یخچال، خانه درسا، طبقه سوم",4,4,4,1,0,0,1,1,0,0,0,0,0,3,10:00,23:00
کارگاه جلاتو,8.6,4,2188088181,تهران,شهرک غرب,"فاز ۱ ،خیابان ایران زمین،مرکز تجاری گلستان،طبقه همکف شماره115",4,4,3,0,0,0,0,1,0,0,0,0,0,1,10:00,23:00
ب لین,8,4,2186072385,تهران,خیابان کریمخان," خیابان ایرانشهر، پایینتر از پارک هنرمندان، کوچه دهقانی، پلاک 4",4,4,4,1,0,0,0,1,0,0,1,0,0,3,8:00,23:00
نسکو,8.4,4,2166077081,تهران,خیابان آزادی," خیابان استاد معین، مجموعه معین مال، طبقه دوم، واحد 213",5,4,4,1,0,1,1,1,0,0,1,0,1,6,9:30,23:00
روبرتو,9,4,2126701830,تهران,پاسداران," بوستان دوم، پلاک 4",4,4,4,0,0,0,0,1,0,0,0,0,0,1,8:00,23:00
آنسو,9.1,5,2188803714,تهران,خیابان نجات الهی (خیابان ویلا),"خیابان ورشو،پلاک 11،زنگ یک",4,4,4,1,0,1,0,1,0,0,1,0,0,4,8:00,23:00
رایا,8.9,4,2188309010,تهران,خيابان كريمخان," خردمند شمالي، بعد از بانك تجارت، پلاك ٨٩",4,4,4,0,0,1,0,1,0,0,1,0,0,3,7:00,23:00
یاشل,7.6,4,2122016523,تهران,ولیعصر," بالاتر از اتوبان نیایش ،ک انصاری،برج ملت،ط همکف",4,4,4,1,0,1,1,1,0,0,0,0,0,4,9:00,23:00
پاپ,6.6,4,2122610670,تهران,خیابان شریعتی بالاتر از ظفر, جنب بیمارستان ایران مهر,4,4,4,1,1,1,0,1,0,0,1,0,0,5,10:00,23:00
لوپتو (یاسمن),8.1,3,2188054380,تهران,خیابان ملاصدرا," شیخ بهایی شمالی، برج صبا",3,4,3,0,0,0,1,1,1,0,0,0,0,3,11:00,23:00
پائیز 98,7.2,4,2166511036,تهران,خیابان شهرآرا," روبروی گذرنامه ،  پاساژ نسترن ، طبقه دوم ، واحد 13",4,4,4,0,0,0,0,1,0,0,1,0,0,2,9:00,23:00
لمیز(ولیعصر),8.6,4,2166462205,تهران,خیابان ولیعصر," بالاتر از چهارراه ولیعصر سمت راست، شماره 1435",4,4,4,0,0,0,0,1,0,0,1,0,0,2,7:00,23:00
الیزه,0,3,2188607531,تهران,خدامی," برج آفتاب، طبقه زیرین کافه الیزا",4,4,4,0,0,0,0,0,0,0,0,0,0,0,10:00,23:00
آلندا,0,0,2188312958,تهران,خیابان ايرانشهر," خیابان آذرشهر، پلاک ۲۸",0,0,0,0,0,0,0,1,0,0,1,0,1,3,9:00,23:00
کاربن,0,0,2188823246,تهران,خیابان کریم خان," خیابان ایرانشهر،کوچه جمیله شیخی ، پلاک ۱۳",0,0,0,1,0,1,0,1,0,0,1,1,1,6,8:00,23:00
کایسر,0,0,2122290380,تهران,نياوران,"اميرسليمانى،روبروی فرهنگسرای امام خمینی",0,0,0,0,1,1,1,1,0,0,1,1,0,6,10:00,23:00
شاپرک (جمهوری),0,0,2166913860,تهران,میدان جمهوری, نبش خیابان ارومیه,0,0,0,0,1,1,0,1,0,0,0,0,0,3,10:30,23:00
رکورد,0,0,2188573317,تهران,شهرک غرب,"فاز۱،خیابان ایران زمین،مرکز خرید گلستان،حیاط شرقی پلاک ۲۶",0,0,0,1,1,1,1,1,0,0,1,1,0,7,10:00,23:00
سیاه و سفید,0,0,2133636280,تهران,شهرری," میدان نماز، خیابان دیلمان شمالی، خیابان ایثار، پلاک ۱۶",0,0,0,1,1,0,0,1,0,0,1,0,0,4,11:00,23:00
نیوان,0,0,9191251920,تهران,بلوار میرداماد," پاساژ رز، طبقه دوم",0,0,0,1,1,1,1,1,0,0,0,0,0,5,9:00,23:00
بهروزان,0,0,2177927158,تهران,تهران پارس," خیابان بهار، نبش علی پور",0,0,0,0,1,0,0,1,0,0,0,0,0,2,10:00,23:00
پرسه در پراگ,0,0,2186090112,تهران,شهرک غرب,"میدان صنعت،ابتدای خیابان سیمای ایران،ورودی پارکینگ مجتمع تجاری پلاتین،جنب هایپرمی،حیاط مرکزی",0,0,0,0,0,0,1,1,0,0,1,1,0,4,10:00,23:00
شربت خانه,0,0,9100333537,تهران,بازار بزرگ ایران مال,طبقه G2,0,0,0,0,0,0,1,1,0,0,0,0,0,2,9:00,23:00
خانه پهلوان رزاز,0,0,2136833892,تهران,خیابان  امیرکبیر," کوچه جاویدی، پلاک۳۸",0,0,0,0,0,0,1,1,0,0,1,1,0,4,8:00,23:00
لوتوس,0,0,2126150421,تهران,آجودانیه,"مجتمع تجاری عرش آجودانیه،طبقه دوم پلاک 154",0,0,0,0,0,0,1,1,1,0,0,0,0,3,11:00,23:00
مومنتو,0,0,0,تهران,باملند," ورودی A بلوک A، طبقه 2",0,0,0,1,0,0,1,1,0,0,0,0,0,3,12:00,23:00
سورا,0,0,2144927217,تهران,شیخ فضل الله جنوب,"خیابان سازمان آب،بعد از چهارراه اول، روبروی پارک شاهین",0,0,0,0,0,1,0,1,0,0,1,1,0,4,12:00,23:00
کلاویه,0,0,2188882974,تهران,گاندی جنوبی," مرکز‌ خرید گاندی ، پلاک‌۱۶",0,0,0,0,0,0,0,1,0,0,0,1,0,2,12:00,23:00
دلیت,0,0,2188373032,تهران,شهرک غرب,"بلوارفرحزادی،بلوار نورانی،پلاک52",0,0,0,0,0,0,0,1,0,0,0,1,0,2,12:30,23:00
مستقل,0,0,2188313639,تهران,خردمند شمالی,"کوچه دهم،پلاک ۹",0,0,0,0,0,1,0,1,0,0,0,1,0,3,12:00,23:00
بین الملل,0,0,2188783259,تهران,ونک," ابتدای خیابان ملاصدرا ،خیابان پردیس، شماره19",0,0,0,0,0,0,0,1,0,0,1,0,0,2,9:00,23:00
کلاویه,0,0,9388538731,تهران,شهرك غرب,"بلوار فرحزادى،خيابان عباسى انارى ،پاساژ آريا ،واحد ٨ ‏",0,0,0,0,0,0,0,1,0,0,0,0,0,1,11:00,23:00
لوک,0,0,2122074794,تهران,سعادت آباد," بالاتر از میدان کاج ، خیابان
هشتم(یعقوبی) ، خیابان مجد ، پلاک ۲۲",0,0,0,0,0,0,0,1,0,0,1,1,0,3,8:00,23:00
برافتو,0,0,2122038600,تهران,خیابان ولیعصر," روبروی‌پارک ملت، کوچه انصاری،مجاور پارکینگ برج ملت،پلاک ۸۷",0,0,0,0,0,0,0,1,1,0,0,1,0,3,11:00,23:00
وانتد,0,0,2188495477,تهران,خیابان بهار شمالی," خیابان ورکش، پلاک۱۷/۱",0,0,0,0,0,0,0,1,0,0,0,1,0,2,11:00,23:00
دییر فکتوری,0,0,2188816378,تهران,خیابان انقلاب,"جنب خیابان آذرنوش،پلاک549",0,0,0,0,0,0,0,1,0,0,0,0,0,1,7:30,23:00
ریوا,0,0,2186091051,تهران,شهرک غرب,"مجتمع تجاری پلاتین،طبقه اول",0,0,0,0,0,1,0,1,0,0,0,1,0,3,11:00,23:00
ام,0,0,2126372792,تهران,فرشته," خیابان آقابزرگی، پلاک 21",0,0,0,0,0,0,0,1,0,0,1,0,0,2,11:00,23:00
لوکادونات (نیاوران),0,0,91091009,تهران,نیاوران,"مژده. میری،عرفانی،پلاک ۱۷",0,0,0,0,0,0,0,1,0,0,1,0,0,2,7:30,23:00
لوکادونات (سعادت آباد),0,0,91091009,تهران,‎سعادت آباد," پایین تر از ميدان فرهنگ، پلاك٣٧",0,0,0,0,0,0,0,1,1,0,1,0,0,3,8:00,23:00
برانچ تو,0,0,2122144905,تهران,میرعماد,"کوچه دوم،پلاک22",0,0,0,0,0,0,0,1,1,0,1,0,0,3,8:00,23:00
سیتو,0,0,2177880888,تهران,تهرانپارس,حدفاصل فلکه اول و سه راه,0,0,0,0,0,0,0,1,0,0,0,0,0,1,12:00,23:00
فلسفه,0,0,2166981267,تهران,خیابان نوفل لوشاتو," نرسیده به ولیعصر، کاشی 87",0,0,0,0,0,0,0,1,0,0,0,0,0,1,12:00,23:00
کارگاه سفالگری کوره,0,0,2186090174,تهران,شهرک غرب,"مجتمع تجاری پلاتین،طبقه منفی یک،جنب هایپرمی",0,0,0,0,0,0,0,1,0,0,1,0,0,2,8:30,23:00
کارزین (باشگاه انقلاب),0,0,2126216377,تهران,مجموعه فرهنگی ورزشی انقلاب,کلوپ صخره‌نوردی,0,0,0,0,0,0,0,1,0,0,1,0,0,2,8:00,23:00
کارزین (شهرک غرب),0,0,9046313850,تهران,شهرک غرب,"ایران زمین،باغ راه فدک",0,0,0,0,0,0,0,1,0,0,1,0,0,2,8:00,23:00
رابو,0,0,2188082597,تهران,شهرک غرب," بلوار دریا، بیست و یک متری گلها، نبش توحید پنجم",0,0,0,0,0,0,0,1,1,0,0,1,0,3,12:00,23:00
ابتدا,0,0,9354381886,تهران,ولیعصر," بالاتر از میدان ولیعصر، کوچه فرخی ، پلاک ۳۵",0,0,0,0,0,1,0,1,0,0,1,1,0,4,12:00,23:00
مُ,0,0,2122861934,تهران,خواجه عبدالله,"روبروی کوچه13،مجتمع اختر",0,0,0,0,0,0,0,1,1,0,0,0,0,2,7:30,23:00
بوتیک هتل نظامیه,0,0,2175904,تهران,ميدان بهارستان,"خيابان نظاميه،كوچه اصالت،بنبست پنجم",0,0,0,0,0,0,0,1,0,0,1,1,0,3,9:00,23:00
توشات,0,0,2188967962,تهران,بلوارکشاورز," خیابان قدس، نرسیده‌ به‌ ایتالیا، کوچه‌ اَمیرشاهی، پلاک 7",0,0,0,0,0,1,0,1,0,0,1,1,0,4,10:00,23:00
وانیا,0,0,2188430913,تهران,خیابان‌شریعتی‌,"خیابان‌ملک‌،پلاک‌۲۵",0,0,0,0,0,0,0,1,0,0,0,1,0,2,9:00,23:00
سرای ارغوان,0,0,2177401340,تهران,خیابان پیروزی," خیابان اول نیروی هوایی، پلاک3/2",0,0,0,0,0,1,0,1,0,0,1,0,0,3,10:30,23:00
داج,0,0,2144285411,تهران,اشرفی اصفهانی شمال,"بعد از پل حکیم،مجتمع تجاری هامون،پلاک51",0,0,0,0,0,0,0,1,0,0,1,0,0,2,8:00,23:00
رد (بال تی),0,0,9017554083,تهران,شهرک غرب," بلوار دادمان، خیابان درختی، انتهای بلوار سپهر، کنارگذر یادگار، پلاک ۲۰۸/۱",0,0,0,0,0,0,0,1,0,0,0,0,0,1,11:00,23:00
آلسو,0,0,2188895505,تهران,خیابان حافظ,"روبروی مدرسه البرز،نبش بن بست حیات",0,0,0,0,0,1,0,1,0,0,1,0,0,3,8:00,23:00
عمارت باران,0,0,0,تهران,اندرزگو,"خیابان سلیمانی غربی،پلاک ۱۱۹",0,0,0,0,0,1,0,1,1,0,1,1,0,5,9:00,23:00
رزت,0,0,2122062233,تهران,سعادت آباد," علامه شمالی ، هجدهم غربی ، پلاک ۵۵",0,0,0,1,0,0,0,1,1,0,1,1,0,5,9:30,23:00
سنترال,0,0,2188317114,تهران,سهروردي جنوبي,"خيابان برادران نوبخت ، جنب اتو آرمه ،پلاك ١٧",0,0,0,0,0,1,0,1,1,0,1,1,0,5,8:30,23:00
گرین بین,0,0,2188342126,تهران,خیابان انقلاب, بعد از میدان فردوسیحد فاصل رامسر و موسوی کوچه اذرنوش,0,0,0,0,0,0,0,1,0,0,1,0,0,2,9:00,23:00
فکرکده (اُپال),0,0,2122386782,تهران,سعادت آباد,"بلوار کوهستان،مجتمع تجاری اُپال،طبقه4",0,0,0,0,0,0,0,1,0,0,0,0,0,1,10:30,23:00
اُبژه,0,0,2188042079,تهران,بزرگراه کردستان,"خیابان زاینده رود غربی، پلاک ۱ (مجتمع پارک پرنس)، طبقه همکف، واحد۱۴",0,0,0,0,0,0,0,1,1,0,1,0,0,3,9:00,23:00
پنسو,0,0,2186126182,تهران,بلوار کشاورز, نبش خیابان 16 آذر,0,0,0,0,0,0,0,1,0,0,1,0,0,2,8:00,23:00
هاگ,0,0,21261212820,تهران,نیاوران," خیابان امیدوار، نبش کوچه پانزدهم",0,0,0,0,0,1,0,1,0,0,1,1,0,4,10:00,23:00
یارد,0,0,2188614998,تهران,مجتمع آ اس پ,"اس،پ واحد تجاری40",0,0,0,0,0,0,0,1,1,0,1,0,0,3,9:00,23:00
گریفین,0,0,2188816512,تهران,خیابان کریمخان زند," خیابان خردمند جنوبی، پلاک ۷۱",0,0,0,0,0,0,0,1,0,0,0,0,0,1,7:30,23:00
هومان,0,0,2122276206,تهران,میرداماد," خیابان سنجابی،میدان مینا ،پلاک ۳،مجموعه شهرکتاب مینا",0,0,0,0,0,0,0,1,0,0,0,1,0,2,9:00,23:00
صفر هشت,0,0,2122283828,تهران,فرمانیه,"دیباجی شمالی،پلاک ۷۲",0,0,0,0,0,0,0,1,0,0,0,0,0,1,8:30,23:00
بیکری روستار,0,0,2126455478,تهران,اقدسیه,"نبش خیابان فیرزو بخش،جنب سفارت چین،مجتمع تجاری آوا سنتر،طبقه منفی ۲",0,0,0,0,0,0,0,1,0,0,1,0,0,2,9:00,23:00
کارول (اندرزگو),0,0,2122215739,تهران,بلوار کاوه," ابتدای بلوار اندرزگو، پلاک ۱۳۸",0,0,0,0,0,0,0,1,0,0,0,0,0,1,9:00,23:00
سوییت بار,0,0,2133519430,تهران,بزرگراه شهید محلاتی,"حد فاصل پُل ری و پُل آهنگ،پلاک ۳۳۸",0,0,0,0,0,0,0,1,0,0,0,0,0,1,11:00,23:00
مزون,0,0,2122765436,تهران,دروس," میدان هدایت، خیابان شادلو، خیابان کماسایی، پلاک۴۷",0,0,0,0,0,0,0,1,1,0,1,0,0,3,8:00,23:00
چهل,0,0,2188095152,تهران,سعادت آباد," خیابان ۳۸، نبش تقاطع نبی اکرم و خیابان ۴۰",0,0,0,0,0,0,0,1,0,0,1,1,0,3,8:30,23:00
نون,0,0,2166756044,تهران,خیابان حافظ, روبروی تالار وحدت,0,0,0,0,0,0,0,1,0,0,0,0,0,1,10:00,23:00
یاسمینا,0,0,2188688629,تهران,سعادت آباد,"نبش نفيسي غربي (٢٣)،پلاك ٧٢/١",0,0,0,0,0,0,0,1,1,0,0,1,0,3,12:30,23:00
یاسرخان,0,0,2188059435,تهران,خیابان ملاصدرا,"خیابان شیراز شمالی،پلاک۱۳۱",0,0,0,0,0,0,0,1,1,0,0,0,0,2,10:30,23:00
بنیز,0,0,0,تهران,فرشته,"خیابان آقا بزرگی،خیابان صحرا،پلاک27",0,0,0,0,0,0,0,1,0,0,0,0,0,1,8:00,23:00
مارول,0,0,2177531368,تهران,خیابان شریعتی," پایین تر از سراه طالقانی، نرسیده به چهارراه سمیه، پلاک ۱۱۴/۱",0,0,0,0,0,0,0,1,0,0,1,0,0,2,9:00,23:00
چکاد,0,0,2188624741,تهران,خیابان یوسف آباد,"خیابان شصت و چهارم، مجتمع تجاری، مسکونی ASP،واحد تجاری ۳۴",0,0,0,0,0,0,0,1,0,0,0,0,0,1,12:00,23:00
دوپیو,0,0,2188919170,تهران,ولیعصر, تقاطع زردتشت نبش کوچه نوربخش,0,0,0,0,0,0,0,1,0,0,0,0,0,1,12:00,23:00
جهرمی,0,0,0,تهران,خیابان وحدت اسلامی (شاپور), قبل از میدان شاپور پلاک 586,0,0,0,0,0,0,0,1,0,0,0,0,0,1,11:00,23:00
برد (مطهری),0,0,2188867924,تهران,خیابان مطهری," نرسیده به خیابان سهروردی، ساختمان شماره ۱۲۰، طبقه منفی یک",0,0,0,1,0,0,0,1,0,0,0,0,0,2,16:30,23:00
تخت جمشید (سیدخندان),0,0,2188511119,تهران,خیابان شریعتی, ضلع جنوب پل سیدخندان پلاک ۱۸,0,0,0,1,0,0,0,1,0,0,0,0,0,2,11:30,23:00
شاین (مجتمع طوبی),0,0,2146088893,تهران,چیتگر,بلوار کوهک مجتمع تجاری طوبی,0,0,0,0,0,0,0,1,1,0,0,1,0,3,12:00,23:00
کانسپت,0,0,21,تهران,خیابان انقلاب," خیابان رازی ، نبش پارک دانشجو",0,0,0,0,0,0,0,1,0,0,0,0,0,1,9:00,23:00
دوناتو (پاسداران),0,0,2122564738,تهران,پاسداران,"دروس،خیابان هاتف اصفهانی،نبش کوچه جواهری ،پلاک ۷",0,0,0,0,0,0,0,1,1,0,0,0,0,2,10:00,23:00
ریکوتا,0,0,2188094633,تهران,سعادت آباد,"بلوار دریا،خیابان رامشه،نبش توحید یکم",0,0,0,1,0,0,0,1,1,0,1,0,0,4,7:00,23:00
سالیز (فلکه دوم تهرانپارس),0,0,2177763411,تهران,فلکه د,"م تهرانپارس پاساژ  پارسیان، بالکن سمت راست",0,0,0,1,0,0,0,1,1,0,0,0,0,3,11:00,23:00
سالیز (فرجام),0,0,2177763411,تهران,تهرانپارس," فرجام ، نبش عادل جنوبی",0,0,0,1,0,0,0,1,1,0,0,0,0,3,7:00,23:00
زرافه (تهرانپارس),0,0,2177964767,تهران,تهرانپارس شرقی," میدان رهبر ، ابتدای خیابان زهدی ، کوچه روشن شرقی",0,0,0,0,0,0,0,1,0,0,1,0,0,2,8:30,23:00
مینگو,0,0,2166563877,تهران,میدان انقلاب اسلامی," خیابان کارگر شمالی، بالاتر از خیابان نصرت",0,0,0,0,0,0,0,1,0,0,0,0,0,1,11:00,23:00
چوبیک (عرش آجودانیه),0,0,9125062720,تهران,عرش آجودانیه,,0,0,0,0,0,0,0,1,0,0,0,0,0,1,11:00,23:00
هیزم,0,0,2122508749,تهران,بزرگراه رسالت," بین کرد و کرمان، خیابان برادران محمودی (لاهیجانی)، پلاک 20",0,0,0,1,0,1,0,1,1,0,1,0,0,5,7:30,23:00
بیژن,0,0,9121770215,تهران,کریمخان زند,"میرزای شیرازی اول، کوچه ۴،پلاک۲",0,0,0,1,0,1,0,1,1,0,0,0,0,4,10:00,23:00
اوژن,0,0,2188732633,تهران,عباس آباد (بهشتی ),"بعد از مترو سهروردی،جنب خیابان یوسفی پلاک ۱۷۹",0,0,0,1,0,0,0,1,1,0,1,0,0,4,7:30,23:00
عتیق,0,0,2188048166,تهران,میدان شیخ بهایی, برج آفتاب,0,0,0,1,0,0,0,1,0,0,1,0,0,3,8:00,23:00
مدائن,8.4,4,2122252420,تهران,خیابان ظفر شرقی," خیابان فرید افشار، بلوار آرش شرقی، پلاک ۴۴",4,4,3,0,1,0,1,0,0,1,0,0,0,3,10:00,23:30
بام ری,8,4,2155967000,تهران,خیابان فداییان اسلام," صدمتر مانده به میدان اصلی شهرری،",4,4,4,1,0,0,0,1,1,1,0,1,0,5,11:00,23:30
آلموند,7.8,4,2188603988,تهران,یوسف اباد," خیابان 64، بعد از پل کردستان",4,4,4,1,0,0,1,1,0,0,1,0,0,4,9:30,23:30
آریا,0,0,2144452755,تهران,‏‎جنت آباد مركزي,روبروي برج طوبي,0,0,0,1,0,0,0,1,1,0,0,0,0,3,11:00,23:30
همرا,0,0,2122893990,تهران,پاسداران," خیابان ناطق نوری، میدان‌قبا، ضلع
شمالی ساختمان فرهنگسرا، جنب‌پارک زمرد",0,0,0,0,0,0,0,1,0,0,0,0,0,1,12:00,23:30
هرما,0,0,9122369902,تهران,کنارگذر کریمخان(به سمت هفت‌تیر)," بین قرنی و ایرانشهر، پلاک۱۹۰",0,0,0,0,0,0,0,1,0,0,1,1,0,3,10:00,23:30
بناک,6.7,0,2188495311,تهران,امجدیه," بهارشمالی ، بالاتر از ورزنده ، کوچه مخبرالملک ، پلاک ۴",0,0,0,0,0,0,0,1,0,0,1,0,0,2,8:30,23:30
جیلیز ویلیز (پل رومی),0,0,2135075,تهران,خیابان شریعتی," بعد از پل صدر، نرسیده به پل رومی، پلاک 1786",0,0,0,0,1,0,1,1,0,0,0,0,0,3,11:30,23:30
لانژ 12,0,0,2122555100,تهران,پاسداران," پایدارفرد ، بین بوستان چهارم و پنجم ، پلاک ۱۲",0,0,0,0,1,1,0,1,0,0,0,1,0,4,12:00,23:30
ژینرپلاس,0,0,2122017817,تهران,خیابان ولیعصر," نرسیده به پارک وی، خیابان قریشی (تورج)، پلاک 26",0,0,0,0,0,0,1,1,0,0,0,0,0,2,12:00,23:30
بلک باکس,0,0,2188815018,تهران,کریمخان,"ایرانشهر،کوچه استاد سمندریان،پلاک ۳۰",0,0,0,0,0,0,0,1,0,0,0,0,0,1,12:00,23:30
رامان,0,0,2122114976,تهران,یادگارامام جنوب,"فرحزاد شمالی،رو به روی نمایندگی سایپا پلاک ۲۵",0,0,0,0,0,0,0,1,0,0,0,0,0,1,11:30,23:30
خونه البرز,0,0,9123104263,تهران,خیابان انقلاب,"زیر پل کالج،کوچه البرز ۲ انتهای البرز ۱ پلاک ۳۲",0,0,0,0,0,1,0,1,0,0,1,1,0,4,9:00,23:30
برسین,0,0,2188577119,تهران,شهرک غرب,"میدان صنعت،ابتدای خیابان ایران زمین،پلاک7",0,0,0,0,0,0,0,1,0,0,1,0,0,2,7:30,23:30
آدیشه لانژ,0,0,2122381697,تهران,سعادت آباد," بلوار کوهستان، مرکز تجاری اپال، طبقه دهم",0,0,0,0,0,0,1,1,1,0,0,1,0,4,12:00,23:30
بلوکازا (شمس آباد),0,0,2122301030,تهران,شمس آباد,"ضلع جنوب شرقی میدان ملت،پلاک745",0,0,0,1,0,0,0,1,0,0,1,0,0,3,11:30,23:30
بلوکازا (قیطریه),0,0,2122245404,تهران,روبروی پارک قیطریه,"خیابان حداد،پلاک4",0,0,0,0,0,0,0,1,0,0,1,0,0,2,11:00,23:30
پازل,0,0,2188997114,تهران,خیابان فاطمی,روبروی هتل لاله,0,0,0,0,0,0,0,1,0,0,1,1,0,3,8:30,23:30
سرآشپز,0,0,2146086959,تهران,چیتگر," بلوار کوهک، مرکز خرید طوبی، آسانسور جنوبی، طبقه 5",0,0,0,0,1,0,1,1,1,0,0,0,1,5,12:00,23:30
تیسا لانژ,0,0,2122664161,تهران,جردن,"نبش آرش غربی،ساختمان اکسین،طبقه نهم",0,0,0,0,0,0,1,1,0,0,1,0,0,3,9:00,23:30
دیوکس,6.8,0,2166412840,تهران,خیابان ولیعصر,"بالاتر از چهار راه ولیعصر،خیابان بزرگمهر،نبش فریمان پلاک ۵۸",0,0,0,0,0,0,0,1,0,0,1,0,0,2,8:00,23:30
لالچه,0,0,2126253796,تهران,کامرانیه شمالی," نبش شریفی ، ساختمان یاس کامرانیه ، پلاک ۸ ، طبقه۹",0,0,0,0,0,0,1,1,0,0,0,0,0,2,16:00,23:30
خانه اطلسی,0,0,2166975237,تهران,میدان فلسطین,"خیابان طالقانی غرب،خیابان سرپرست بن بست پارس",0,0,0,0,0,0,0,1,0,0,1,1,1,4,12:00,23:30
دیوا,8.1,0,2126547133,تهران,لواسان," بلوار امام خمینی، نبش بوستان اول",0,0,0,0,0,0,0,1,0,0,1,1,0,3,8:00,23:30
بورکا,0,0,2188028851,تهران,یوسف آباد,"جهان آرا ، بین کوچه ۱۶ و ۱۸",0,0,0,0,0,0,0,1,0,0,1,0,0,2,8:30,23:30
واحه,0,0,2188314971,تهران,کریمخان,"خیابان ایرانشهر،کوچه نوشهر،پلاک۳",0,0,0,0,0,1,0,1,0,0,1,0,0,3,8:00,23:30
سینان,2.4,1,2188230930,تهران,گیشا," انتهای خیابان پیروزی شرقی ، ضلع شمالی بوستان گفتگو ، مجموعه پذیرایی گفتگو",1,1,1,0,0,0,0,1,0,0,1,1,0,3,9:30,23:30
بال (جردن),0,0,91070635,تهران,جردن," نبش اسفندیار، ساختمان اکسین، طبقه دوم، فروشگاه جین وست",0,0,0,0,0,0,0,1,1,0,1,0,0,3,8:00,23:30
برد گیم عمارت فردوس,0,0,0,تهران,باغ فردوس," خیابان عارفی نسب،کوچه دلبر پلاک ۴",0,0,0,0,0,0,0,1,1,0,0,0,0,2,4:00,23:30
پانتون,0,0,2188209035,تهران,خیابان ونک,"خیابان کار و تجارت،پلاک ۳۵",0,0,0,0,0,0,0,1,0,0,0,0,0,1,12:00,23:30
ذهن,0,0,2166469069,تهران,ولیعصر," روبه‌روی تئاتر شهر،کوچه پشن،پلاک۱۲",0,0,0,0,0,0,0,1,0,0,1,0,1,3,7:00,23:30
گالری راوی,0,0,2126454881,تهران,اقدسیه,"خیابان‌فیروزبخش،خیابان‌باستان،بعداز تقاطع اول،کوچه دستان ،پلاک۹",0,0,0,0,0,1,0,1,1,0,1,1,0,5,9:00,23:30
مایا,0,0,2188963232,تهران,میدان انقلاب,"خیابان کارگرشمالی،نرسیده به بلوارکشاورزپلاک1555",0,0,0,0,0,1,0,1,0,0,1,0,0,3,8:00,23:30
دم,0,0,2126208426,تهران,خیابان نلسون ماندلا,"کوچه عاطفی شرقی، پلاک۱۸",0,0,0,1,0,0,0,1,0,0,1,0,0,3,8:00,23:30
نیکی لانژ,0,0,9202193061,تهران,اندرزگو," سلیمانی غربی، خیابان واعظی، روبروی خیابان طوبایی",0,0,0,0,0,0,0,1,1,0,0,1,0,3,12:00,23:30
لینک (اندرزگو),8.1,3,2122670306,تهران,خيابان اندرزگو," خيابان سليمي جنوبي، خيابان نعمتي، پلاك ٣٤",5,5,5,0,0,0,0,1,0,0,0,0,0,1,11:00,23:30
ویگو,0,0,0,تهران,تجريش," ميدان قدس، ابتداى خيابان باهنر، پلاك ٥٧١",0,0,0,0,0,0,0,1,0,0,0,0,0,1,7:30,23:30
لوزان,8.1,0,9217260653,تهران,خیابان سپهبد قرنی," خیابان شاداب، پلاک ۵۲، جنب هتل قدس",0,0,0,0,0,0,0,1,0,0,1,0,0,2,6:00,23:30
عمارت پلاک 85,6,4,2186053695,تهران,یوسف آباد," خیابان شهید اکبری، روبروی سی و سوم، پلاک ۸۵",4,4,4,1,0,0,0,1,0,0,0,0,0,2,11:00,23:30
رادیو سیتی,2.4,0,2122179245,تهران,زعفرانیه," سه راه آصف،مجتمع تجاری بامیک",0,0,0,1,0,0,1,1,0,0,1,0,1,5,8:30,23:30
سینتیا,7.4,4,2126253102,تهران,فرمانیه,"نبش نارجستان چهارم،مجتمع ارتمیس،طبقه دوم",3,3,2,1,0,0,0,1,1,0,0,0,0,3,12:00,23:30
بیست و چهار,0,0,9123725424,تهران,سعادت آباد,"سرو غربي،١٨ متري مطهري،پلاك ١٢",0,0,0,1,0,0,0,1,1,0,0,0,0,3,11:00,23:30
تی یرا,8.1,5,2122550055,تهران,دروس," میدان هدایت، پلاک ۲۱",5,5,5,0,0,0,0,1,1,0,0,0,0,2,12:00,23:30
فلورانس,6.8,4,2144237788,تهران,مرزداران,"خیابان ابوالفضل،پلاک8",4,4,4,1,0,0,0,1,0,0,1,1,0,4,12:00,23:30
هورسان بیسترو,6.7,3,2122020072,تهران,جردن,"بالاتر از بلوار اسفندیار،نبش عاطفی غربی پلاک ۱۴۸",2,4,2,1,0,0,0,1,0,0,0,0,0,2,12:30,23:30
گالری هورا,6.7,0,2166465679,تهران,خیابان نوفل لوشاتو," خیابان رازی، بن بست زندوکیل، پلاک ۶",0,0,0,0,0,0,0,1,0,0,1,1,0,3,8:00,23:30
هتل ویستریا,0,0,2172071,تهران,تجریش," میدان قدس ،خیابان دربند ، نبش احمدی زمانی ، هتل ویستریا",0,0,0,1,0,0,1,1,0,0,1,0,0,4,8:00,23:30
خانه سرهنگ,7.4,4,0,تهران,انقلاب," میدان فردوسی، خیابان پارس، شماره ۲",3,4,4,0,0,0,0,1,0,0,0,0,0,1,11:30,23:30
بیترسوییت,8.4,5,2188998810,تهران,بلوار کشاورز," برج سامان، بلوک 1",4,4,5,0,0,0,0,1,0,0,1,0,0,2,9:00,23:30
کاسا دل,8.2,5,2177736003,تهران,فلکه اول تهرانپارس," امیری طائمه، پلاک 20،ط 1",5,5,4,1,1,1,0,1,1,0,1,1,0,7,9:00,23:30
گعده,0,0,99802768,تهران,خیابان طالقانی,"نرسیده به خیابان قرنی،روبروی هتل اطلس،پلاک ۲۹۸",0,0,0,1,1,1,0,1,0,0,0,0,1,5,11:00,23:30
افست,6.9,4,2166700666,تهران,خيابان انقلاب,نرسيده بين چهارراه وليعصر و پل كالج جنب رخت ايراني بته جقه پلاك ٩٧٤,4,4,3,1,0,0,0,1,0,0,0,1,0,3,9:30,23:30
دفینه,8.1,0,2177647478,تهران,دروازه شمیران, اول خ روشندلان پلاک 4,0,0,0,1,0,0,0,1,0,0,0,0,0,2,10:00,23:30
روکا لانژ,6.4,3,2140227002,تهران,فرمانیه,"نارنجستان هفتم (شهید جهانبخش‌نژاد)،مرکز خرید پارک سنتر،طبقه دوم.",3,3,2,1,0,0,1,1,0,0,0,1,0,4,8:30,23:30
ماها,8.2,5,2188073236,تهران,سعادت آباد,"بلوار دریا،انتهای خیابان رامشه،نبش کوچه مهرداد",5,4,5,1,0,0,0,1,0,0,1,1,0,4,9:00,23:30
چوگان,6.7,0,2188535677,تهران,پل سیدخندان,"خیابان میرمطهری،نرسیده به سهروردی، پلاک۹۰",0,0,0,1,1,1,0,1,0,0,0,0,0,4,11:00,23:30
نوا,7.5,5,2188610275,تهران,خیابان سئول,"میدان شیخ بهایی،پاساژ پارک سئول،پلاک ۵۱",5,5,5,1,0,1,0,1,0,0,0,1,0,4,11:00,23:30
گالری عمارت دل,7.9,4,9100775588,تهران,تقاطع خیابان فلسطین جنوبی و خیابان بزرگمهر,"روبروی سفارت فلسطین، پلاک ۳۵۶",4,3,4,0,0,1,0,1,0,0,0,1,0,3,9:00,23:30
ایستگاه (لاله),8.1,3,2188974098,تهران,خیابان کارگر شمالی," بازارچه سنتی لاله، پلاک ۱۳۹",4,4,4,0,0,1,0,1,0,0,0,1,0,3,9:00,23:30
علی کافه,6.7,0,2177249604,تهران,میدان هفت حوض," خیابان کمیجانی، جنب مهرانپور",0,0,0,0,0,0,0,1,0,0,0,0,0,1,9:00,23:30
شارونا,0,0,2188533412,تهران,سهروردى شمالى,"ميدان پاليزى،قندى غربى،نبش كوچه دوم،پلاك ٢١",0,0,0,0,1,1,0,1,1,0,0,0,0,4,11:00,23:30
طهران فارس,8.1,0,2177371166,تهران,تهرانپارس," بین فلکه سوم و چهارم ، نبش218غربی ، پلاک426",0,0,0,0,1,1,0,1,0,0,0,0,0,3,12:00,23:30
ساهی,0,0,2188914193,تهران,بالاتر از میدان ولیعصر," جنب سینما استقلال، داخل پاساژ، طبقه زیرزمین",0,0,0,0,1,1,0,1,0,0,0,0,0,3,10:30,23:30
آهون,7.7,4,2186037657,تهران,بلوار کشاورز," فلسطین جنوبی، نبش کوچه ذاکری",3,3,4,1,1,1,0,1,1,0,0,0,0,5,11:00,23:30
دالاترا,8.3,4,2126650665,تهران,پاسداران," بلوار شهرزاد، خیابان هدایت، پلاک ۸۴(میدان هدایت)",4,4,4,1,0,0,0,1,1,0,0,0,0,3,10:00,23:30
ماندلا (جردن),7.6,4,2188798418,تهران,جردن," نبش فرزان شرقی، پلاک 79",4,3,3,1,0,0,1,1,0,1,0,0,0,4,11:30,23:30
چیمنی (نیاوران),5.8,3,2122396391,تهران,خیابان نیاوران," بعد از سه راه یاسر به سمت تجریش، بعد از خیابان همایون فر ، پلاک ۳۲۴",2,4,3,0,0,0,0,1,0,0,0,0,0,1,9:00,23:30
نسن,9.3,4,2144050408,تهران,اشرفی اصفهانی,"خیابان پیامبرشرقی،بعد از حاجی زاده پلاک ۲۳",4,4,4,1,0,0,0,1,0,0,0,0,0,2,12:00,23:30
سیمونی,7.3,4,2133682245,تهران,پیروزی,"بلوار ابوذر،پل پنجم،خیابان ده حقی،نبش میدان مالک اشتر،جنب کافه فیروزه،پلاک ۴۲۶",3,3,3,1,0,0,0,1,1,1,0,1,0,5,12:00,23:30
آن (میدان ولیعصر),6.2,3,2188852309,تهران,میدان ولیعصر," جنب سینما قدس، انتهای کوچه مینو، ساختمان 105، طبقه همکاف، واحد 3",3,2,3,0,0,0,0,1,0,0,1,0,0,2,8:30,23:30
فلورین (ارگ),7.3,4,2122396758,تهران,میدان تجریش," خیابان سعدآباد روف گاردن مجتمع ارگ تجریش،طبقه4",3,2,2,1,0,1,1,1,0,1,1,1,1,8,9:00,23:30
ایرو,8.1,5,2144249243,تهران,اتوبان شیخ فضل‌الله غرب," بلوار چوبتراش، خیابان شهید علی حسینمردی",4,4,4,1,0,1,0,1,0,0,1,1,0,5,8:00,23:30
لمیز (پاسداران),7.9,4,2122577758,تهران,پاسداران,روبروی بوستان نهم پلاک288,5,4,4,0,0,0,0,1,0,0,0,0,0,1,7:00,23:30
ساکورا (فود مارکت آوا ستنر),8.1,3,2126122426,تهران,خیابان پاسداران," خیابان موحد دانش (اقدسیه)، جنب سفارت چین",5,4,4,0,0,0,1,1,0,0,0,0,0,2,10:00,23:30
فودمارکت آوا سنتر,8.3,4,2126122426,تهران,خیابان پاسداران," خیابان موحد دانش (اقدسیه)، جنب سفارت چین",4,4,4,0,0,0,1,1,0,0,0,0,0,2,10:00,23:30
قصاب (تجریش),6.5,4,2123331111,تهران,میدان تجریش," تقاطع خیابان دربند و فنا خسرو، پلاک۶۷",3,4,2,1,1,0,0,1,0,0,1,0,0,4,11:30,23:30
ملس,5.3,5,2122605068,تهران,شریعتی,"نرسیده یخچال،فود کورت قلهک،غرفه13",5,5,5,0,0,0,0,1,1,0,0,0,0,2,10:30,23:30
چنس,6.8,4,2122931978,تهران,میدان هروی,"خیابان موسوی شرقی،به سمت شمس آباد،جنب بانک رفاه،طبقه اول",4,3,4,0,0,0,0,1,0,0,0,0,0,1,9:00,23:30
بونلی,8.8,4,2144266030,تهران,مرزداران,"بين سپهر وآريا فر،ساختمان ديپلمات",4,5,4,1,0,0,0,1,0,0,0,0,0,2,11:30,23:30
ویش,8.8,4,9201365715,تهران,میدان انقلاب,"خیابان انقلاب،خیابان قدس،نبش خیابان بزرگمهر،حیاط شهرکتاب دانشگاه",4,4,4,1,0,1,0,1,0,0,1,1,1,6,10:00,23:30
رایدر,7.4,5,2186128421,تهران,شهرک غرب,"خیابان مهستان،خیابان ایران زمین، مرکز تجاری مهستان،داخل پاساژ طبقه همکف",4,4,4,1,0,0,0,1,0,0,0,0,0,2,11:30,23:30
کلنل,7.9,4,9197175267,تهران,خیابان شریعتی," نرسیده به پل سید خندان ، کوچه مهاجر",4,4,4,0,0,1,0,1,0,0,1,0,0,3,7:30,23:30
نام (ولی عصر),8.4,4,2188922948,تهران,خیابان ولی‌عصر, بالاتر از چهار‌راه زرتشتنبش ک جاوید پ۱۸۵۷,4,4,4,1,0,0,0,1,1,0,0,0,0,3,7:30,23:30
سینسیر,7.7,5,2122391706,تهران,الهیه,"خیابان آقابزرگی،خیابان صحرا،خیابان پارسا،برج افرا",4,5,4,1,0,0,1,1,0,0,0,0,0,3,11:00,23:30
رئیس (پالادیوم),8.5,4,2122663678,تهران,زعفرانیه,"خیابان مقدس اردبیلی،مرکز خرید پالادیوم،طبقهGB",4,4,4,1,0,0,1,1,0,0,1,0,0,4,8:00,23:30
سان استار,7,3,2122222,تهران,بالاتر از چهار راه پاسداران,نبش بهستان 4 چهارم,4,4,4,0,0,0,0,1,0,0,0,0,0,1,11:00,23:30
بیسترو پاپ,8.7,4,2188917683,تهران,خیابان سمیه," بعد از سپهبد قرنی ، نرسیده به نجات اللهی ، داخل کوچه افشار ، جنب تالار شب طلایی پلاک ۲",4,4,4,0,0,1,0,1,0,0,1,1,1,5,8:00,23:30
ژوان,8.5,4,2186128640,تهران,سعادت آباد," ابتدای بلوار دریا،نرسیده به صرافها جنوبی،پلاک75",4,4,4,0,1,1,1,1,0,0,1,1,0,6,7:30,23:30
کاروتا,9,4,2188095083,تهران,شهرک غرب,"بلواردادمان،بلوار درختی،خیابان سپهرشرقی،پلاک69",4,4,4,1,0,1,0,1,0,1,1,1,1,7,9:00,23:30
بی نام,8.3,4,2144958478,تهران,بزرگراه حکیم غرب," بعد از چهارراه تعاون، کوچه قائم، پلاک ۶",4,4,3,1,1,1,1,1,0,1,1,0,0,7,11:30,23:30
گردو,8.8,4,2177817393,تهران,ابتداي گلبرگ غربي,"خيابان حيدري،پلاك ٩٦",4,4,4,1,1,0,0,1,1,0,0,1,1,6,11:00,23:30
ریور,5.9,3,2126423038,تهران,ميرداماد," ميدان مادر ، خيابان وزيرى پور، پلاك ١٩/١",3,2,2,1,0,1,0,1,0,1,1,0,1,6,8:30,23:30
پرانا,7.3,4,2188699788,تهران,سعادت آباد," بلوار دریا ، مطهری شمالی ، خیابان عباسی اناری شرقی ، نبش کوچه آقایی پور،پلاک 10",4,4,4,1,1,1,0,1,0,0,0,0,0,4,12:00,23:30
کاریز (ترگیل),8.4,4,2122617179,تهران,خيابان شريعتي," خيابان دولت، نبش نعمتي(كيكاووس) ، باغ خانه شاعران ايران",4,3,3,0,0,1,0,1,0,1,1,1,0,5,8:00,23:30
ویوا کافه,6.7,4,2188765858,تهران,سهروردى شمالى," خيابان توپچى، ويواكافه شماره 13",3,3,3,1,0,0,0,1,0,0,0,0,0,2,8:00,23:30
تیوان,7.8,4,2122431889,تهران,زعفرانیه," بین مردانی و ماکویی پور، پلاک ۳۲، طبقه دوم",4,4,4,1,0,1,1,1,1,0,1,1,0,7,9:00,23:30
سینما (موزه سینما),8.1,4,2122756531,تهران,خیابان ولیعصر," بالاتر از زعفرانیه، باغ فردوس، موزه سینمای ایران",4,4,4,1,0,1,0,1,0,0,1,1,0,5,9:00,23:30
آپ آرت مان,8.6,4,2188866722,تهران,خیابان ایرانشهر," خیابان کلانتری، پلاک 48",4,3,4,0,0,1,0,1,0,0,1,0,0,3,8:30,23:30
خروج,7.8,4,2188972972,تهران,بلوار کشاورز," خیابان فلسطین، کوچه حجت‌دوست، پلاک ۳",4,4,4,1,0,1,0,1,0,1,1,0,0,6,8:00,23:30
ریک,7.3,4,2122118102,تهران,سعادت آباد,"ميدان بهرود،كوچه٣٣،روبروي هتل اسپيناس",4,4,4,1,0,1,0,1,0,0,0,0,0,3,10:00,23:30
بارن,8,4,2188341252,تهران,خیابان مطهری," خیابان سهروردی جنوبی، خیابان اورامان، پلاک ۱۳",4,4,3,1,0,0,0,1,0,0,1,0,0,3,7:00,23:30
ری را,8.3,4,2166707646,تهران,خیابان نوفل لوشاتو," بن بست لولاگر، شماره ۵",4,4,3,0,0,0,0,1,0,0,1,0,0,2,9:30,23:30
ویونا پلاس,8.6,4,2143937,تهران,بزرگراه شهید حقانی," خیابان شهیدی، انتهای کوچه کمان، پارک آب و آتش",4,4,4,1,0,0,0,1,0,0,1,1,0,5,8:30,23:30
ملودی,8.2,4,2188743656,تهران,سهروردی شمالی," بعد از مطهری، کوچه باغ",4,4,4,1,0,1,0,1,0,0,1,0,1,5,8:30,23:30
سپنج,8.5,4,2188060975,تهران,یوسف آباد," نبش خیابان 63، پلاک 2/483",4,4,4,1,0,1,0,1,1,0,1,1,0,6,8:00,23:30
آن,7.5,4,2188852309,تهران,میدان ولیعصر," جنب سینما قدس، انتهای کوچه مینو، ساختمان 105، طبقه همکاف، واحد 3",5,4,4,0,0,0,0,1,0,0,1,0,0,2,9:00,23:30
هوکاجی,7.2,4,2122886542,تهران,خيابان پاسداران,"خيابان بوستان دوم،نبش فرخي يزدي،پلاك 28،طبقه اول",4,4,4,1,1,1,0,1,0,0,0,1,0,5,11:30,23:30
کافه کوچه,7.5,4,2188728687,تهران,یوسف آباد,"خیابان بیستون،بین خیابان 16 و 18",4,4,4,1,0,1,0,1,0,0,0,0,0,3,12:00,23:30
پارت کافه,5.6,3,2144971968,تهران,اتوبان ستاري شمال,"بالاتر از حكيم،پاساژ كوروش،طبقه ٥",2,2,2,0,0,0,1,1,0,0,0,0,0,2,10:00,23:30
آندورا,8.8,4,2166950935,تهران,چهارراه ولیعصر," خیابان برادران مظفری شمالی، جنب بازار رضا پلاک77",4,5,4,0,0,1,0,1,0,0,1,0,0,4,10:00,23:30
لئون,7.4,4,2188614999,تهران,بزرگراه کردستان," مجتمع ASP، واحد ۱۹",4,4,3,1,0,1,0,1,1,0,1,0,0,5,7:00,23:30
لانجین (شهرک غرب),7.8,3,2188073283,تهران,شهرک غرب," بلوار دادمان، پلاک 36",3,3,3,0,0,0,0,1,1,0,1,0,0,3,7:30,23:30
لانجین (گاندی),8.2,4,2188877930,تهران,گاندی جنوبی," بین خیابان پانزدهم و هفدهم، پلاک 53",4,4,4,1,0,0,0,1,1,0,0,0,0,3,7:30,23:30
ملو,8.6,3,2188929415,تهران,خیابان ولیعصر,ضلع جنوب شرقی میدان ولیعصر جنب ورودی B پاساژ تجارت ایرانیان,4,2,5,0,0,0,0,1,1,0,0,0,0,2,8:00,22:00
ویونا (بازار قائم),7.3,4,2122721688,تهران,تجریش," بلوار شهرداری،کوچه زعیم ، بازار قائم ، طبقه پنجم ، پلاک 2176",4,4,5,1,0,0,1,1,0,0,1,1,0,5,9:30,22:00
قنادی ناتلی,8.6,3,2187109107,تهران,خیابان سهروردی شمالی," بالاتر از خیابان آپادانا، نبش خیابان توپچی، شماره 655",4,4,4,1,0,0,0,1,0,0,0,0,0,2,9:00,22:00
دو هشت,0,0,9025369618,تهران,انقلاب,"فخررازی،پلاک۳۷",0,0,0,0,0,0,0,1,0,0,0,0,0,1,11:00,22:00
فیشرآباد,0,0,2141969444,تهران,فیشرآباد(قرنی),نبش خسرو(دهقانی‌نیا),0,0,0,0,0,0,0,1,0,0,0,1,0,2,8:30,22:00
روناک گاردن,0,0,9104507000,تهران,نیاوران,"خیابان پور ابتهاج،خیابان خداوردی،کوچه آراسته،پلاک19",0,0,0,0,0,1,0,1,0,0,0,0,0,2,11:00,22:00
فیدار,0,0,2144973007,تهران,آیت اله کاشانی( به سمت صادقیه),"بعد از خروجی ستاری جنوب ، بین ابراهیمی و حسن آباد ،
پلاک ۴۳۰",0,0,0,0,0,0,0,1,0,0,1,0,0,2,8:00,22:00
قهوه روتین,0,0,2126711852,تهران,‎پاسداران, نبش نیستان دوم,0,0,0,0,0,0,0,1,0,0,0,0,0,1,10:00,22:00
کنج,0,0,2188961320,تهران,بلوار کشاورز," خیابان کبکانیان، نبش کوچه ی ۵، پلاک ۱۲",0,0,0,0,0,0,0,1,0,0,0,1,0,2,11:00,22:00
لوترا,0,0,2122043063,تهران,ولیعصر," نرسیده به پارک وینبش کوچه خاکزاد
پلاک ۲۸۴۱",0,0,0,0,0,0,0,1,0,0,0,0,0,1,6:00,22:00
شقایق,0,0,9127230048,تهران,امیر آباد," نبش کوچه ۱۴، مجتمع تجاری احسان، طبقه یک",0,0,0,0,1,0,0,1,0,0,1,0,0,3,11:00,22:00
لوندر (فرشته),0,0,2122394251,تهران,فرشته," خیابان بوسنی هرزگوین، خیابان دکتر حسابی، پلاک ۱۳/۱",0,0,0,0,0,0,0,1,1,0,1,0,0,3,7:30,22:00
لوف باکس,0,0,2122386812,تهران,سعادت آباد," بلوار کوهستان، مرکز تجاری اُپال",0,0,0,0,0,0,1,1,0,0,0,0,0,2,9:00,22:00
حیات هزار افسان,0,0,2166981278,تهران,خیابان فلسطین," خیابان بزرگمهر، خیابان برادران شهید مظفر(صبا)، پلاک ۱۲۵",0,0,0,0,0,0,0,1,0,0,1,1,0,3,10:00,22:00
پرولوگ,0,0,2122549556,تهران,پاسداران,"بوستان دوم،پلاک ۹",0,0,0,0,0,0,0,1,0,0,1,1,0,3,9:00,22:00
لوندر (جردن),0,0,2122414672,تهران,جردن,"نبش دستگردی،پلاک۹۹",0,0,0,0,0,0,0,1,1,0,1,0,0,3,7:30,22:00
عمارت شمسا,0,0,9309909890,تهران,میدان انقلاب,"کارگرشمالی،کوچه ادوارد براون، پلاک 17",0,0,0,0,0,0,0,1,0,0,1,1,0,3,10:00,22:00
کتاب جایی دیگر,0,0,2122603364,تهران,شریعتی,"جنب مترو قلهک،پلاک ۱۵۰۰",0,0,0,0,0,0,0,1,0,0,1,1,0,3,9:00,22:00
خانه نفیسا,0,0,2126767504,تهران,شهرک غرب,"بلوار فرحزادی،نبش خیابان امام صادق،پلاک2",0,0,0,0,0,1,0,1,0,0,1,0,0,3,10:00,22:00
دوبار (پارک پرنس),0,0,2188611766,تهران,ميدان ونک,"‌ خیابان ملاصدرا،‌ خروجی خیابان ملاصدرا به سمت بزرگراه كردستان",0,0,0,0,0,0,0,1,0,0,1,0,0,2,8:00,22:00
دوبار(برج آفتاب),0,0,2188032720,تهران,ولیعصر," خیابان خدامی، خیابان آفتاب، کوچه ماهتاب، حیاط تجاری برج آفتاب",0,0,0,0,0,0,0,1,1,0,1,0,0,3,8:00,22:00
خانه پاپریکا,6.7,5,2188808871,تهران,خیابان انقلاب," خیابان نجات‌اللهی(ویلا)
کوچه محمدی، نبش کوچه افشار، پلاک ۹",4,4,4,0,0,0,0,1,0,0,1,1,0,3,9:00,22:00
نشین,0,0,2166479180,تهران,خیابان انقلاب,"خیابان دانشگاه،خیابان وحید نظری،پلاک٦٨",0,0,0,0,0,1,0,1,1,0,1,0,0,4,10:00,22:00
ایمپرسو,0,0,2122822755,تهران,بالاتر از میدان نیاوران, خیابان جهانشاهی پلاک15,0,0,0,0,0,0,0,1,0,0,0,1,0,2,7:00,22:00
اینجا,7.4,2,2188815025,تهران,کریمخان,"خیابان میرزای شیرازی،شماره‌ ۹۳",4,4,4,0,0,0,0,1,0,0,0,0,0,1,9:00,22:00
الوا,0,0,0,تهران,سید خندان," خیابان جلفا، فرهنگسرای ارسباران، کوچه عقابف پلاک یک",0,0,0,0,0,0,0,1,0,0,0,0,0,1,10:00,22:00
دلواز,0,0,2188574755,تهران,شهرک غرب," فاز 1 خ ایران زمین،مرکزخریدگلستان، حیاط شرقی",0,0,0,0,0,0,0,1,0,0,1,0,0,2,9:00,22:00
تراس ایده,0,0,2188308145,تهران,خیابان کریمخان," خیابان سنایی، کوچه هجدهم، پلاک ۲۶، طبقه دوم‌",0,0,0,1,0,0,0,1,1,0,0,0,0,3,12:00,22:00
عمارت آرنوش,0,0,2188867427,تهران,خیابان کریمخان," بین خیابان ایرانشهر و خردمند جنوبی، خیابان ماهشهر، کوچه ملکیان، پلاک ۱۸",0,0,0,0,0,0,0,1,0,0,0,1,0,2,11:00,22:00
پیراشکی خسروی,8.1,0,2166763759,تهران,خیابان جمهوری," جنب کافه نادری، پلاک688",0,0,0,0,0,0,0,1,0,0,0,0,0,1,8:30,22:00
نارا,0,0,0,تهران,میدان انقلاب," کارگر شمالی، بالاتر از نصرت، پلاک 1531",0,0,0,0,0,0,0,1,1,0,0,0,0,2,10:00,22:00
آروما (شهرک گلستان),0,0,2146087305,تهران,شهرک گلستان," بلوار کوهک، مجتمع تجاری طوبی، طبقه اول ، واحد149",0,0,0,0,0,0,0,1,1,0,0,0,0,2,10:00,22:00
دفراز,3.8,0,2146021440,تهران,شهرک آهن," بلوار کوهک، نسیم 16",0,0,0,0,0,0,0,1,0,0,0,0,0,1,10:00,22:00
هاما,0,0,2146020460,تهران,شهرک گلستان," بلوار امیرکبیر، تقاطع کاج، مجتمع مال مون",0,0,0,0,0,0,0,1,0,0,0,0,0,1,9:00,22:00
بایت,7.5,5,2165013097,تهران,خیابان حبیب اللهی," خیابان قاسمی، پلاک۷۹، جنب جهد دانشگاهی شریف",5,5,5,1,0,0,0,1,0,0,1,0,0,3,9:00,22:00
فراموشی,6.7,3,2188324686,تهران,سهروردی," اورامی، نبش اسلامی",3,3,3,0,0,0,0,1,0,0,0,0,0,1,14:00,22:00
سریزو,6.3,4,2122925762,تهران,شریعتی," روبه رو حسینیه ارشاد، نبش بن بست هدیه",4,4,4,0,0,0,0,1,0,0,1,0,0,2,8:00,22:00
عمارت اطلسی,7.7,5,2166975237,تهران,میدان فلسطین,"خیابان طالقانی غرب،خیابان سرپرست جنوبی،کوچه پارس",4,4,4,1,0,0,0,1,0,0,0,1,0,3,8:00,22:00
بامبو (سعادت آباد),0,0,2122376525,تهران,میدان کاج," مجتمع سروستان، طبقه دوم، واحد ۴۲",0,0,0,1,0,0,0,1,0,0,0,0,0,2,10:00,22:00
سنگلج,0,0,2155693105,تهران,حسن آباد," خیابان وحدت اسلامی، پارک شهر، مرکز پارک",0,0,0,1,0,0,0,1,0,0,0,0,1,3,12:00,22:00
بازدید,5.2,3,2188308371,تهران,خیابان مطهری," خیابان مفتح، کوچه مرزبان‌نامه، خانه شماره ۱۳",3,3,3,0,0,0,0,1,0,0,0,0,0,1,10:00,22:00
تلما,0,0,9300655674,تهران,میدان فردوسی," خیابان ایرانشهر، روبروی اداره پست، پلاک۱۶",0,0,0,0,0,0,0,1,0,0,0,0,0,1,10:00,22:00
قهوه سنتو,7.5,4,9010770548,تهران,خیابان ناصرخسرو," روبروی شمس العماره، پلاک 149",5,3,4,0,0,0,0,1,0,0,0,0,0,1,8:00,22:00
دوناتو (آ.اس.پ),8.1,5,2188058767,تهران,مجتمع آ اس پ,"اس،پ  پلاک ۲۷A",4,4,4,0,0,0,0,1,0,0,0,0,0,1,10:00,22:00
غولی,6.3,2,2188809344,تهران,خیابان انقلاب," بین خیابان استاد نجات‌الهی(ویلا) و حافظ، کوچه پورموسی، پلاک۳",3,2,3,0,0,0,0,1,0,0,0,0,0,1,12:00,22:00
ریواژ,8.2,0,9120325580,تهران,خیابان ستارخان,"قبل از پل یادگار امام،خیابان صحرایی،مرکز خرید پارسیان،طبقه اول نبش راهرو fشمالی",0,0,0,1,0,0,0,1,0,0,0,0,0,2,11:00,22:00
ایبونی,0,0,2122829751,تهران,تقاطع خیابانهای لواسانی و‌اندرزگو," برج کوه نور، داخل پاساژ، واحد13",0,0,0,0,0,1,0,1,0,0,0,0,0,2,9:00,22:00
نون و قهوه,6,3,2122494657,تهران,اقدسیه," اتوبان ارتش، پاساژ پرنیان ، طبقه 2،پلاک 308",3,3,3,1,0,0,0,1,0,0,0,0,0,2,10:00,22:00
بوتیک هتل حنا,8,4,2166757601,تهران,خیابان حافظ," خیابان نوفل لوشاتو ، کوچه لولاگر، پلاک 2",3,4,2,0,0,0,0,1,0,1,1,0,0,3,7:30,22:00
پشت بوم (بلوار کشاورز),6.7,4,2188990319,تهران,بلوار کشاورز," جنب بیمارستان پارس ، مجتمع تجاری  سامان",4,4,4,0,0,0,0,1,0,0,1,0,0,2,9:00,22:00
تز برگر,8.1,5,2133979717,تهران,خیابان جمهوری," خیابان باغ سپهسالار(خیابان صف)، کوچه بخارا،پلاک 2/2",5,5,5,1,0,0,0,1,1,0,0,0,0,3,9:00,22:00
دوناتو,6.2,3,9335220199,تهران,نیاوران خیابان مژده," خیابان میری، خیابان عرفانی، پلاک ۱۷",3,3,3,0,0,0,0,1,1,0,0,0,0,2,10:00,22:00
بامداد,6,4,2166416802,تهران,ولیعصر," پایین تر از چهارراه ولیعصر، پلاک۱۳۸۷",4,4,4,0,0,1,0,1,0,0,1,0,0,3,8:00,22:00
بیسکاتی,7.3,4,2188700161,تهران,خيابان بهشتي,"تقاطع قائم مقام،پلاک 414",4,4,4,0,0,0,0,1,1,0,1,0,0,3,6:30,22:00
اوشن,7.3,4,2188231684,تهران,گیشا," خیابان علیالی غربی، پاساژ ستاره نصر، طبقه اول، پلاک 27",3,4,3,1,0,1,0,1,0,0,1,0,0,4,12:30,22:00
نخلستان,7.6,4,2142887104,تهران,خیابان طالقانی,"روبروی سینما فلسطین،خیابان برادران مظفر شمالی، پلاک 98",4,4,4,1,0,0,0,1,0,0,1,0,1,4,8:00,22:00
مزه,7.8,3,2122755268,تهران,تجریش,"پاساژ قائم،طبقه هنرمندان",5,5,5,0,0,0,0,1,0,0,0,0,0,1,11:00,22:00
فرهنگ و هنر مانا,9.1,5,2188996273,تهران,بلوار کشاورز," خیابان وصال، کوچه شاهد، پلاک 6",4,4,4,1,0,1,0,1,0,0,0,1,1,5,8:30,22:00
موگه,7,5,9306104440,تهران,شهر ری," سه راه ورامین ، نرسیده به میدان معلم ، پاساژ الماس ری ، ط اول واحد 102",5,5,5,1,1,1,0,1,0,0,0,0,0,4,10:00,22:00
کارفه,0,0,2188926063,تهران,کریمخان,"ویلای ‌جنوبی،کوچه ‌ارشد،شماره ۷",0,0,0,1,0,1,0,1,0,0,1,0,0,4,10:00,22:00
هتل آپارتمان وزرا,7.7,4,2188206220,تهران,خیابان خالد اسلامبولی (وزراء),"بعد از بیمارستان گاندی،پلاک 124",4,4,4,1,0,0,1,1,0,0,1,1,0,5,7:00,22:00
یاما,8.2,4,2188758388,تهران,خیابان بهشتی," خیابان کاووسی فر ،  پلاک 43",5,5,5,1,0,0,0,1,1,0,0,0,0,3,7:30,22:00
دیپلمات,0,4,2188305090,تهران,خیابان استاد مطهری," خیابان فجر (جم سابق)،پلاک 40",5,5,5,1,0,1,0,1,0,0,0,0,0,3,10:30,22:00
گلستان,8.1,0,2166711418,تهران,خيابان حافظ," نرسيده به ميدان حسن آباد، هتل گلستان، كافه گلستان",0,0,0,1,0,1,1,1,0,0,0,0,1,5,10:00,22:00
سایا,6.1,4,2166492290,تهران,انقلاب," خیابان دانشگاه، پاساژ دانشگاه، طبقه زیر همکف",4,4,4,0,0,1,0,1,0,0,1,0,0,3,10:00,22:00
کیک استودیوسارا (Asp),5.9,4,218804,تهران,اتوبان حکیم غرب,"خروجی شیخ بهایی،بلوار۶۴ متری،ساختمانهای آ.اس.پ،جنب ورودی بلوکB",3,4,3,0,0,0,0,1,0,0,0,0,0,1,8:00,22:00
لوشانه,7.8,4,2122710093,تهران,میدان تجریش," بازار قائم، طبقه پنجم",5,4,4,1,0,0,0,1,0,0,1,0,1,4,10:00,22:00
آرمنیا,8.5,4,2188841634,تهران,خیابان مطهری," خیابان فجر، خیابان لطفی، پلاک 126",4,4,4,1,0,0,0,1,0,0,0,0,0,2,10:00,22:00
سلفی,7,4,2166499792,تهران,خیابان ولیعصر," روبروی تئاتر شهر، جنب كوچه پشن، پاساژ صدف، واحد 16",4,4,4,0,0,1,0,1,0,0,1,0,0,3,10:00,22:00
مان و رو,7.8,4,2188873774,تهران,خیابان ولیعصر," نبش خیابان میرداماد ، مجتمع تجاری اسکان ، طبقه زیر همکف",4,3,4,1,0,1,0,1,0,0,1,0,0,4,8:00,22:00
روجا,6.8,3,2133904790,تهران,خیابان جمهوری,"بعد ازسعدی خیابان صف، مجتمع تجاری باغ سپهسالار طبقه 1،",4,3,3,0,0,1,0,1,0,0,1,0,0,3,10:00,22:00
گوشه,7.2,4,2188862554,تهران,خیابان شهید مفتح," نبش تقاطع سمیه، جنب هتل مارلیک، پلاک ۶۵",4,4,3,1,0,1,0,1,1,0,0,0,0,4,9:30,22:00
گذر,7.5,4,21,تهران,کریم‌خان," ابتدای ایرانشهر، پلاک ۲۳۹",4,4,4,0,0,0,0,1,1,0,1,0,0,3,7:00,22:00
دودو,5.8,2,2144289267,تهران,فلکه دوم صادقیه," برج گلدیس، طبقه اول، واحد 58",2,2,2,0,0,0,1,1,0,0,0,0,0,2,10:00,22:00
سام کافه (سام سنتر),8.2,4,2122653842,تهران,خیابان فرشته,مرکز خرید سام سنتر طبقه دوم,4,4,4,0,0,1,1,1,0,0,1,0,0,4,9:00,22:00
کاژه,6.3,4,21,تهران,نارمک," چهارراه تلفن خانه، ۴۶متری نارمک، خیابان دین محمدی، پلاک ۳۲",4,4,3,0,0,1,0,1,0,0,0,0,0,3,11:00,22:00
عمارت (تهرانپارس),7.2,3,2177738715,تهران,تهرانپارس," بین فلکه دوم وتیرانداز ، نبش 162غربی  ، پلاک 134",3,3,3,0,1,1,0,1,0,0,0,0,1,4,10:00,22:00
ویونا (برج میلاد),7,4,2188620337,تهران,بالای برج میلاد,,3,4,4,1,0,0,1,1,0,1,1,0,0,5,10:00,22:00
لوندر (زعفرانیه),7.5,0,2122176249,تهران,خیابان ولیعصر," خیابان زعفرانیه، خیابان مقدس اردبیلی، نرسیده به پسیان، پلاک 27",0,0,0,0,0,0,0,1,0,0,0,0,0,1,8:00,22:00
نارون,4.7,5,2126103980,تهران,نیاوران," بعد از تقاطع کامرانیه، مرکز خرید نارون، پلاک 7",4,4,4,1,0,1,1,1,0,0,1,1,0,6,9:00,22:00
کنج,5.4,3,2188949572,تهران,خیابان ولیعصر," بالاتر از زرتشت، نبش کوچه کامران، مجتمع تجاری کامران، طبقه روی همکف، پلاک20",4,3,3,1,0,1,0,1,0,1,0,1,0,6,10:00,22:00
آی کافه (iCafe),8,4,2126404521,تهران,میرداماد," متروی میرداماد، رز میرداماد، طبقه دوم",4,4,4,0,0,0,1,1,0,0,0,0,0,2,7:00,22:00
هنر,8.4,4,2166484885,تهران,خیابان انقلاب,"بین خیابان وصال و قدس،جنب سینما سپیده،کوچه اسکو شماره ۸",4,3,4,1,0,1,0,1,0,0,0,0,1,4,9:30,22:30
بیت بیسترو,7.9,4,2188890341,تهران,خيابان مطهري,"خيابان لارستان،نبش كوچه پور فلاح",5,5,5,1,0,1,0,1,0,0,0,0,1,4,7:00,21:00
گل لیان,8.4,5,9352865054,تهران,جردن," ناهید غربی، پلاک 14/1",5,5,5,0,0,0,0,0,0,0,0,0,0,0,24:00:00,7:00
طهرونچی,0,0,2188792956,تهران,‏‎ميدان ونک," ابتدای خیابان ونک, پلاک 3",0,0,0,0,0,0,0,1,0,0,1,1,0,3,8:00,23:15
ماشا,0,0,9029063234,تهران,بزرگراه شهید چمران,"تقاطع یادگار امام،هتل پارسیلن اوین",0,0,0,1,0,0,1,1,0,0,1,1,0,5,10:00,4:00
گروسی,0,0,2122883400,تهران,پاسداران, تقاطع گیلان و فرخی‌یزدی‌,0,0,0,0,0,0,1,1,0,0,0,0,0,2,12:00,23:45
لوکادونات (فرشته),0,0,91091009,تهران,فرشته," بوسنی هرزگوین، مجتمع تجاری مینیاتور، واحد ١",0,0,0,0,0,0,1,1,0,0,0,0,0,2,10:00,21:00
قهوه خان,0,0,2126117154,تهران,نیاوران,"خیابان پور ابتهاج،نبش خیابان محمدی",0,0,0,0,0,0,0,1,1,0,1,0,0,3,7:30,22:30
آولی,0,0,2122231006,تهران,اندرزگو, نبش علوی پلاک ۲,0,0,0,0,0,0,0,1,0,0,1,0,0,2,9:00,22:30
یانکی,0,0,9372293610,تهران,خیابان قرنی,"نبش کریمخان،هتل بلور،طبقه اول",0,0,0,0,0,0,0,1,0,0,0,0,0,1,17:00,5:00
پروژه (د),0,0,2122821044,تهران,روبرو پارک نیاوران, داخل فرهنگسرای نیاوران,0,0,0,0,0,0,0,1,0,0,1,1,0,3,8:30,22:30
کارزین (نیاوران),6.7,4,9046318440,تهران,مجموعه فرهنگی تاریخی کاخ نیاوران,,4,4,4,0,0,0,0,1,0,0,1,0,0,2,8:00,22:30
گیم ریپابلیک,0,0,2122367630,تهران,سعادت آباد," بالاتر از میدان کاج ، خیابان دوم (عبقری) ، داخل پارک شقایق ، ساختمان آجری",0,0,0,0,0,0,0,1,0,0,0,1,0,2,10:00,20:00
وایب,6.7,0,2122546562,تهران,دیباجی جنوبی," کوچه بختیاری، پلاک ۲۱",0,0,0,0,0,0,0,1,1,0,1,1,0,4,10:00,19:00
جاست فرش,0,0,2188887222,تهران,میدان آرژانتین," ابتدای عماد مغینیه، مجتمع تجاری بهاران",0,0,0,1,0,0,0,1,1,0,1,0,0,4,6:30,22:30
سین (کالج),6.7,4,2188934319,تهران,چهارراه کالج,"تقاطع خیابان حافظ و انقلاب،پلاک717",4,4,4,0,0,1,0,1,1,0,1,0,0,4,7:00,11:30
پرا,0,0,2126353205,تهران,خیابان فرشته, بوتیک مال ملل,0,0,0,0,0,0,0,1,1,0,1,1,0,4,9:00,22:30
پت,0,0,2188578403,تهران,شهرك غرب,"بلواردادمان،محوطه باز بيمارستان دامپزشكي پايتخت",0,0,0,0,0,0,0,1,0,0,0,1,0,2,10:00,21:00
پستو (سعادت آباد),8.1,5,2140227221,تهران,سعادت آباد,"میدان کاج،ابتدای سرو شرقی،مجتمع تجاری مارکیز طبقه R",4,4,4,0,0,0,1,1,0,0,1,1,0,4,9:00,22:30
گالری ریشه29,0,0,9912900031,تهران,خیابان الهیه," خیابان آقا‌بزرگی، پلاک۳۱",0,0,0,0,0,1,0,1,0,0,1,1,0,4,8:00,22:30
سرامیک موزه,0,0,2122809095,تهران,شمال کاخ نیاوران," اول کاشانک، انتهای خیابان جهانشاهی، خیابان احمد جبلی، پلاک ۲۳
‌",0,0,0,0,0,1,0,1,0,0,1,0,0,3,10:00,19:00
تئاتر,0,0,9126031037,تهران,خیابان جمهوری,"خیابان رازی،کوچه پرتویی",0,0,0,0,0,0,0,1,0,0,0,0,0,1,10:30,22:30
عرش,0,0,9354963429,تهران,شریعتی,"تقاطع طالقانی،ابتدای خواجه نصیر",0,0,0,0,0,0,0,1,0,0,1,0,0,2,9:00,22:30
مارژولن,0,0,2126316300,تهران,ديباجي جنوبي, نبش كوچه رحيمي پلاك ٣,0,0,0,0,0,0,0,1,0,0,0,1,0,2,8:30,22:30
نوول,0,0,9214197883,تهران,ابتداى لشگرى,"بين بيمه ٢ و ٣،كارخانه نوآورى آزادى",0,0,0,0,0,0,1,1,0,0,1,0,0,3,7:30,21:00
کتاب من,0,0,2122557274,تهران,اتوبان صدرشرق, خروجی منظریه خیابان‌منظریه طبقه فوقانی شهرکتاب منظریه,0,0,0,0,0,0,0,1,0,0,1,1,0,3,9:30,21:30
لایت,0,0,0,تهران,خیابون سی‌تیر," جنب موزه آبگینه، پلاک ۵۱",0,0,0,0,0,0,0,1,0,0,1,1,0,3,8:00,21:00
سعدآباد,0,0,2122715050,تهران,کاخ موزه سعد آباد,درب زعفرانیه بالاتر از کاخ ملت,0,0,0,1,0,0,0,1,0,0,1,0,1,4,9:00,21:00
اکنون,0,0,9121279460,تهران,اوین," اعرابی، نرسیده به سرهنگ عشقی، پلاک ۱۲",0,0,0,0,0,0,0,1,0,0,1,0,0,2,9:00,20:00
سدل روم,0,0,2188078088,تهران,شهرک غرب," فاز ۴، خیابان فلامک شمالی،
نبش کوچه پنجم، پلاک ۲۸",0,0,0,0,0,0,0,1,1,0,1,1,0,4,8:30,22:30
طهران تهران,0,0,2133934524,تهران,خیابان جمهوری," جنب متروی سعدی، پلاک ۲۰۵",0,0,0,0,0,0,0,1,1,0,0,0,1,3,12:00,16:00
تاریخ,6.7,5,2188997229,تهران,وصال شیرازی," نرسیده به بلوارکشاورز، بالاتر از ایتالیا، کوچه مریم، کاشی۵",4,5,4,0,0,0,0,1,0,0,1,0,0,2,9:00,20:00
کولی,0,0,2188690973,تهران,سـعادت آباد," بلوار دریـا، صرافهـا جنوبی، ۳۱غـربی",0,0,0,0,0,0,0,1,0,0,0,0,0,1,8:00,21:00
اسکای لانژ,2.6,4,2175675000,تهران,سعادت آباد," میدان بهرود، خیابان 33، هتل اسپیناس پالاس",2,2,2,0,1,1,0,1,1,0,0,1,0,5,19:00,2:00
هاوس لرت,0,0,2126158238,تهران,اقدسيه," موحددانش، پلاك ١١٠،مجتمع پلاتين",0,0,0,0,0,1,0,1,0,0,0,0,0,2,11:00,20:00
کورلئونه,6.7,3,2188563972,تهران,شهرک غرب," بلوار دریا به سمت شرق، بعد از میدان کوثر، رو به رو پارک دلاوران، خیابان 21 متری گلها",3,4,3,1,0,0,0,1,0,0,1,0,0,3,8:30,20:00
عمارت یار,7.1,4,9332672244,تهران,خیابان طالقانی," خیابان حافظ، خیابان رشت، پلاک ۴۱",3,3,3,0,0,0,0,1,0,0,1,1,0,3,9:00,20:00
رهاس,0,0,9331331774,تهران,جنب سينما فلسطين,"خيابان برادران مظفر،شماره ١٢٥",0,0,0,1,0,0,0,1,0,1,1,0,0,4,9:00,18:00
ایوان (لاله زار),7.7,5,2133532270,تهران,سعدی," خیابان ‌منوچهری، پاساژ مرجان، طبقه‌۱",4,4,4,0,0,0,0,1,0,0,1,1,0,3,10:00,20:00
فلوره,0,0,2188923589,تهران,خیابان ولیعصر," پایین تر از میدان ولیعصر، نبش بن بست صدف",0,0,0,0,0,0,0,1,0,0,0,0,0,1,11:00,21:30
مان زا,6.3,4,2188906727,تهران,خیابان کریم خان," خیابان نجات الهی، خیابان اراک، پلاک35",4,4,4,0,0,0,0,1,0,0,1,1,0,3,9:00,20:00
گالری رحیمیه,0,0,2155815132,تهران,مترو پانزده خرداد,"سبزه میدان،بازار کفاشها،رحیمیه۲",0,0,0,0,0,0,0,1,0,0,1,1,0,3,10:00,19:00
زنان کوچک,8.3,4,2188717173,تهران,یوسف آباد,"نبش پانزدهم،پلاک ۶۵",5,5,5,0,0,0,0,1,0,0,1,0,0,2,8:00,22:30
رف,8.1,5,9199185586,تهران,نیاوران," خیابان باهنر، بعد از مژده، بن بست شریعتی، پلاک ۱",5,5,5,0,0,0,0,1,0,0,0,1,0,2,17:00,23:15
استیج,0,0,9191400470,تهران,میدان دریاچه," بلوار میعاد غربی، درب اصلی دریاچه، استیج غربی، پلاک 11",0,0,0,1,0,0,1,1,0,1,1,0,0,5,7:00,12:00
لته باز,0,0,2166453354,تهران,خیابان بزرگمهر,"بین مظفروفلسطین،نبش ساختمان تجاری بزرگمهر",0,0,0,0,0,0,0,1,0,0,0,0,0,1,11:30,22:30
کرنج,7.5,0,2122951616,تهران,پاسداران," میدان هروی، خیابان ساقدوش، پایین تر از کوچه یاس پلاک 117/1",0,0,0,0,0,0,1,1,1,0,0,0,0,3,12:00,16:30
روژدا,0,0,2188049681,تهران,میدان شیخ بهایی," مرکز خرید سئول ، واحد ۵۶ و ۵۷",0,0,0,0,0,0,0,1,1,0,0,0,0,2,12:30,16:00
سفره گالری گوهرانه,0,0,2133922495,تهران,پانزده خرداد,بازارچه تاريخي عودلاجان,0,0,0,1,1,1,0,1,1,0,0,0,0,5,8:30,17:00
گدار,6.9,4,214469,تهران,انقلاب," خیابان قدس، خیابان پورسینا، نبش کوچه جلالی",4,4,4,1,0,0,0,1,0,0,0,0,0,2,9:00,20:30
کامارو,0,0,2177870055,تهران,فلکه دوم تهرانپارس,نبش 166غربی,0,0,0,1,0,0,0,1,0,0,1,0,1,4,8:00,22:30
سیتکا,5.1,4,2188910770,تهران,خیابان ولیعصر," بالاتر از میدان ولیعصر، نبش خیابان فرخی، پلاک ۱۷۶۷",3,3,2,1,0,0,0,1,1,0,0,0,0,3,11:00,11:30
دییر,6.7,0,9305623232,تهران,شهرک غرب,"خیابان ایران زمین،پاساژ گلستان،حیاط شرقی،واحد22",0,0,0,0,0,0,1,1,1,0,0,0,0,3,10:30,22:30
شین,7.4,4,2166706263,تهران,خیابان جمهوری," نرسیده به پل حافظ ،ابتدای کوچه لاله ،پلاک ۱۰",4,4,4,0,0,1,0,1,0,0,1,0,0,3,10:00,21:30
سوره مهر,7.2,4,2166476568,تهران,میدان انقلاب, فروشگاه کتاب سوره مهر,4,4,4,0,0,0,0,1,0,0,0,0,0,1,9:30,19:30
بستنی لبخند,8.2,4,2144979632,تهران,فلکه دوم صادقیه,"بلوار فردوس شرق،خیابان وفاآذر جنوبی،نبش کوچه نوبری،پلاک 19/2",5,4,5,0,0,0,0,1,1,0,0,0,0,2,10:00,23:50
گالریا,6.7,5,2188025258,تهران,ميدان فاطمي," ميدان گلها، بلوارگلها،پلاك٤٧",4,4,4,1,0,1,0,1,0,0,1,0,1,5,9:00,23:15
کلانا (طالقانی),6.9,3,2166405126,تهران,خیابان ولیعصر," بالاتراز چهارراه ولیعصر، نرسیده به خیابان طالقانی، پلاک 1519",3,3,3,1,0,0,0,1,0,0,1,0,0,3,6:30,22:30
عمارت روشنان,7.8,4,2122206715,تهران,بلوار اندرزگو," خیابان سلیمی شمالی، خیابان نوری",4,3,4,1,0,1,0,1,0,0,1,1,0,5,9:00,22:30
پلاک 5,6.6,3,2144586004,تهران,تهرانسر," میدان کمال الملک، داخل پارک نرگس",4,4,3,1,1,1,0,1,0,0,1,0,0,5,7:30,23:15
دو زرده,6.7,2,2166468566,تهران,خیابان انقلاب," فلسطین جنوبی، جنب بانک تجارت، پلاک ۲۷۷",2,2,2,0,0,0,0,1,0,0,1,0,0,2,6:30,18:30
هنرو تجربه,6.1,4,2126601517,تهران,خیابان شریعتی,"روبروی مترو قلهک،ساختمان آ،س،پ قلهک،طبقه همکف",3,4,4,1,1,1,0,1,1,0,1,0,0,6,8:00,22:30
روحی (تجریش),8.6,5,2122708893,تهران,خیابان شهرداری,سینما آستارا,4,5,4,0,0,0,1,1,1,0,1,0,0,4,9:00,22:30
خانه 1307,6.9,3,2188807434,تهران,خیابان سمیه," نرسیده به خیابان حافظ ، خیابان پورموسی ، بن بست شیرین ، پلاک 21",2,2,2,1,0,1,0,1,0,0,1,1,0,5,9:00,22:30
لوندر (فرمانیه),8.1,4,2126149830,تهران,فرمانیه, ابتدای دیباجی شمالی,3,5,4,0,0,0,0,1,0,0,0,0,0,1,7:30,22:30
بهار,6.7,3,2188730184,تهران,خيايان شهيد دكتر بهشتي," خيابان پاكستان، طبقه٤ مجتمع آموزش عالي بهار",3,3,3,1,0,0,0,1,0,0,0,0,0,2,16:00,19:00
کلانا(پارک وی),7.7,4,2122667760,تهران,خیابان ولیعصر," نرسیده به چهارراه پارک‌وی، پلاک ۲۶۷۸",4,4,4,0,0,0,0,1,1,0,1,0,0,3,7:00,22:30
کلانا ونک ۲,7.9,1,2188771024,تهران,میدان ونک," ضلع جنوب غربی میدان، پلاک ۱۴",3,1,3,0,0,0,0,1,0,0,1,0,0,2,7:00,21:00
دان تان پلنت,8.7,4,2122014969,تهران,جردن,"بعدازچهارراه اسفندیار،نبش کوجه ایرج،پلاک 117",4,4,4,1,0,0,0,1,1,0,1,0,0,4,8:00,23:45
موازی,7.1,4,2166577028,تهران,میدان انقلاب,"خیابان کارگر شمالی،پایین تر از نصرت،نبش کوچه جعفرزادگان،پلاک10/78،طبقه2",4,4,4,0,1,1,0,1,1,0,1,0,0,5,9:00,22:30
امضا (بام لند),7.4,4,2140447298,تهران,بزرگراه همت غرب," دریاچه چیتگر ، میدان موج ، مجتمع بام لند ، بلوک C3 طبقه ی دوم",4,3,3,0,1,0,1,1,0,1,1,0,0,5,9:00,12:00
مهربان,6.6,4,2177639766,تهران,خیابان انقلاب," نبش خیابان نامجو (گرگان)، مجتمع فرهنگی امام رضا(ع)، پلکان جنوبی",4,4,4,1,0,0,0,1,0,0,1,0,1,4,10:00,22:30
کلانا,7.6,4,2188971268,تهران,خیابان کارگر شمالی," نبش نصرت، پلاک ۱۵۲۵",4,4,4,1,0,0,0,1,1,0,0,0,0,3,7:00,22:30
رویال لانژ,5.3,4,9121693209,تهران,ﺑﺰرﮔﺮاه ﺷﻬﯿﺪ ﻫﻤﺖ," ﺧﺮوﺟﯽ ﺑﻠﻮار ﮐﺎﺷﺎن، میدان موج، خیابان موج بلوار صدف، مرکز تجاری تفریحی بام لند",2,2,2,1,1,1,1,1,0,0,1,0,1,7,13:00,15:00
دانتیسم,7,4,9109432487,تهران,میدان المپیک,"انتهای خیابان هوانیرو،میدان صدف،انتهای خیابان صدف،پلاک3",4,4,4,1,0,0,0,1,0,0,1,0,1,4,9:00,21:00
خانه نان,7.4,4,2122667752,تهران,پل پارک وی,ابتدای کوچه نوری,3,3,4,1,0,0,0,1,0,0,1,0,1,4,6:30,22:30
لبینا,8.8,4,2122231285,تهران,بلوار اندرزگو,"روبروی سه راه قیطریه، نبش شریفی‌منش",4,4,3,1,0,0,0,1,0,0,0,0,0,2,10:00,11:45
ویونا (هروی سنتر),7.7,4,2126758409,تهران,میدان هروی," خیابان موسوی ، نبش نازک ، مرکز خرید هروی سنتر ، طبقه یکم",4,4,4,1,0,0,0,1,0,1,1,0,0,4,8:00,22:30
روحی,8.9,5,2133900138,تهران,ميدان بهارستان," خيابان دانشسرا ،خيابان شريعتمدار رفيع ، باغ نگارستان",4,4,4,0,0,0,0,1,0,1,1,1,0,4,12:00,20:00
لول فور,8.2,4,2140221878,تهران,ميدان تجريش," مركز خريدارگ، طبقه ٤، کافه‌ رستوران Level4",4,3,3,1,1,1,1,1,0,1,1,1,0,8,8:30,12:00
رئیس (جم),8.7,4,2188314738,تهران,خیابان مطهری," خیابان فجر، شماره 44",4,5,4,1,0,0,0,1,0,0,1,0,0,3,8:30,23:45
لاون,8.5,4,2177746096,تهران,تهرانپارس," بین فلکه دوم و سوم، پلاک ۲۶۰",31,4,3,1,0,1,0,1,1,1,1,0,0,6,8:30,23:45
لینت,7.7,4,2188832727,تهران,خیابان قائم مقام," خیابان جم، پلاک ۴",3,3,5,0,0,1,0,1,0,0,1,0,0,3,9:00,20:00
کاویش,8,4,2144389320,تهران,بلوار مرزداران," نرسیده به اشرفی اصفهانی ، نبش خیابان ابوالفضل، پلاک ۲۰۷",3,3,3,1,0,1,0,1,0,0,1,1,0,5,9:00,23:15
ستراس,8.1,4,2188716255,تهران,خیابان بهشتی," خیابان وزرا ، نبش یکم ، پاساژ ستاره ، طبقه اول ، واحد 26",4,4,4,0,0,1,0,1,0,0,0,0,0,2,7:30,22:30
قهوه خانه گلها,7,4,2166745626,تهران,خیابان  فردوسی خیابان سرهنگ سخایی پلاک3,,4,4,4,1,0,0,0,1,1,0,1,0,0,4,6:00,16:30
شید,7.2,5,2188766726,تهران,سهروردی شمالی," چهار راه هویزه، نبش کوچه نیکو قدم، پلاک 476، نبش رستوران البرز",4,4,4,0,0,1,0,1,0,0,0,0,0,2,9:00,11:00
آفریقا,7.6,4,2188552925,تهران,میدان آرژانتین, طبقه دوم مرکز خرید آفریقا,4,4,4,1,0,0,0,1,0,0,0,0,0,2,10:00,21:00
آگر,8.7,4,2166700414,تهران,خیابان انقلاب," بین خیابان نجات الهی(ویلا) و میدان فردوسی، نبش کوچه براتی، پلاک814",4,4,4,1,0,1,0,1,0,0,1,0,0,4,8:00,11:00
سینما (خانه موزه انتظامی),8.1,4,2126768513,تهران,قيطريه," روبروي تقاطع كاوه، خ احمدي، كافه سينما خانه موزه استاد عزت الله انتظامي",4,4,3,0,0,1,0,1,0,0,0,0,0,2,10:30,22:30
لبخند,6,5,2177166876,تهران,خیابان دماوند نرسیده به ترمینال شرق,"جنب ایستگاه داریوش،خیابان حیدری",1,1,2,1,0,0,0,1,0,0,0,0,1,3,14:00,22:30
باغ موزه مقدم,7.1,4,9120157347,تهران,خیابان امام خمینی," بعد از شیخ هادی ، موزه مقدم",3,3,3,0,0,1,0,1,0,0,1,1,0,5,9:00,17:00
میرا,8,4,2166575736,تهران,ضلع جنوب غربی میدان انقلاب," جنب بانک پارسیان، ساختمان اسفند، طبقه اول",4,4,4,0,0,1,0,1,0,0,1,0,0,3,8:00,22:30
رنگ,6.6,3,2177587806,تهران,خیابان شهید مدنی," جنب مترو شهید مدنی، مرکز خرید تیراژه ۲، طبقه چهارم، واحد ۴۲۸",3,3,3,0,0,1,0,1,0,0,0,0,0,2,11:00,22:30
کوکو,0,0,2188385277,تهران,شهرک غرب," بلوار فرحزادی، خیابان عباسی اناری (ارغوان)، پاساژ آریا",0,0,0,1,0,1,1,1,0,0,1,0,0,6,9:00,11:30
ویکافه (فلسطین),8.3,4,2166976041,تهران,خیابان فلسطین," بالاتر از خیابان انقلاب، نبش خیابان نایبی",4,4,4,1,0,1,0,1,0,0,1,0,0,4,8:00,22:30
سارا,8.9,4,0,تهران,خیابان ولیعصر," بین خیابان رشت و طالقانی، پلاک 1521",4,4,4,0,0,1,0,1,0,0,1,0,0,3,8:00,22:30
لمیز (میرداماد),8.6,4,2126401507,تهران,خیابان میرداماد," پاساژ رز، جنب مترو، طبقه همکف",4,4,4,0,0,0,0,1,0,0,1,0,0,2,8:00,11:00
صدف(میرداماد),8.5,5,2122915960,تهران,خیابان میرداماد,"نرسیده به میدان مادر،جنب بانک صادرات،پلاک 102،نیم طبقه اول",5,5,5,1,0,0,0,1,0,0,0,0,0,2,11:00,21:00
کافه نادری,7.8,3,2166720791,تهران,خیابان جمهوری," بین سی تیر و چهارراه استامبول ، پلاک 524 و 520",3,2,3,0,0,0,0,1,0,0,1,0,0,2,10:00,19:00
لیو وان,8,4,2188888651,تهران,میدان ونک," گاندی شمالی، کوچه برادران شریفی، پلاک 57",4,4,3,1,1,1,0,1,0,0,0,0,1,5,12:00,4:00
نزدیک کتاب,8.6,4,2188490726,تهران,خیابان کریم‌خان زند," بین ایرانشهر و ماهشهر، شماره‌ ۱۳۴، طبقه‌ اول",4,4,4,0,0,1,0,1,0,0,0,0,0,2,10:00,22:30
اوریانت,9.3,4,2188347810,تهران,خیابان مفتح,نرسیده به انقلاب,4,4,4,0,0,0,0,1,0,0,0,0,0,1,8:30,20:00
ویونا(دریای نور),8.2,4,2188171977,تهران,خیابان بهشتی," خیابان سرافراز، برج دریای نور",4,4,4,1,0,0,0,1,1,0,1,0,0,4,7:30,22:30
کیک استدیو ورتا,8.4,4,2166475300,تهران,خ انقلاب," بین چهارراه وصال و اسکو، پلاک 979 جنب سینما سپیده",4,3,4,0,0,1,0,1,0,0,0,0,0,3,8:00,22:30
پارادیزو (مطهری),8.8,4,2188848022,تهران,خیابان مطهری,"بعد از مفتح،خیابان مهرداد،پلاک 12",4,4,4,1,0,1,0,1,1,0,1,0,0,5,9:00,21:30
کافه لایم,5.4,4,2122009214,تهران,خیابان فرشته," نبش کوچه شبدیز، پاساژ فرشته",4,3,4,0,0,1,0,1,0,0,1,0,0,3,9:00,23:45
آلبالو سیاه,6.7,3,2188309474,تهران,هفت تیر, مفتح شمالی روبروی پمپ بنزین پلاک 306,2,3,3,1,0,1,0,1,0,0,0,0,0,4,9:30,9:00
سها,6.7,0,2122272205,تهران,میدان محسنی خیابان بهروز برج بیژن طبقه اول,,0,0,0,0,0,0,0,1,0,0,0,0,0,1,9:00,21:30
فنجان اول,5.3,3,2188791535,تهران,ميدان ونك," ابتداى خیابان ونك، پاساژ ونك ، شماره ١١",3,3,4,1,0,1,1,1,0,0,0,0,1,5,10:00,21:00
الماس (شیراز),8.1,0,9364045239,شیراز,معالی اباد," مجتمع اوتانا یک، باشگاه الماس",0,0,0,1,0,0,0,1,0,0,1,0,0,3,10:00,23:00
اسکوروچی,7.3,4,7132279809,شیراز,شیراز," خیابان جهادسازندگی، حدفاصل چهارراه چنچنه و فلکه گاز، نبش کوچه ۳",4,4,4,0,0,0,0,1,0,0,1,0,0,2,9:00,23:30
ژولپ,5.4,3,7132246980,شیراز,پشت ارگ کریمخان,,4,1,2,0,0,0,0,1,0,0,1,1,0,3,8:30,23:00
رویال,0,0,9011309503,شیراز,بازار وکیل,"  مجموعه زندیه ، بین حمام و مسجد وکیل",0,0,0,0,0,0,0,1,0,0,1,1,0,3,8:00,23:00
پانسیون کتاب,8.4,4,9172525096,شیراز,خيابان ٢٢ بهمن(شاهپور سابق),روبروي كوچه ٥,5,5,5,0,0,0,0,1,0,0,0,0,0,1,11:00,23:00
این,8.2,0,36384254,شیراز,معالی آباد," نبش خیابان بهاران  ، مجتمع آرین",0,0,0,1,0,1,0,1,0,0,1,0,0,4,8:30,12:00
استریت لانژ,7.5,5,9173047400,شیراز,معالی آباد," پزشکان، مجتمع الماس شهر",5,3,3,1,0,0,0,1,0,0,1,0,0,3,9:00,23:00
فردوسی,6.3,0,32316616,شیراز,خیابان فردوسی," روبروی هتل آرين ،  كاشی 194",0,0,0,1,0,0,0,1,0,0,1,0,0,3,9:00,23:00
شهر کاغذی,8.1,4,32361033,شیراز,قصرالدشت," حدفاصل سه راه برق و ملاصدرا، كوچه ٢٥ قصرالدشت",4,4,4,1,0,1,0,1,0,1,1,0,0,5,9:00,23:00
یوگا,0,0,36390258,شیراز,ميدان احسان," بولوار پرستار،  ساختمان هاي مسكوني دراك ، بلوك اركيد",0,0,0,1,0,1,0,1,0,0,0,0,0,3,9:00,23:00
کندو,8.1,0,36236373,شیراز,پل معالی آباد بطرف دینکان,"بلواربهشت،روبروی مجتمع ارکیده",0,0,0,1,0,0,0,1,0,0,0,0,0,2,17:30,11:30
خانه هنر,6.7,0,36290999,شیراز,خيابان دانشگاه, پلاک 62,0,0,0,0,0,1,0,1,0,0,1,0,0,3,9:00,23:00
بهمن 57,7.3,0,36262444,شیراز,عفیف آباد,مجتمع تجاری حافظ طبقه اول,0,0,0,1,0,1,0,1,0,0,0,0,0,3,10:00,22:00
نقاشی,8.1,5,32231644,شیراز,خيابان فردوسي,"نبش خيابان رودكي،كافه نقاشي",5,5,5,1,0,0,0,1,0,0,0,0,0,2,9:30,23:30
حیاط,0,0,9164067312,شیراز,قصردشت," کوچه 36 روبروی عفیف آباد نبش ۳۶/۳ ، پلاک ۱۹۳",0,0,0,1,0,1,0,1,0,1,0,0,1,5,9:00,23:00
پاتوق کتاب,0,0,32344614,شیراز,شهرک گلستان," غدیرشمالی ، نبش گل رز‏",0,0,0,1,0,0,0,1,1,0,0,0,0,3,16:00,23:00
لابی لانژ (شیراز),0,0,7136238890,شیراز,معالی اباد, پزشکان هتل الیزه,0,0,0,1,0,0,0,1,1,0,0,0,0,3,8:00,23:00
سعدآباد,0,0,3132213539,اصفهان,ميدان انقلاب,"ابتداي چهارباغ عباسي،كوچه طاووس خانه،جنب مادي نياصرم",0,0,0,1,0,0,0,1,1,0,0,0,0,3,9:00,23:00
نیکان (اصفهان),6.7,0,3136628414,اصفهان,میدان فیض," خیابان میر، روبرو سازمان هلال احمر",0,0,0,1,0,0,1,1,1,0,1,0,1,6,8:00,23:45
دستان (اصفهان),0,0,32221842,اصفهان,خیابان سپه, کوچه کازرونی,0,0,0,1,0,0,0,1,0,0,1,0,0,3,8:00,23:00
خانه تاریخی همدم السلطنه,5.2,4,3132224874,اصفهان,انتهای خیابان حافظ, کوچه شماره ۳,3,4,2,0,0,0,0,1,0,1,0,1,0,3,12:00,15:30
ترنج (اصفهان),7.9,5,0,اصفهان,خاقانی, کوچه هوانس شیراز,4,4,4,1,0,0,0,1,1,1,1,0,0,5,7:30,23:00
فرهنگ (اصفهان),7.4,4,9135131338,اصفهان,خیابان کمال اسماعیل, طبقه زیرین پل جوئی,4,4,4,0,0,0,0,1,0,0,1,0,0,2,7:30,23:30
شربت سرای روزگار نو,8.3,5,32219965,اصفهان,میدان نقش جهان, بازارچه چهار سوق مقصود,5,5,5,1,0,0,0,1,0,0,1,0,0,3,9:00,22:45
شربت سرای روزگار,8.2,4,32234357,اصفهان,میدان نقش جهان,"جنب مسجد شیخ لطف الله ، سرای اسپادانا پلاک 37",3,3,4,1,0,0,0,1,0,0,1,0,0,3,9:00,22:45
پلاک دو,8.3,0,32213000,اصفهان,چهار راه فلسطين,"ابتداى خيابان استاندارى،سمت چپ،نهر فرشادى غربى پلاک2",0,0,0,1,0,0,0,1,0,0,1,0,0,3,8:30,23:00
تئاتر,8.2,0,31319042,اصفهان,خیابان چهارباغ عباسی," رو به روی شیخ بهایی ، مجتمع هشت بهشت ، ورودی سرای هشت بهشت ، طبقه اول",0,0,0,1,0,0,0,1,0,0,1,0,0,3,8:00,22:00
پستو,6.6,5,32217957,اصفهان,میدان انقلاب," خیابان چهار باغ عباسی ، خیابان مادی نیاصرم (حدفاصل چهار باغ و خیابان پاسداران)",5,5,5,0,0,0,0,1,0,0,0,0,0,1,12:00,16:00
وان,8.1,0,36246250,اصفهان,خیابان نظر میانی," میدان جلفا ، پلاک هفت، کافه وان.",0,0,0,1,0,0,0,1,0,0,0,0,0,2,10:00,23:30
هرمس (مصلی),6.7,3,36611151,اصفهان,خيابان مير,ابتداي خيابان مصلي نبش بن بست آذر,4,4,3,1,0,0,0,1,0,0,1,0,0,3,8:00,23:30
نارون,8.5,0,32217175,اصفهان,میدان نقش جهان," بازار قیصریه ، پلاک 9",0,0,0,1,0,0,0,1,0,0,0,0,0,2,9:00,22:00
تراس(اصفهان),6.5,4,36550332,اصفهان,سیتی سنتر," طبقه اول ، ورودی 8",4,4,4,0,0,0,1,1,0,0,1,0,0,3,10:00,24:30:00
تراس (مشهد),8.2,5,5131660,مشهد,مشهد," بلوار وکیل آباد، بین امامت 6 و 8",5,4,4,1,0,0,1,1,0,1,0,0,0,4,8:00,23:00
بوکافه (مشهد),8.1,0,5137605364,مشهد,سه راه فلسطین,دستغیب 10,0,0,0,0,0,0,0,1,0,0,1,0,0,2,9:00,23:00
لئون,7.5,0,9123848002,مشهد,بزرگراه کلانتری," مجموعه توریستی آبادگران ، ایران برج 1 ، B1",0,0,0,1,0,0,0,1,0,0,0,0,0,2,10:00,23:45
1860,8.6,5,38814117,مشهد,هاشمیه 91/5," خیابان سوم سمت چپ ، قطعه آخر",4,4,4,1,0,1,0,1,0,0,0,0,0,3,17:00,23:30
رولی (تبریز),0,0,4135243397,تبریز,اول عباسی, به طرف منصور,0,0,0,0,0,0,0,1,0,0,0,0,0,1,11:00,23:00
لاله زار (تبریز),0,0,4132820831,تبریز,چایکنار," بعد از کارواش شهرداری، نرسیده به بلوار آذربایجان",0,0,0,0,0,0,0,1,0,0,0,0,0,1,11:00,23:00
سانیز,0,0,4133346101,تبریز,پل سنگی, چایکنار,0,0,0,0,0,0,0,1,0,0,0,0,0,1,11:00,23:00
آسا,0,0,4133314649,تبریز,ولیعصر," خیابان شریعتی، نرسیده به میدان بهارستان، طبقه فوقانى قنادى کریمی",0,0,0,0,0,0,0,1,0,0,1,0,0,2,8:30,23:30
کلبه (تبریز),0,0,4133249214,تبریز,ولیعصر, نگین پارک,0,0,0,1,0,0,0,1,0,0,0,0,0,2,10:00,23:30
سن سون (تبریز),0,0,9356163131,تبریز,بلوار 29 بهمن," اول جاده شاهگلی، روبه‌روی راهنمایی",0,0,0,0,0,0,0,1,0,0,0,0,0,1,12:00,23:00
باداس (تبریز),0,0,4136660742,تبریز,رشدیه, ابتدای جاده سلامت,0,0,0,1,0,0,0,1,0,1,1,0,0,4,8:00,23:00
اوربان,8.1,0,4135567707,تبریز,خيابان شريعتي(شهناز), خيابان والمان,0,0,0,1,0,0,0,1,0,0,1,0,0,3,9:00,11:00
قهوه پدر,0,0,4135568285,تبریز,شریعتی جنوبی, کوچه‌های سنگی,0,0,0,0,0,0,0,1,0,0,0,0,0,1,12:00,23:00
کافه پیتزا8,0,0,36697408,تبریز,اتوبان پاسداران,50متر بالاتر از لاله پارک,0,0,0,1,0,1,0,1,1,0,1,0,1,6,11:00,23:00
پاییز 81,8.1,0,33260257,تبریز,خیابان ولیعصر," فلکه بزرگ ، مرکز خرید میلاد نور",0,0,0,1,0,1,1,1,0,0,0,0,0,4,10:00,23:00
رکس,8.3,0,36600670,تبریز,ميدان فهميده," مجتمع لاله پارك، طبقه1",0,0,0,0,0,0,0,1,1,0,0,0,0,2,10:30,23:30
آناناس,8.1,4,9019003033,کیش,میدان هور,,5,4,4,0,0,0,0,1,0,0,1,0,0,2,8:30,12:00
پدیده شاندیز,4.1,3,44471111,کیش,جاده جهان, نرسیده به میدان غروب,2,2,2,0,1,1,1,1,0,0,0,0,1,6,12:00,16:00
میرمهنا,6.7,3,9347698820,کیش,خیابان فردوسی," خیابان اعتصامی ، روبروی هتل آبادگران",3,3,3,1,0,0,0,1,0,1,0,1,1,6,12:00,16:00
بهمن,8.1,0,32910897,قم,45 متری صدوق," ابتدای خیابان حافظ، میدان میرقیصری",0,0,0,1,0,0,0,1,0,0,0,0,0,2,9:30,23:45
سینما عصر جدید,5.2,4,32247444,اراک,ابتداي خيابان ملک, سينما عصر جديد,3,2,2,1,0,1,0,1,0,0,0,0,0,3,11:00,23:30
پاییز,7.3,4,32228975,اراک,خیابان عباس آباد, خیابان میثم (هلال احمر) ساختمان ۹۶,2,2,2,1,0,0,0,1,0,0,1,0,0,3,10:30,22:30
فمیلی (اهواز),3.8,3,613390545,اهواز,كيان اباد, بين ٦ و ٧ شرقي,2,3,4,1,0,0,0,1,0,0,1,0,0,3,8:00,23:00
رویال پارک,6,3,9163110000,اهواز,ساحلى شرقى عامرى,روبروى خرم كوشك,3,3,3,1,0,0,0,1,1,0,0,0,0,3,12:00,15:00
برج,0,0,3330047,اهواز,خیابان کیانپارس," خیابان موحدین شرقی، برج کوثر",0,0,0,0,0,1,0,1,0,0,0,0,0,2,8:30,13:30
کُ کُ (ارومیه),8.1,0,4433478632,ارومیه,خیابان دانشکده," مرکز خرید دانشکده، طبقه دوم",0,0,0,1,0,0,0,1,0,0,0,0,0,2,10:00,22:00
آبشار (ارومیه),0,0,9143496710,ارومیه,خیابان شیخ شلتوت," نرسیده به میدان تره بار، روبروی بانک سپه",0,0,0,1,1,0,0,1,0,0,0,0,0,3,10:00,23:00
مس کافه (زنجان),0,0,33469415,زنجان,انتهای کوی قائم, نرسیده به تقاطع پليس,0,0,0,1,0,0,0,1,1,0,0,0,0,3,9:00,23:00
ژی,8.2,5,2433442957,زنجان,زنجان خیابان سعدی شمالی ابتدای خیابان بهار روبروی سیماران پلاک ١٤١,,5,5,5,1,0,1,0,1,1,0,0,1,0,5,3:00,22:00
نوژا,8.1,4,33348874,قزوین,خیابان فردوسی," بالاتر از میدان عدل، جنب کوچه شهاب",4,4,4,0,0,0,0,1,0,0,0,0,0,1,10:00,23:00
عینک ارثیه,8.3,5,9365047376,قزوین,سعدالسلطنه," سراي قيصريه ، حجره ٤٦",5,5,4,0,0,0,0,1,0,0,1,0,0,2,9:30,22:00
کاروما,7.9,4,33368201,قزوین,فردوسی شمالی," مرکز خرید نارون ، واحد  44",5,4,5,0,0,0,0,1,0,0,1,0,0,2,9:00,23:30
نگار السلطنه,9.6,5,33247634,قزوین,خیابان امام," کاروانسرای سعدالسلطنه ، بازار وزیر ، حجره ی سی و چهار",4,4,4,0,0,0,0,1,0,0,1,0,0,2,9:00,23:00
ژاو,6.7,0,8138256201,همدان,خیابانِ‌فرهنگ, روبروی‌ادارهٔ‌آموزش‌وپرورش,0,0,0,0,0,0,0,1,0,0,1,0,0,2,8:00,23:00
شاد (کرج),0,0,2634437777,کرج,گوهر دشت," بلوار رستاخیز، نبش خیابان 12",0,0,0,0,0,0,0,1,0,0,0,0,0,1,11:00,23:00
عمو قباد (کرج),0,0,0,کرج,گوهردشت,"خیابان سیزدهم غربي(فاز٢)، نرسیده به رستاخیز",0,0,0,0,0,0,0,1,0,0,1,0,0,2,9:00,23:00
آنان (گوهردشت),0,0,2634409701,کرج,خیابان گوهردشت," بلوار رستاخیز، نبش خیابان دهم شرقی",0,0,0,0,0,0,0,1,0,0,0,0,0,1,8:00,23:45
قلب خورشید (کرج),0,0,9190227841,کرج,عظیمیه," بلوار شریعتی ،خیابان نیک نژاد شمالی",0,0,0,0,0,0,0,1,0,0,0,0,0,1,12:00,23:00
رست (کرج),4.8,4,2632532193,کرج,عظیمیه, بالاتر از میدان استقلال( میدان اسبی),4,4,4,1,0,0,0,1,0,0,0,0,0,2,11:00,23:00
دارچین,7.3,4,2634409628,کرج,جهانشهر,"میدان هلال احمر،خیابان هلال احمر،نبش کوچه سنبل",4,4,4,1,0,1,0,1,0,0,0,1,0,4,8:30,23:00
بخارا (کرج),6.2,5,2634473334,کرج,خیابان هلال احمر, نبش فتوح,4,2,2,1,0,0,0,1,0,0,1,0,0,3,9:00,23:00
بلانچ (میدان عطار),6.5,4,2633554697,کرج,کرج," خیابان درختی ، میدان عطار",4,4,4,0,0,0,0,1,0,0,1,0,0,2,8:00,23:30
شمس العماره (گوهردشت),8.2,0,2634440452,کرج,گوهردشت," خيابان هشتم غربي (فاز دوم )، كاشي 18",0,0,0,1,0,0,0,1,0,1,1,0,0,4,9:00,22:00
کاردو (گلشهر),8.1,0,2633537360,کرج,۴۵متری گلشهر,نبش کوکب غربی,0,0,0,1,0,0,0,1,1,0,0,0,0,3,11:30,23:30
بوفالو (مهرشهر),5.2,3,33408952026,کرج,كرج_مهرشهر بلوار ‎شهرداري(چهارباندي) بين خيابان 213,215,3,3,3,1,1,0,0,1,0,0,0,0,0,3,10:30,23:30
ظفر,6.8,5,2634212369,کرج,فلکه اول گوهردشت,"خیابان آرش،بعد از درب ورودی پارکینگ نیکامال",5,5,5,1,1,1,0,1,1,0,0,0,0,5,10:00,23:00
آن لو (جهانشهر),0,0,2634212397,کرج,جهانشهر," میدان مدنی، ابتدای خیابان هلال احمر",0,0,0,0,0,0,0,1,0,0,0,0,0,1,11:00,23:00
کارزین (کرج),7.5,4,42268,کرج,ابتدای جاده مشکین دشت," رزکان نو، مجتمع اکومال",4,4,4,0,0,0,0,1,0,0,1,0,0,2,8:30,21:30
نی وی,0,0,2634641762,کرج,۴۵ متری گلشهر,ابتدای بلوار محمدی,0,0,0,0,0,0,0,1,1,0,0,0,0,2,11:00,23:00
وافل,7.5,5,9016211245,کرج,کرج," جهانشهر،بلوار مولانا",5,5,5,0,0,0,0,1,0,0,0,0,0,1,12:00,23:00
امیر شکلات پلاس (کرج),9.2,5,34497653,کرج,جهانشهر بلوار مولانا بعد از کسری شمالی,,5,5,5,1,0,0,0,1,1,0,1,0,0,4,8:30,23:00
ریبون,8.9,5,2632742069,کرج,میدان والفجر,ابتدای بلوار سرداران,5,5,5,0,0,0,0,1,0,0,0,0,0,1,10:00,23:30
چنین,8.5,4,34217217,کرج,جهــانشهــر," خيابان استاندارى، روبروي كوچه زُهـــــره",4,4,3,1,0,0,0,1,0,0,0,0,1,3,11:30,16:00
هاوانا,8.2,4,34420566,کرج,گوهر دشت,"خیابان 13غربی ،فاز 2،پلاک 68",4,5,5,1,0,1,0,1,0,0,0,0,0,3,10:00,23:00
پلاس,8.2,5,32527730,کرج,عظیمیه, ضلع جنوب شرقی میدان گلستان,4,5,5,1,0,0,0,1,1,0,0,0,0,3,8:00,12:00
الف,5.3,2,34464570,کرج,گوهردشت, خیابان هشتم شرقیپلاک ٧٦,4,4,4,1,0,0,0,1,0,0,1,0,1,4,9:00,23:30
صدایت,8.2,0,34490849,کرج,گوهردشت,خیابان دوازدهم شرقی طبقه زیرین پاساژ سرخه,0,0,0,1,0,1,0,1,0,0,0,0,0,3,11:00,23:30
رویال,8.1,0,3432529021,کرمان,خیابان فیروزه ابتدای خیابان پروین اعتصامی غربی,,0,0,0,0,0,0,0,1,1,0,1,0,0,3,6:45,13:00
پیانو,7.5,0,9131437692,کرمان,بلوار جمهوری,"  خیابان والفجر جنوبی ، نرسیده به بلوار شهید صدوقی",0,0,0,1,0,0,0,1,0,0,0,0,0,2,9:30,14:00
شربت چیان,8.2,4,32472087,کرمان,بلوار شیراز,"خیابان شهیدان قطبی نژاد (کوچه درختی)،نبش 11",4,4,4,1,0,0,0,1,0,0,1,0,0,3,6:30,13:00
رز,8.1,4,32459736,کرمان,خیابان هزار و یک شب کوچه 5 ابتدای کوچه سمت راست,,4,4,4,1,0,0,0,1,0,0,0,0,0,2,8:30,13:30
کیخسرو,6.7,4,33127264,کرمان,خیابان زریسف,"خیابان برزو آمیغی ،درب سوم ،سمت راست",3,4,3,0,0,0,1,1,0,0,0,0,0,2,8:00,22:30
بی ان دی (هرمزگان),8.1,5,7644873350,بندرعباس,انتهای بلوار دانشگاه," خیابان پروفسور خشنودی، جنب زمین چمن",5,5,5,1,0,0,0,1,0,0,1,0,0,3,8:00,11:00
ناردین,0,0,7633669610,بندرعباس,داماهی, بین گوهران ۱۳ و ۱۵ بعد از قارچ کوچولو,0,0,0,0,0,0,0,1,0,0,1,0,0,2,8:30,13:00
سالمونت,8,2,7633335153,بندرعباس,بلوار ساحلی,"  نبش کوچه ساحل ۱۰، جنب مبل کوروش",2,2,3,0,0,1,0,1,0,1,1,0,0,4,8:00,12:00
هنر,0,0,0,بندرعباس,خیابان اتوبوسرانی, فروزان 27,0,0,0,1,0,0,0,1,0,0,0,0,0,2,8:00,14:00
راش,5.3,1,0,بندرعباس,خواجه عطا بلوار وحدت جنوبی به سمت دریا," بعد از بازار ماهی فروشی،  روبروی کارواش پویا",1,1,2,0,0,0,0,1,0,0,0,0,0,1,9:00,12:00
کوکو,0,0,0,بندرعباس,خيابان اتوبوسرانى جنوبى, انتهاى كوچه جنت,0,0,0,0,0,0,0,1,0,0,1,0,0,2,8:00,12:30
فین,7.4,0,7633334747,بندرعباس,سیم بالا, روبروی فرمانداری,0,0,0,0,0,0,0,1,1,0,1,0,0,3,7:30,16:00
هتل ساسان (شیراز),0,0,7132302028,شیراز,خیابان کریمخان زند,خیابان انوری,0,0,0,1,0,0,1,1,0,0,0,0,0,3,7:00,24:00:00
صوفی (شیراز),0,0,7136490000,شیراز,بلوار ستارخان, روبه رو خردمند,0,0,0,1,1,0,0,1,0,0,0,0,0,3,11:00,24:00:00
حاج عباسعلی و پسران (شیراز),5.3,3,32288771,شیراز,بلوار آزادی, چهارراه باغ تخت,1,1,1,1,0,0,0,1,1,0,1,0,0,4,10:00,24:00:00
شین,8.2,0,7136284553,شیراز,پل زرگری به سمت فلکه دانشجو," روبروی ابیوردی ۳،جنب اتوکوروش",0,0,0,1,0,1,0,1,0,0,1,1,0,5,9:00,24:00:00
ساوانا (شیراز),0,0,9120998125,شیراز,خیابان قصرالدشت," حدفاصل ولیعصر و عفیف آباد ، کوچه ۵۹ ، روبروی ۵۹/۴",0,0,0,1,0,0,0,1,0,0,1,0,0,3,8:00,24:00:00
بنان (شیراز),0,0,7132354005,شیراز,حدفاصل پارامونت و باسکول نادر," ذوالنوار شرقی، روبروی کوچه ۲، ورودی پارکینگ زیتون",0,0,0,1,0,0,0,1,0,0,1,0,0,3,9:00,24:00:00
بابا بستنى (نیایش),0,0,716541815,شیراز,بلوار چمران, بلوار نیایش,0,0,0,0,0,0,0,1,0,0,0,0,0,1,12:00,24:00:00
ویتال,0,0,736305030,شیراز,قدوسى غربى,"خيابان محلاتى،نبش كوچه ٤",0,0,0,1,0,0,0,1,1,0,0,0,0,3,17:00,24:00:00
خوشا شیراز,7.5,0,7136504324,شیراز,بلوار صنایع روبروی ورودی گلدشت حافظ,,0,0,0,0,0,0,0,1,0,1,0,1,1,4,12:00,24:00:00
مجموعه هفت خوان,7.3,4,7132270000,شیراز,بلوار جدید قرآن,نبش کوچه 17,4,4,4,1,0,0,1,1,0,1,1,0,0,5,12:00,24:00:00
چیل,8.2,0,32343972,شیراز,خیابان هدایت غربی کوچه 8,,0,0,0,1,0,1,0,1,0,0,0,0,0,3,11:00,24:00:00
گرن,7.9,4,36541894,شیراز,بولوار نيايش, مجتمع هومهر,4,4,4,1,0,1,0,1,0,0,0,0,1,4,7:00,24:00:00
ماهونی,7.7,0,32278585,شیراز,حافظیه,روبروی باغ جهان نما,0,0,0,1,0,0,0,1,0,0,0,0,0,2,8:00,24:00:00
معمار,6.8,1,32276799,شیراز,خیابان جهاد سازندگی بالاتر از چهار راه چنچنه,,1,3,1,1,0,1,0,1,0,0,0,0,0,3,9:00,24:00:00
هدایت,5.8,3,32349152,شیراز,بيست متری سينما سعدی," هدايت غربی، نبش كوچه 4",2,3,2,1,0,1,0,1,0,0,0,0,0,3,8:30,24:00:00
آرک آ,5.2,0,3136290920,اصفهان,جلفا, روبروی کلیسای وانک,0,0,0,0,0,0,0,1,0,0,0,1,0,2,9:00,24:00:00
عمارت سیمون,6.9,4,3131325011,اصفهان,جلفا,روبروی کلیسا وانک,5,4,4,0,0,0,1,1,1,0,0,1,0,4,10:00,24:00:00
پارک لند (اصفهان),4.8,4,3136249731,اصفهان,بلوار سعدی, جنب فروشگاه هاکوپیان,5,4,5,1,0,0,1,1,0,0,1,0,0,4,12:00,24:00:00
ایرانیان,0,0,3136615350,اصفهان,خیابان آمادانا اول روبه روی معاونت درمان,,0,0,0,1,0,0,0,1,0,0,1,0,0,3,16:00,24:00:00
رادیو (اصفهان),8.1,5,3152413507,اصفهان,مبارکه," خیابان منتظری، پاساژ طلا، زیرزمین",4,4,4,1,0,0,0,1,0,0,1,0,0,3,8:00,24:00:00
ریبار (اصفهان),0,0,3136273150,اصفهان,خيابان بوستان سعدی," حدفاصل پل فلزی و پل مارنان، جنب پوشاك زاور، طبقه زيرين گل آريسا",0,0,0,1,0,0,0,1,0,0,1,0,0,3,9:00,24:00:00
سنس,0,0,3131310295,اصفهان,خیابان شریعتی غربی," چهارراه محتشم کاشانی ، جنب آموزشگاه حافظ",0,0,0,1,0,0,0,1,0,0,0,0,0,2,10:00,24:00:00
ژینر جلاتو (اصفهان),6.7,0,3136268540,اصفهان,نظر میانی, کوچه کلیسا وانک,0,0,0,0,0,0,0,1,0,0,0,0,0,1,9:00,24:00:00
ناژلند,7.5,0,3195010101,اصفهان,پارک جنگلی ناژوان,ایستگاه ۲ تله سیژ,0,0,0,1,0,0,1,1,0,0,1,0,0,4,8:00,24:00:00
کاغذ,5.3,0,9351449510,اصفهان,چهارباغ بالا روبرو زمزم مجتمع پارسیان انتهای ایوان,,0,0,0,0,0,0,0,1,0,0,1,0,0,2,9:00,24:00:00
مس و قالی,5.3,4,3132222764,اصفهان,خ سپه شرقی مقابل اداره دارایی مرکزی تیمچه مثقالی,,4,3,3,1,0,1,0,1,0,0,1,0,1,5,9:00,24:00:00
تعطیلات (اصفهان),6.2,3,3136268787,اصفهان,خیابان حکیم نظامی,جنب خیابان مهرداد,4,1,2,0,0,0,0,1,0,0,0,0,0,1,11:00,24:00:00
ستاره ی من,6.7,0,3136259096,اصفهان,خيابان حكيم نظامي,"كوچه سنگتراشها،بعد ازآبنما،نبش کوچه ۱۷",0,0,0,1,0,1,0,1,0,0,0,0,0,3,9:00,24:00:00
شربت خانه فیروز,6.8,5,36268009,اصفهان,جلفا خیابان حکیم نظامی کوی کلیسای وانک روبروی هتل جلفا,,4,4,4,1,0,0,0,1,0,0,1,0,0,3,8:00,24:00:00
تین دونات,7.9,0,36616110,اصفهان,خیابان میر, روبروی بیمارستان سپاهان,0,0,0,0,0,0,0,1,0,0,0,0,0,1,12:00,24:00:00
فرست کاپ,4.6,3,36550034,اصفهان,اصفهان," سیتی سنتر ، طبقه اول ، واحد cs 110",2,3,2,0,0,0,1,1,0,0,1,0,0,3,10:00,24:00:00
بستنی لابریت (چهار باغ),7.6,4,3136632329,اصفهان,چهارباغ بالا," نبش کوچه رییسی، پلاک 39",2,4,3,0,0,0,0,1,0,0,0,0,0,1,8:30,24:00:00
مجموعه غذایی تراس,0,0,5131660,مشهد,بلوار وکیل آباد," بلوار امامت ، بین امامت ۶ و ۸",0,0,0,0,0,0,0,1,0,0,1,0,0,2,8:00,24:00:00
پردیسان (هتل پردیسان مشهد),6.8,0,513909,مشهد,بزرگراه کلانتری بعد از میدان استقلال هتل پردیسان,,0,0,0,0,0,0,1,1,0,0,0,0,0,2,11:00,24:00:00
آرون (مشهد),0,0,5138823132,مشهد,كوثر شمالي ١," لاله ١ پلاك ١
( وكيل اباد ١٠ ، لاله ، پلاك ١",0,0,0,0,0,0,0,1,0,0,0,0,0,1,8:00,24:00:00
کاما,0,0,5138444516,مشهد,نبش کوهسنگی ۲۵,,0,0,0,1,0,1,0,1,1,0,1,0,1,6,8:00,24:00:00
صندلی,6.7,0,36013191,مشهد,وكيل اباد 15, نبش شهيد قاسمي 1,0,0,0,1,0,1,0,1,0,0,0,0,0,3,9:00,24:00:00
شکر (احمد آباد),8.3,4,38420131,مشهد,احمد آباد," بلوار ملاصدرا ، ملاصدرا 4",4,4,4,1,0,0,0,1,0,0,1,0,0,3,8:00,24:00:00
شکر (سجاد),7.4,5,37676664,مشهد,بلوار سجاد," خیابان بهار 2 ، پلاک 8",3,4,3,1,0,0,0,1,0,0,1,0,0,3,9:00,24:00:00
کوک,8.1,0,37638358,مشهد,بلوار خیام," خیام 10 ، خیابان زنبق",0,0,0,1,0,1,0,1,0,0,1,0,0,4,8:00,24:00:00
رترو (مشهد),6.7,0,35098085,مشهد,بلوار پیروزی," بین پیروزی 79 و 81 ، شماره 79",0,0,0,1,0,1,0,1,0,0,0,0,0,3,13:30,24:00:00
نبات,7.8,4,38443918,مشهد,خیابان سلمان فارسی," نرسیده به خیابان فلسطین ، نبش صفا",5,4,3,1,0,0,0,1,0,0,1,0,0,3,8:00,24:00:00
کافه 81,7.5,5,9155083007,مشهد,بلوار سجاد," خیابان حامد جنوبی 9 ،  پلاک 81",1,4,3,0,0,0,0,1,0,0,1,0,0,2,9:00,24:00:00
مثبت (تبریز),0,0,4133312019,تبریز,ولیعصر, فلکه بزرگ,0,0,0,0,0,0,0,1,0,0,0,0,0,1,11:00,24:00:00
گرامافون (تبریز),0,0,9056182325,تبریز,خیابان شریعتی جنوبی,نبش کوچه آرام اول,0,0,0,1,0,0,0,1,0,0,1,0,0,3,11:00,24:00:00
رز (تبریز),0,0,4133323024,تبریز,اول جاده ایل گلی," الهی پرست، نپش ۲۴ متری",0,0,0,1,0,0,0,1,0,0,0,0,0,2,11:00,24:00:00
لانژ,0,0,4136669702,تبریز,رشديه," الهيه،كوى سبلان",0,0,0,0,0,0,0,1,1,0,0,0,0,2,11:00,24:00:00
عمارت,7.7,5,0,تبریز,پارک ائل گلی, عمارت شاه گلی,4,5,4,1,0,1,1,1,0,0,0,0,1,5,11:00,24:00:00
امیر شکلات پلاس,6.7,0,9141150840,تبریز,خیابان ولیعصر," پارک ولیعصر ، مجتمع تفریحی",0,0,0,1,0,1,0,1,0,0,0,0,0,3,11:00,24:00:00
سیزده,8.2,0,33291989,تبریز,وليعصر," فروغي ، خيابان شيخ محمد خياباني ، كافه ١٣",0,0,0,1,0,1,0,1,1,0,0,0,1,5,18:00,24:00:00
لاواتزا,6.7,5,7644478655,کیش,پاساژ کوروش,,4,4,4,1,0,0,0,1,0,0,1,0,0,3,9:00,24:00:00
96 (کیش),6.8,5,9347694466,کیش,هتل کیش,,4,4,4,1,0,0,0,1,0,0,0,0,0,2,11:00,24:00:00
فودسان(کیش),2.4,3,7644468622,کیش,میدان پردیس, طبقه زیر هتل پارمیس,1,1,1,1,0,0,0,1,0,0,0,0,0,2,11:00,24:00:00
میکافه,8.1,0,9361897961,کیش,انتهای بلوار هنر," میدان میکا ، روبروی برج مسک.نی میکا",0,0,0,0,0,1,0,1,0,1,1,0,0,4,10:00,24:00:00
طهرون,8,4,9123038343,کیش,جنب کیبل اسکی,,4,4,4,0,1,1,0,1,0,0,1,0,0,4,9:00,24:00:00
هنرمند,8.1,5,7644458436,کیش,بلوار مروارید," روبروی مرکز خرید مروارید،  ایوان مروارید ، پلاک 336",3,4,4,1,0,1,0,1,0,0,1,0,0,4,11:00,24:00:00
ویونا (کیش),8.3,3,4452608,کیش,خیابان فردوسی, مرکز خرید کیش,4,4,4,1,0,0,0,1,0,0,0,0,0,2,11:00,24:00:00
کافه چی,8.2,5,2537840019,قم,نبش میدان صفاییه,,5,5,5,1,0,0,0,1,0,0,1,0,0,3,10:00,24:00:00
فیروزه,5.8,4,2532944404,قم,سالاریه,"میدان میثم،خیابان یاسمن،پلاک ۳۱۴",4,4,4,1,0,1,0,1,0,1,1,1,1,7,8:30,24:00:00
لمیز,8,5,22721469,قم,کیلومتر 5 اتوبان قم,"تهران، گردش سرای مهر و ماه",5,5,5,0,0,0,0,1,0,0,0,0,0,1,9:00,24:00:00
چمدون,8.1,0,0,قم,‎سالاریه," خیابان نسترن ، نبش کوچه ۹",0,0,0,0,0,0,0,1,0,0,1,0,0,2,8:30,24:00:00
باران,8.4,5,32615896,قم,ابتداي ٤٥ متري صدوق ميدان مفتح,,5,5,5,0,0,0,0,1,0,0,1,0,0,2,9:00,24:00:00
بارون,8.7,4,32931513,قم,خيابان صدوق,"  بلوار بوعلي ، ميدان شهيد دستغيب",4,4,4,1,0,0,0,1,1,0,1,0,0,4,7:30,24:00:00
ژیهات,6.8,4,32401378,قم,سالاريه," خيابان ژاله ، پلاک ژاله",4,4,3,1,0,0,1,1,0,0,1,0,0,4,8:30,24:00:00
ژاو,6.2,0,32401336,قم,٤٥ متري صدوق, ٢٠ متري كوكب,0,0,0,1,0,0,0,1,0,0,0,0,0,2,9:00,24:00:00
بوته,8.2,4,8634021212,اراک,میدان راه اهن,ابتدای شریعتی,4,5,4,1,0,0,0,1,0,0,0,0,0,2,12:00,24:00:00
امیرخان,8.1,0,0,اراک,سه راه ارامنه انتهای خیابان نیسانیان,,0,0,0,0,0,0,0,1,0,0,0,0,0,1,12:00,24:00:00
تی شی نی,0,0,8633139371,اراک,شهر صنعتی میدان پامچال,,0,0,0,0,0,0,0,1,0,0,0,0,1,2,12:00,24:00:00
کاراکال,3.8,1,34057080,اراک,خیابان دانشگاه, روبروی دانشگاه سما,1,1,1,1,0,0,0,1,0,0,0,0,0,2,9:00,24:00:00
ماژان (اهواز),6.7,5,6134449797,اهواز,زیتون," کارمندی، خ زیتون، نبش فاضل",4,4,4,1,0,0,0,1,0,0,1,0,0,3,12:00,24:00:00
پاتری,8.2,5,9374454048,اهواز,فلکه ملی,راه جنب مجتمع فرهنگی مخابرات,5,5,5,1,0,0,0,1,0,0,1,0,0,3,9:00,24:00:00
نوونو,0,0,9026299009,اهواز,کیانپارس,"خیابان ۹ غربی،فاز۳،پلاک ۱۵۱",0,0,0,1,0,0,0,1,0,0,0,1,1,4,10:00,24:00:00
ساحل (اهواز),0,0,6133743641,اهواز,گلستان," خ فروردین، بین بیمارستان و پارک قوری، مجتمع تفریحی ساحل",0,0,0,1,0,0,0,1,1,0,0,0,0,3,11:00,24:00:00
رست,0,0,6133328300,اهواز,فرهنگ شهر, رو به روی دانشگاه ازاد,0,0,0,0,0,0,0,1,1,0,1,0,0,3,8:30,24:00:00
بازیل (اهواز),8.1,0,6133928240,اهواز,ساحلي كيانپارس,,0,0,0,1,0,0,0,1,1,1,1,0,1,6,11:30,24:00:00
بستنی خاطره کرامت,0,0,9169207040,اهواز,خیابان زند, نبش کوچه قدس,0,0,0,0,0,0,0,1,0,0,0,0,0,1,12:00,24:00:00
لند (اهواز),8.2,0,0,اهواز,كيانپارس,انتهاي١٣ شرقي,0,0,0,1,0,0,0,1,1,0,0,0,1,4,14:00,24:00:00
دا,7,5,6133925232,اهواز,کیانپارس,خیابان سیزدهم شرقی,4,4,3,0,0,0,0,1,1,0,0,0,0,2,12:00,24:00:00
دنیز,7.5,0,33372241,اهواز,كيانپارس, بين خيابان ١٩و٢٠غربى,0,0,0,0,0,1,0,1,0,0,0,0,0,2,12:00,24:00:00
بروجا,6.7,0,9199913007,اهواز,خیابان اصلی کیان آباد, نبش خیابان 5 غربی,0,0,0,1,0,0,0,1,0,0,0,0,0,2,10:00,24:00:00
دیوار,0,0,0,اهواز,کیانپارس," خیابان مهر غربی (دانشور غربی)، فاز 3، مجتمع نگین",0,0,0,1,0,0,0,1,0,0,0,0,0,2,11:00,24:00:00
پازل,7.8,5,33922020,اهواز,کیانپارس,  انتهای خیابان 6 شرقی,5,5,5,1,0,0,0,1,0,0,1,0,0,3,8:30,24:00:00
دن,0,0,33902571,اهواز,کیانپارس," خیابان ایدون ، بین خیابان ۱۸ و ۱۹",0,0,0,0,0,0,0,1,0,0,0,0,0,1,8:30,24:00:00
گالری 28,6.7,3,9169778006,اهواز,کیانپارس,طبقه ی فوقانی سینما هلال,3,3,3,0,0,0,0,1,0,0,0,0,0,1,12:00,24:00:00
سینما,8.1,0,9360010091,اهواز,کیانپارس," 17 شرقی ، بعد از ورودی بیمارستان آریا ، جنب سوپر مارکت ایران",0,0,0,1,0,0,0,1,0,0,0,0,0,2,10:00,24:00:00
رینو,7.3,3,33922152,اهواز,کیانپارس," خیابان ۷ شرقی، پلاک ۳۸",3,4,4,1,0,1,0,1,0,0,1,0,0,4,8:30,24:00:00
کوچه,7.8,0,33924616,اهواز,کیانپارس," نبش خیابان 11 شرقی ،  طبقه فوقانی رستوران سنتی هزار دستان",0,0,0,1,0,0,0,1,0,0,0,0,0,2,11:00,24:00:00
بستنی لابریت (اهواز),7.6,1,88022244,اهواز,اهواز," ملی راه ، خیابان مهران پلاک 64",4,2,3,0,0,0,0,1,0,0,0,0,0,1,10:00,24:00:00
ژینو,0,0,9351700711,سبزوار,خیابان بهار بعد از پارک فاطمی,,0,0,0,1,0,0,0,1,0,0,0,0,0,2,12:00,24:00:00
سارو (زنجان),0,0,33433290,زنجان,مرکز تجاری روشا, طبقه 5,0,0,0,1,0,0,0,1,1,0,0,0,0,3,11:00,24:00:00
سوله (زنجان),0,0,9198442282,زنجان,خیابان خرمشهر," پشت باسکول، جنب بانک پارسیان",0,0,0,1,1,0,0,1,0,0,0,0,0,3,12:00,24:00:00
آرماندو (زنجان),0,0,2433779443,زنجان,میدان هنرستان," خیابان سوله، کوچه ابوذر غفاری، پلاک 1/2",0,0,0,1,1,0,0,1,0,0,0,0,0,3,11:00,24:00:00
برنیس,6.7,0,33991012,قزوین,بلوار آیت اله خامنه ای," روبروی هتل مرمر ، مجتمع نیایش ، جنب درب ورودی مجمتع",0,0,0,1,0,0,0,1,0,0,1,0,0,3,8:00,24:00:00
بام لند دیاکو,8.1,5,2833575753,قزوین,بلوار اسد آبادی, مجتمع تجاری دیاکو,5,5,4,0,1,1,1,1,1,0,0,1,1,7,12:00,24:00:00
دیو,8.1,0,10,قزوین,میدان جانبازان," ب سمت نوروزیان، انتهای خروجی پل مطهری ب نوروزیان",0,0,0,0,0,0,0,1,0,0,0,0,0,1,12:00,24:00:00
شید,0,0,9358559363,قزوین,پونک," انتهای بلوار نخبگان، نرسیده به مصیب مرادی، جنب فهیم هشتم",0,0,0,0,0,1,0,1,1,0,0,0,0,3,10:00,24:00:00
مون,7.5,5,9186115088,همدان,شهرک مدنی,"فازدو،سه راه آپارتمان ها،جنب باشگاه سلطان",4,1,5,0,0,1,0,1,0,0,0,0,1,3,9:00,24:00:00
فرست کلاس (جمهوری),0,0,34438500,کرج,جهانشهر," کنار گذر پل روحانی، نرسیده به میدان جمهوری، نبش کوچه میثم",0,0,0,1,0,0,0,1,0,0,0,0,0,2,11:00,24:00:00
مهراد,0,0,2635777,کرج,عظیمیه," بلوار شریعتی، طبقه چهارم",0,0,0,1,0,0,1,1,0,0,0,0,0,3,11:00,24:00:00
لوکاس,8.1,5,2633425186,کرج,مهرشهر," بلوار شهرداری، خیابان صد و نه، پلاک422/2",5,5,4,0,0,0,0,1,1,0,0,1,0,3,11:00,24:00:00
عمارت آسمانی,0,0,34441067,کرج,جهانشهر," بلوار ماهان شرقی، خیابان استانداری شمالی",0,0,0,0,0,0,0,1,0,0,0,0,0,1,11:00,24:00:00
کاویچ (گوهردشت),0,0,9015266615,کرج,گوهردشت,"بلوار آزادی،بین فلکه اول وسه باندی",0,0,0,0,0,0,0,1,1,0,0,0,0,2,7:00,24:00:00
ونهان (گوهردشت),6.7,0,2634447769,کرج,گوهردشت," خیابان  اصلي گوهردشت، خیابان داریوش",0,0,0,0,1,0,0,1,0,0,1,0,0,3,9:00,24:00:00
بیلیونرز (کرج),0,0,32513737,کرج,عظیمیه," میدان ‌طالقانی ، به‌سمت بام نبش گلستان‌۲۰",0,0,0,1,1,0,0,1,0,0,0,0,0,3,11:00,24:00:00
تی شی نی (کرج),5.2,2,32535553,کرج,بام,"عظيميه، بلوارطالقانی شمالی، نبش گلستان۲۰",2,3,3,0,1,0,0,1,0,0,1,0,0,3,9:00,24:00:00
کاراکتر (مهرشهر),2.4,2,2691010091,کرج,مهرشهر," بلوار شهرداری، چهارراه مسیح پاکدل، جنب مرکز خرید پاتریس",2,1,2,1,1,1,0,1,0,0,1,0,0,5,8:00,24:00:00
شهر خوردو,0,0,1596,کرج,مهرشهر," بلوار شهرداری، نبش شهرداری 205",0,0,0,1,0,0,0,1,1,0,1,0,0,4,8:00,24:00:00
پدرا (عظیمیه),6,4,2632555961,کرج,میدان اسبی," بلوار استقلال شمالی، نبش کوچه میر زنده دل",4,4,4,1,0,0,0,1,0,0,0,0,0,2,12:00,24:00:00
لوئیجی,0,0,2634990773,کرج,مهرشهر," بلوار شهرداری، نبش خیابان 205",0,0,0,0,0,0,0,1,1,0,0,0,0,2,10:00,24:00:00
فانوس (کرج),0,0,2634205700,کرج,جهانشهر," نبش میدان مدنی، نبش خیابان مهران",0,0,0,1,0,0,0,1,0,0,1,0,0,3,9:00,24:00:00
سون (کرج),5.3,0,2634209363,کرج,جهانشهر, استانداری شمالی,0,0,0,1,1,0,0,1,0,0,1,0,0,4,10:00,24:00:00
کهن دیاران,0,0,2632218178,کرج,بلوار شورا جنوبی, کافه رستوران کهن دیاران,0,0,0,1,0,0,0,1,0,0,0,0,0,2,12:00,24:00:00
ژوزک (فودکورت برج میلاد کرج),5.2,0,22093205,کرج,عظیمیه," بلوار طالقانی شمالی، بعد از پل آزادگان، نبش خیابان حسینی، برج میلاد، طبقه 2",0,0,0,1,0,0,1,1,0,0,1,0,0,4,8:00,24:00:00
ژوزک (مهرشهر),0,0,22093205,کرج,مهرشهر," چهارباندی، فاز 3، نبش خیابان 307، پلاک 298",0,0,0,1,0,0,0,1,0,0,1,0,0,3,8:00,24:00:00
اکسپوز,8.2,5,2633422874,کرج,مهرشهر," بلوار شهرداری، خیابان 341",5,5,5,0,0,0,0,1,1,0,1,1,0,4,9:00,24:00:00
مانا,0,0,2634236058,کرج,مهرویلا," ابتدای خیابان درختی، جنب بانک ملت",0,0,0,1,1,1,0,1,0,0,0,1,0,5,12:00,24:00:00
رویال پالاس (مهرشهر),4.7,2,2633411623,کرج,مهرشهر," بلوار شهرداری، انتهای خیابان 109",2,2,2,1,0,0,0,1,0,1,0,0,0,3,11:00,24:00:00
د می ز (عظیمه),6.7,3,9901863156,کرج,عظیمیه," میدان طالقانی به سمت بام، نبش ندا شمالى",1,4,3,1,1,1,0,1,0,0,0,0,0,4,10:00,24:00:00
دوران (عظیمیه),7.8,4,2632512141,کرج,کرج," عظیمیه، میدان بهارستان",4,4,4,1,1,0,0,1,1,0,0,0,0,4,11:00,24:00:00
گارنیش (جهانشهر),8.1,5,2634474023,کرج,ميدان جمهوري," بلوار ماهان غربي، بعد از تالار لوتوس، خيابان ارغوان، كوچه بهار شرقي",4,5,4,1,1,0,0,1,0,0,1,0,0,4,9:00,24:00:00
فرست کلاس (گوهردشت),6,5,2634457327,کرج,کرج,"فلکه اول گوهردشت،خیابان دوم شرقی",2,2,2,1,1,0,0,1,0,0,1,0,0,4,11:00,24:00:00
خلیفه گاردن,6.3,4,2633400607,کرج,مهرشهر,"خ شهرداری،خ صد ،بین خ 116و117",3,4,3,1,1,1,0,1,0,0,0,1,0,5,12:00,24:00:00
آرتمیس,7.9,5,2633412347,کرج,مهرشهر,مسیح پاکدل شرقی,5,4,4,1,1,1,1,1,0,0,0,1,0,6,12:00,24:00:00
فونگو,7.4,4,2634211196,کرج,گوهردشت,"چهارراه ملك شاه،روبروي پاساژ ملاصدر، نبش پنجم شرقي",4,4,4,0,0,0,0,1,1,0,0,0,0,2,11:00,24:00:00
ژارلس,7.6,4,2634417455,کرج,رجایی شهر روبروی دانشگاه آزاد,,4,4,4,0,0,0,0,1,1,0,0,0,0,2,9:00,24:00:00
تی تی,7.3,5,2634344808,کرج,بلوار موذن,"خیابان پیروزی جنوبی، نبش نوزدهم",5,5,5,1,1,1,0,1,0,0,1,0,1,6,9:00,24:00:00
کافه سیبیل,8.1,0,9125640364,کرج,بلوار ارم," سه راه شهرداری ،فودکورت مجتمع پاسارگاد",0,0,0,1,0,0,0,1,1,0,0,0,0,3,11:00,24:00:00
دالون,8.2,3,9300060013,کرج,بلوار رستاخیز," نبش هفتم غربی، جنب فست فود بکسمات",4,3,5,1,0,0,0,1,1,0,0,0,0,3,8:00,24:00:00
شمس,8.5,5,33400188,کرج,مهرشهر,"بلوار شهرداری،نبش خیابان109",4,4,4,1,0,0,1,1,0,0,0,0,0,3,12:00,24:00:00
بلانچ,8.5,4,9126195499,کرج,كرج," عظيميه ، ميدان بهارستان",3,4,3,1,0,0,0,1,0,0,0,0,0,2,12:00,24:00:00
مازو,4.8,3,32532193,کرج,عظیمیه," بلوار استقلال ، ضلع شمالی میدان اسبی",4,3,4,0,0,0,0,1,0,0,1,0,0,2,8:00,24:00:00
لانژ,8.7,5,32549212,کرج,عظیمیه,"میدان اسبی،ضلع شمالی پارک ایران زمین",4,4,3,1,1,1,0,1,0,1,0,0,1,6,8:00,24:00:00
داریوش,4.3,3,32556413,کرج,کرج,"عظیمیه،بالاتراز میدان استقلال،نبش کوچه الهام",2,3,2,1,0,1,0,1,0,0,0,0,1,4,8:00,24:00:00
دیاکو (کرمان),0,0,3432111389,کرمان,بلوار جمهوری, خیابان هوشنگ مرادی کوچه شماره ۹,0,0,0,1,1,0,0,1,1,0,0,0,0,4,11:00,24:00:00
پنج و نیم,8.3,4,9017765438,کرمان,خیابان بهمنیار ۲۴, انتهای محوطه پارکینگ,4,3,3,1,0,1,0,1,0,0,0,0,1,4,8:30,24:00:00
ریتون,7.8,0,32469231,کرمان,خیابان بهمنیار, بهمنیار 24,0,0,0,1,0,1,0,1,0,0,1,0,0,4,9:00,24:00:00
باریستا,7.4,4,32457711,کرمان,بلوار حمزه, بین کوچه 24 و 26,4,4,4,1,0,0,1,1,0,0,0,0,0,3,7:30,24:00:00
کنج دنج,0,0,7633740333,بندرعباس,رسالت شمالی," چهارراه پردیس، ساختمان ثبت شرکت(ریاضیات خیام)",0,0,0,0,0,0,0,1,0,0,1,0,0,2,8:00,24:00:00
پیانو,8.1,0,9133239334,بندرعباس,خیابان رسالت جنوبی, بلوار12فروردین به طرف ۹ دی,0,0,0,1,0,0,0,1,0,0,1,0,0,3,11:00,24:00:00
